{"type":"FeatureCollection","features":[{"type":"Feature","properties":{"aeroway":"taxiway","ref":"T11","surface":"asphalt"},"geometry":{"type":"LineString","coordinates":[[139.772428,35.562006],[139.772366,35.561955],[139.772296,35.561912],[139.772221,35.561876],[139.77214,35.561848],[139.772041,35.561827],[139.771951,35.561819],[139.771871,35.561818],[139.771767,35.561829]]}},{"type":"Feature","properties":{"aeroway":"taxiway","ref":"T11","surface":"asphalt"},"geometry":{"type":"LineString","coordinates":[[139.771343,35.561925],[139.771402,35.561902],[139.77146,35.561877],[139.771514,35.561847],[139.77155,35.561818],[139.771593,35.561779],[139.771632,35.56174],[139.771665,35.561699],[139.7717,35.561649]]}},{"type":"Feature","properties":{"aeroway":"taxiway","surface":"asphalt"},"geometry":{"type":"LineString","coordinates":[[139.772632,35.560349],[139.772713,35.56028],[139.772777,35.560234],[139.772842,35.560202],[139.772905,35.560175],[139.77298,35.560154],[139.773054,35.560139],[139.773134,35.560133],[139.773226,35.560133],[139.77331,35.560147],[139.773381,35.560162],[139.773461,35.56019],[139.773537,35.560225],[139.773606,35.560271],[139.773672,35.560324]]}},{"type":"Feature","properties":{"aeroway":"taxiway","surface":"asphalt"},"geometry":{"type":"LineString","coordinates":[[139.77138,35.560783],[139.771412,35.560804],[139.77145,35.56083],[139.7715,35.560852],[139.771576,35.560879],[139.771652,35.5609],[139.771683,35.560906],[139.771719,35.560914],[139.771786,35.560922],[139.771881,35.560924],[139.771944,35.560917],[139.772019,35.560903],[139.772086,35.560884],[139.772139,35.560867],[139.772192,35.560842],[139.772242,35.560814],[139.772294,35.56078],[139.772334,35.560744],[139.772378,35.560704]]}},{"type":"Feature","properties":{"aeroway":"apron"},"geometry":{"type":"Polygon","coordinates":[[[139.776626,35.561188],[139.776746,35.561278],[139.776809,35.561348],[139.776853,35.561421],[139.776872,35.561492],[139.776883,35.561566],[139.776881,35.561634],[139.776857,35.561717],[139.776818,35.561797],[139.776508,35.562236],[139.776075,35.56283],[139.776503,35.563026],[139.776462,35.563084],[139.776532,35.563118],[139.776499,35.563166],[139.776641,35.563236],[139.776602,35.563293],[139.776799,35.56339],[139.776652,35.563593],[139.777237,35.563896],[139.777199,35.563944],[139.777338,35.564007],[139.777296,35.564064],[139.778208,35.564498],[139.778291,35.564372],[139.780074,35.565224],[139.781349,35.563424],[139.776626,35.561188]]]}},{"type":"Feature","properties":{"aeroway":"taxiway","surface":"asphalt"},"geometry":{"type":"LineString","coordinates":[[139.777408,35.560363],[139.777453,35.56039],[139.777491,35.560418],[139.777532,35.560452],[139.777569,35.560491],[139.7776,35.560533],[139.777625,35.560575],[139.777646,35.56063],[139.777659,35.560676],[139.777665,35.560716],[139.777663,35.560771],[139.777659,35.560818],[139.777648,35.560861],[139.777627,35.560908],[139.777593,35.560967]]}},{"type":"Feature","properties":{"aeroway":"taxiway","surface":"asphalt"},"geometry":{"type":"LineString","coordinates":[[139.778324,35.560794],[139.778258,35.560772],[139.778201,35.560758],[139.778152,35.56075],[139.778092,35.560745],[139.778028,35.560747],[139.777968,35.560754],[139.77791,35.560767],[139.777846,35.560786],[139.777784,35.560813],[139.777724,35.560847],[139.777675,35.560882],[139.777636,35.560918],[139.777593,35.560967]]}},{"type":"Feature","properties":{"aeroway":"taxiway","ref":"J2","surface":"asphalt"},"geometry":{"type":"LineString","coordinates":[[139.777593,35.560967],[139.777321,35.561358],[139.777007,35.561802],[139.776565,35.562434],[139.776377,35.562687],[139.776193,35.562948],[139.776146,35.563005],[139.776099,35.563046],[139.776045,35.56309]]}},{"type":"Feature","properties":{"aeroway":"taxiway","surface":"asphalt"},"geometry":{"type":"LineString","coordinates":[[139.776779,35.561106],[139.776843,35.561149],[139.776895,35.561191],[139.776941,35.561237],[139.776981,35.561287],[139.777014,35.56134],[139.77704,35.561396],[139.777059,35.561454],[139.77707,35.561512],[139.777073,35.561572],[139.777069,35.561631],[139.777057,35.56169],[139.777037,35.561748],[139.777007,35.561802]]}},{"type":"Feature","properties":{"aeroway":"taxiway","surface":"asphalt"},"geometry":{"type":"LineString","coordinates":[[139.776565,35.562434],[139.776511,35.562485],[139.77645,35.562531],[139.776383,35.56257],[139.77631,35.562602],[139.776233,35.562627],[139.776153,35.562644],[139.77607,35.562653],[139.775987,35.562653],[139.775905,35.562645],[139.775825,35.562629],[139.775747,35.562605],[139.775674,35.562573],[139.775606,35.562534],[139.775545,35.562489],[139.775492,35.562441]]}},{"type":"Feature","properties":{"aeroway":"taxiway","surface":"asphalt"},"geometry":{"type":"LineString","coordinates":[[139.777839,35.56161],[139.777759,35.561588],[139.777683,35.561576],[139.777613,35.561566],[139.777544,35.561564],[139.777479,35.561567],[139.777414,35.561574],[139.777352,35.561589],[139.777285,35.561611],[139.777221,35.561638],[139.777161,35.561671],[139.777106,35.561708],[139.777055,35.56175],[139.777007,35.561802]]}},{"type":"Feature","properties":{"aeroway":"taxiway","surface":"asphalt"},"geometry":{"type":"LineString","coordinates":[[139.776592,35.563415],[139.776522,35.563374],[139.776458,35.563322],[139.776413,35.563278],[139.776363,35.563215],[139.776337,35.563167],[139.776314,35.563108],[139.776298,35.563048],[139.776291,35.562986],[139.776292,35.562924],[139.776301,35.562862],[139.776318,35.562802],[139.776344,35.562743],[139.776377,35.562687]]}},{"type":"Feature","properties":{"aeroway":"taxiway","ref":"B11","surface":"asphalt"},"geometry":{"type":"LineString","coordinates":[[139.773451,35.561015],[139.773518,35.560982],[139.773576,35.560958],[139.773638,35.56094],[139.773694,35.560927],[139.773752,35.560919],[139.773817,35.560916],[139.773898,35.560915],[139.773977,35.560925],[139.774037,35.560938],[139.774087,35.560955],[139.774145,35.560978],[139.774189,35.560999],[139.774236,35.561026],[139.774281,35.561058],[139.774335,35.5611]]}},{"type":"Feature","properties":{"aeroway":"taxiway","ref":"B11","surface":"asphalt"},"geometry":{"type":"LineString","coordinates":[[139.772196,35.561736],[139.772695,35.561454],[139.772883,35.561347],[139.773009,35.561274],[139.773451,35.561015],[139.773506,35.560977],[139.773553,35.560939],[139.773597,35.560902],[139.773637,35.560854]]}},{"type":"Feature","properties":{"aeroway":"taxiway","surface":"asphalt"},"geometry":{"type":"LineString","coordinates":[[139.774691,35.560121],[139.774664,35.5601],[139.774624,35.560073],[139.774588,35.560042],[139.774557,35.560007],[139.77453,35.559971],[139.774508,35.559932],[139.774492,35.559892],[139.77448,35.55985],[139.774474,35.559808],[139.774474,35.559765],[139.774479,35.559723],[139.77449,35.559681],[139.774506,35.559641],[139.774522,35.559607]]}},{"type":"Feature","properties":{"aeroway":"taxiway","surface":"asphalt"},"geometry":{"type":"LineString","coordinates":[[139.773989,35.560357],[139.774017,35.56033],[139.774042,35.560305],[139.774088,35.560267],[139.774138,35.560234],[139.774186,35.560206],[139.774245,35.560179],[139.774309,35.560158],[139.77437,35.560143],[139.774439,35.560132],[139.774499,35.560128],[139.774557,35.560127],[139.774626,35.560131],[139.774694,35.560144],[139.77475,35.560158],[139.774823,35.56018]]}},{"type":"Feature","properties":{"aeroway":"taxiway","surface":"asphalt"},"geometry":{"type":"LineString","coordinates":[[139.773782,35.559689],[139.773834,35.559721],[139.773882,35.559762],[139.773924,35.559807],[139.77396,35.559855],[139.773991,35.559906],[139.774015,35.559959],[139.774033,35.560013],[139.774043,35.560069],[139.774047,35.560126],[139.774044,35.560182],[139.774034,35.560238],[139.774018,35.560293],[139.773989,35.560357]]}},{"type":"Feature","properties":{"aeroway":"taxiway","ref":"J1","surface":"asphalt"},"geometry":{"type":"LineString","coordinates":[[139.773637,35.560854],[139.773859,35.560545],[139.773989,35.560357],[139.774035,35.560292],[139.774289,35.55993],[139.774522,35.559607],[139.774569,35.559545]]}},{"type":"Feature","properties":{"aeroway":"taxiway","surface":"asphalt"},"geometry":{"type":"LineString","coordinates":[[139.772073,35.561129],[139.77204,35.56121],[139.772024,35.561258],[139.772017,35.561314],[139.772011,35.561356],[139.772015,35.56142],[139.772023,35.561459],[139.77203,35.561496],[139.772049,35.561535],[139.772067,35.561571],[139.772096,35.56162],[139.772103,35.56163]]}},{"type":"Feature","properties":{"aeroway":"taxiway","ref":"B11","surface":"asphalt"},"geometry":{"type":"LineString","coordinates":[[139.772526,35.56212],[139.772499,35.56207],[139.772478,35.562016],[139.772463,35.56196],[139.772456,35.561904],[139.772455,35.561848],[139.772462,35.561792],[139.772476,35.561736],[139.772497,35.561682],[139.772525,35.56163],[139.772559,35.561581],[139.772599,35.561535],[139.772644,35.561492],[139.772695,35.561454]]}},{"type":"Feature","properties":{"aeroway":"taxiway","ref":"B11","surface":"asphalt"},"geometry":{"type":"LineString","coordinates":[[139.772695,35.561454],[139.772636,35.561477],[139.77259,35.561495],[139.772527,35.561511],[139.772454,35.561523],[139.772388,35.561529],[139.772309,35.561531],[139.772242,35.561527],[139.772173,35.561517],[139.77211,35.561498],[139.772066,35.56148],[139.772023,35.561459],[139.771983,35.56144],[139.771936,35.561414],[139.7719,35.561391],[139.771894,35.561383]]}},{"type":"Feature","properties":{"aeroway":"taxiway","ref":"Y","surface":"asphalt"},"geometry":{"type":"LineString","coordinates":[[139.776045,35.56309],[139.776099,35.563142],[139.776133,35.563176],[139.776171,35.563207],[139.776202,35.563226],[139.776246,35.56325],[139.776592,35.563415],[139.776907,35.563574],[139.777332,35.563773],[139.777527,35.563865],[139.778202,35.564184],[139.778341,35.564248],[139.778875,35.564499],[139.778985,35.564551],[139.779489,35.564788],[139.779541,35.564813],[139.779753,35.564912]]}},{"type":"Feature","properties":{"aeroway":"taxiway","surface":"asphalt"},"geometry":{"type":"LineString","coordinates":[[139.777593,35.560967],[139.777546,35.561025],[139.777506,35.561066],[139.777449,35.561106],[139.777386,35.561139],[139.777318,35.561166],[139.777247,35.561184],[139.777173,35.561195],[139.777098,35.561198],[139.777023,35.561192],[139.77695,35.561178],[139.77688,35.561156]]}},{"type":"Feature","properties":{"aeroway":"taxiway","surface":"asphalt"},"geometry":{"type":"LineString","coordinates":[[139.777593,35.560967],[139.777559,35.561027],[139.777535,35.56108],[139.777521,35.56114],[139.777517,35.5612],[139.777523,35.561261],[139.777538,35.561321],[139.777562,35.561378],[139.777596,35.561433],[139.777638,35.561483],[139.777687,35.561529],[139.777737,35.561564]]}},{"type":"Feature","properties":{"aeroway":"taxiway","surface":"asphalt"},"geometry":{"type":"LineString","coordinates":[[139.7717,35.561649],[139.771727,35.5616],[139.771746,35.561559],[139.771756,35.561521],[139.771764,35.561466],[139.771764,35.561408],[139.771757,35.561356],[139.771749,35.561281],[139.771734,35.56123],[139.771722,35.561198]]}},{"type":"Feature","properties":{"aeroway":"taxiway","surface":"asphalt"},"geometry":{"type":"LineString","coordinates":[[139.774035,35.560292],[139.774017,35.56033],[139.774004,35.560376],[139.773991,35.560424],[139.773984,35.560474],[139.773981,35.560523],[139.773985,35.560573],[139.773994,35.560622],[139.774008,35.560671],[139.774027,35.560718],[139.774052,35.560764],[139.774081,35.560807]]}},{"type":"Feature","properties":{"aeroway":"taxiway","ref":"B","surface":"asphalt"},"geometry":{"type":"LineString","coordinates":[[139.77262,35.559097],[139.772716,35.559207],[139.772835,35.559351],[139.772909,35.559441],[139.773114,35.559674],[139.773159,35.559727],[139.773672,35.560324],[139.773859,35.560545],[139.774081,35.560807],[139.774335,35.5611]]}},{"type":"Feature","properties":{"aeroway":"taxiway","ref":"B10","surface":"asphalt"},"geometry":{"type":"LineString","coordinates":[[139.7717,35.561649],[139.771894,35.561383],[139.772073,35.561129],[139.772378,35.560704],[139.772396,35.560679],[139.77245,35.560604],[139.772632,35.560349],[139.772943,35.55991]]}},{"type":"Feature","properties":{"aeroway":"taxiway","ref":"J","surface":"asphalt"},"geometry":{"type":"LineString","coordinates":[[139.775317,35.559372],[139.777408,35.560363],[139.778324,35.560794]]}},{"type":"Feature","properties":{"aeroway":"taxiway","ref":"B9","surface":"asphalt"},"geometry":{"type":"LineString","coordinates":[[139.7712,35.560575],[139.771368,35.560329],[139.771695,35.559865],[139.771714,35.55984],[139.772015,35.559418]]}},{"type":"Feature","properties":{"aeroway":"taxiway","ref":"K","surface":"asphalt"},"geometry":{"type":"LineString","coordinates":[[139.78144,35.563319],[139.781075,35.563146],[139.780473,35.562858],[139.780039,35.562654],[139.779801,35.562542],[139.779146,35.562228],[139.778469,35.56191],[139.777839,35.56161]]}},{"type":"Feature","properties":{"aeroway":"taxiway","ref":"K","surface":"asphalt"},"geometry":{"type":"LineString","coordinates":[[139.777839,35.56161],[139.777737,35.561564],[139.777321,35.561358],[139.77688,35.561156],[139.776779,35.561106],[139.774823,35.56018]]}},{"type":"Feature","properties":{"aeroway":"taxiway","surface":"asphalt"},"geometry":{"type":"LineString","coordinates":[[139.775819,35.563198],[139.77589,35.563189],[139.775934,35.563188],[139.77598,35.563189],[139.776031,35.563193],[139.776087,35.563201],[139.776154,35.563218],[139.776192,35.563233],[139.776246,35.56325]]}},{"type":"Feature","properties":{"aeroway":"taxiway","surface":"asphalt"},"geometry":{"type":"LineString","coordinates":[[139.775213,35.563305],[139.775272,35.563284],[139.775328,35.563258],[139.775381,35.563229],[139.77543,35.563195],[139.775475,35.563158],[139.775516,35.563118],[139.775552,35.563074],[139.775582,35.563028],[139.775607,35.56298],[139.775627,35.56293],[139.77564,35.562879],[139.775648,35.562828],[139.77565,35.562775],[139.775645,35.562723],[139.775634,35.562672],[139.775618,35.562621],[139.77557,35.562535]]}},{"type":"Feature","properties":{"aeroway":"taxiway","surface":"asphalt"},"geometry":{"type":"LineString","coordinates":[[139.774672,35.563407],[139.774599,35.56343],[139.77453,35.563462],[139.774457,35.563503],[139.774397,35.563544],[139.774349,35.56359],[139.774309,35.56364],[139.774273,35.563693],[139.774248,35.56374],[139.774225,35.563805],[139.774215,35.563859],[139.774211,35.563917],[139.774212,35.56397],[139.774222,35.564014],[139.774245,35.564091],[139.77427,35.564138],[139.77429,35.564174],[139.774315,35.564219]]}},{"type":"Feature","properties":{"aeroway":"taxiway","surface":"asphalt"},"geometry":{"type":"LineString","coordinates":[[139.772866,35.563735],[139.772958,35.563704],[139.773031,35.563668],[139.773088,35.563632],[139.773144,35.563589],[139.773185,35.563549],[139.77322,35.563506],[139.773254,35.56345],[139.773281,35.563397],[139.773302,35.56334],[139.77331,35.56329],[139.773316,35.563243],[139.773317,35.563194],[139.773316,35.563144],[139.77331,35.563093],[139.773293,35.56304],[139.773244,35.562959]]}},{"type":"Feature","properties":{"aeroway":"taxiway","surface":"asphalt"},"geometry":{"type":"LineString","coordinates":[[139.772248,35.563849],[139.772142,35.563878],[139.772071,35.563907],[139.772004,35.563943],[139.771943,35.563986],[139.771885,35.564033],[139.771839,35.564089],[139.771803,35.564143],[139.77177,35.564205],[139.77175,35.56426],[139.771742,35.564323],[139.77174,35.564384],[139.771743,35.564441],[139.771751,35.564493],[139.771766,35.56454],[139.771816,35.564642]]}},{"type":"Feature","properties":{"aeroway":"taxiway","ref":"B","surface":"asphalt"},"geometry":{"type":"LineString","coordinates":[[139.774335,35.5611],[139.775492,35.562441],[139.77557,35.562535],[139.776045,35.56309]]}},{"type":"Feature","properties":{"aeroway":"taxiway","surface":"asphalt"},"geometry":{"type":"LineString","coordinates":[[139.775819,35.563198],[139.775889,35.563171],[139.775958,35.563144],[139.776008,35.563115],[139.776045,35.56309]]}},{"type":"Feature","properties":{"aeroway":"taxiway","ref":"B12","surface":"asphalt"},"geometry":{"type":"LineString","coordinates":[[139.773771,35.56357],[139.774672,35.563407],[139.774745,35.563393],[139.774835,35.563376],[139.775213,35.563305],[139.775819,35.563198]]}},{"type":"Feature","properties":{"aeroway":"taxiway","ref":"T12","surface":"asphalt"},"geometry":{"type":"LineString","coordinates":[[139.770773,35.56432],[139.771046,35.564168],[139.771179,35.56409],[139.771242,35.564054],[139.771301,35.564034],[139.771372,35.564012],[139.771507,35.563986],[139.772248,35.563849],[139.772784,35.563753],[139.772866,35.563735],[139.773771,35.56357]]}},{"type":"Feature","properties":{"aeroway":"taxiway","ref":"B","surface":"asphalt"},"geometry":{"type":"LineString","coordinates":[[139.776045,35.56309],[139.776154,35.563218],[139.777839,35.565183],[139.778178,35.565578],[139.7785,35.565952],[139.77881,35.566315],[139.779099,35.566651]]}},{"type":"Feature","properties":{"aeroway":"taxiway","ref":"B13","surface":"asphalt"},"geometry":{"type":"LineString","coordinates":[[139.776048,35.566222],[139.776124,35.566285],[139.776214,35.566335],[139.776346,35.566379],[139.776494,35.566399],[139.776654,35.566393],[139.776789,35.566362],[139.776902,35.56631],[139.777064,35.566213],[139.777133,35.566174],[139.777709,35.565844],[139.778054,35.565648],[139.778178,35.565578],[139.778657,35.565309],[139.779541,35.564813]]}},{"type":"Feature","properties":{"aeroway":"taxiway","surface":"asphalt"},"geometry":{"type":"LineString","coordinates":[[139.778657,35.565309],[139.778504,35.565369],[139.778397,35.565392],[139.778283,35.565396],[139.778172,35.565381],[139.778067,35.565352],[139.77797,35.565298],[139.777839,35.565183]]}},{"type":"Feature","properties":{"aeroway":"taxiway","surface":"asphalt"},"geometry":{"type":"LineString","coordinates":[[139.778657,35.565309],[139.77852,35.5654],[139.778459,35.565471],[139.778417,35.565561],[139.778393,35.565647],[139.778396,35.565734],[139.778417,35.565815],[139.7785,35.565952]]}},{"type":"Feature","properties":{"aeroway":"taxiway","surface":"asphalt"},"geometry":{"type":"LineString","coordinates":[[139.7785,35.565952],[139.778373,35.565839],[139.778298,35.565801],[139.778221,35.565776],[139.778146,35.565756],[139.778066,35.565752],[139.777969,35.565756],[139.777874,35.56577],[139.777709,35.565844]]}},{"type":"Feature","properties":{"aeroway":"taxiway","surface":"asphalt"},"geometry":{"type":"LineString","coordinates":[[139.777839,35.565183],[139.777882,35.565264],[139.777914,35.565346],[139.777921,35.565412],[139.777918,35.565489],[139.777901,35.565571],[139.777873,35.56564],[139.777831,35.565712],[139.777773,35.565781],[139.777709,35.565844]]}}]}