{"type":"FeatureCollection","features":[{"type":"Feature","properties":{"aeroway":"taxiway","surface":"asphalt"},"geometry":{"type":"LineString","coordinates":[[139.768826,35.560327],[139.768793,35.560401],[139.768776,35.560458],[139.768763,35.560517],[139.76876,35.560585],[139.768767,35.560641],[139.768781,35.560702],[139.768816,35.56077],[139.768856,35.560837]]}},{"type":"Feature","properties":{"aeroway":"taxiway","ref":"T9","surface":"asphalt"},"geometry":{"type":"LineString","coordinates":[[139.771722,35.561198],[139.771685,35.56117],[139.771645,35.561144],[139.771603,35.56112],[139.77156,35.561099],[139.771539,35.561091],[139.771514,35.561081],[139.771466,35.561066],[139.771418,35.561054],[139.771368,35.561044],[139.771318,35.561038],[139.771267,35.561036],[139.771216,35.561036],[139.771166,35.56104],[139.771115,35.561046],[139.771066,35.561056],[139.771018,35.561069],[139.77097,35.561085],[139.770925,35.561103],[139.770882,35.561125],[139.77084,35.561149],[139.770801,35.561176],[139.770765,35.561205],[139.770732,35.561236],[139.770701,35.561269]]}},{"type":"Feature","properties":{"aeroway":"taxiway","surface":"asphalt"},"geometry":{"type":"LineString","coordinates":[[139.771695,35.559865],[139.771638,35.559927],[139.771579,35.559975],[139.77153,35.560005],[139.771483,35.560036],[139.771418,35.560064],[139.771363,35.560084],[139.771306,35.560098],[139.771253,35.560107],[139.771184,35.560111],[139.771105,35.560111],[139.771041,35.56011],[139.770959,35.560094],[139.770893,35.560076],[139.770826,35.560053],[139.77077,35.560026],[139.770718,35.559994],[139.770672,35.55996]]}},{"type":"Feature","properties":{"aeroway":"taxiway","ref":"T9","surface":"asphalt"},"geometry":{"type":"LineString","coordinates":[[139.770995,35.560852],[139.771025,35.560795],[139.771048,35.560741],[139.771064,35.560686],[139.771072,35.560629],[139.771073,35.560572],[139.771066,35.560515],[139.771052,35.560459],[139.771031,35.560404],[139.771004,35.560351]]}},{"type":"Feature","properties":{"aeroway":"taxiway","surface":"asphalt"},"geometry":{"type":"LineString","coordinates":[[139.769181,35.55982],[139.769082,35.55991],[139.769016,35.559973],[139.768947,35.56003],[139.768888,35.560062],[139.768823,35.560091],[139.768756,35.560112],[139.768674,35.560122],[139.7686,35.560124],[139.768517,35.560118],[139.768436,35.560105],[139.768363,35.560088],[139.768293,35.560067],[139.768225,35.560033],[139.768155,35.559993],[139.768085,35.55994]]}},{"type":"Feature","properties":{"aeroway":"taxiway","surface":"asphalt"},"geometry":{"type":"LineString","coordinates":[[139.771368,35.560329],[139.771338,35.560404],[139.77132,35.560481],[139.771316,35.560548],[139.77132,35.560615],[139.771332,35.560671],[139.771348,35.560717],[139.77136,35.560744],[139.77138,35.560783]]}},{"type":"Feature","properties":{"aeroway":"taxiway","ref":"T9","surface":"asphalt"},"geometry":{"type":"LineString","coordinates":[[139.769495,35.561576],[139.769544,35.561612],[139.769602,35.561651],[139.769672,35.561685],[139.769749,35.561711],[139.769826,35.561733],[139.769899,35.561744],[139.769989,35.561745],[139.770072,35.561739],[139.770154,35.561728],[139.770233,35.561706],[139.770313,35.561676],[139.770349,35.561656],[139.770384,35.561638],[139.770453,35.561587],[139.770496,35.561546],[139.77055,35.561489]]}},{"type":"Feature","properties":{"aeroway":"taxiway","ref":"T11","surface":"asphalt"},"geometry":{"type":"LineString","coordinates":[[139.772196,35.561736],[139.771767,35.561829],[139.771343,35.561925],[139.771257,35.561944],[139.770441,35.56212]]}},{"type":"Feature","properties":{"aeroway":"taxiway","surface":"asphalt"},"geometry":{"type":"LineString","coordinates":[[139.770441,35.56212],[139.770389,35.562126],[139.77034,35.562129],[139.770283,35.56213],[139.770222,35.562124],[139.770168,35.562116],[139.77011,35.562104],[139.770062,35.56209],[139.770004,35.56207],[139.769941,35.562038],[139.769882,35.562001],[139.769844,35.561971],[139.769803,35.561937]]}},{"type":"Feature","properties":{"aeroway":"taxiway","ref":"T9","surface":"asphalt"},"geometry":{"type":"LineString","coordinates":[[139.77011,35.562104],[139.770417,35.561675],[139.77055,35.561489],[139.770689,35.561291],[139.770701,35.561269],[139.770995,35.560852],[139.7712,35.560575]]}},{"type":"Feature","properties":{"aeroway":"taxiway","ref":"A16","surface":"asphalt"},"geometry":{"type":"LineString","coordinates":[[139.769803,35.561937],[139.769495,35.561576],[139.769238,35.561281],[139.769211,35.561249],[139.768856,35.560837]]}},{"type":"Feature","properties":{"aeroway":"runway","ref":"16R/34L","surface":"asphalt"},"geometry":{"type":"LineString","coordinates":[[139.768826,35.560327],[139.768995,35.560084],[139.769068,35.55998]]}},{"type":"Feature","properties":{"aeroway":"taxiway","surface":"asphalt"},"geometry":{"type":"LineString","coordinates":[[139.769316,35.565213],[139.769441,35.565017],[139.769473,35.564963],[139.769495,35.564913],[139.769511,35.564854],[139.76952,35.564791],[139.76952,35.564727],[139.769514,35.564675],[139.7695,35.56462],[139.769483,35.564575],[139.769458,35.564532],[139.769424,35.564483]]}},{"type":"Feature","properties":{"aeroway":"taxiway","surface":"asphalt"},"geometry":{"type":"LineString","coordinates":[[139.769424,35.564483],[139.769479,35.564524],[139.769522,35.564553],[139.769574,35.564584],[139.769629,35.564613],[139.769689,35.564637],[139.76975,35.564654],[139.769823,35.564671],[139.769894,35.564678],[139.769987,35.564678],[139.770075,35.564668],[139.770148,35.564653],[139.770206,35.564631],[139.770263,35.564612]]}},{"type":"Feature","properties":{"aeroway":"taxiway","surface":"asphalt"},"geometry":{"type":"LineString","coordinates":[[139.769916,35.562374],[139.769971,35.562319],[139.770008,35.562283],[139.770055,35.562251],[139.770116,35.562216],[139.770187,35.562184],[139.770254,35.562162],[139.770322,35.562145],[139.770381,35.562133],[139.770441,35.56212]]}},{"type":"Feature","properties":{"aeroway":"taxiway","ref":"Q","surface":"asphalt"},"geometry":{"type":"LineString","coordinates":[[139.77011,35.562104],[139.769916,35.562374],[139.769844,35.562473],[139.7691,35.563492],[139.769049,35.563561],[139.769027,35.563614],[139.769001,35.563672],[139.768989,35.563743],[139.768982,35.563818],[139.768989,35.563875],[139.769008,35.563946],[139.769037,35.564012],[139.769083,35.564085],[139.769424,35.564483]]}},{"type":"Feature","properties":{"aeroway":"taxiway","ref":"Q1","surface":"asphalt"},"geometry":{"type":"LineString","coordinates":[[139.770773,35.56432],[139.770263,35.564612],[139.769469,35.56507],[139.769414,35.565111],[139.769374,35.565149],[139.769316,35.565213]]}},{"type":"Feature","properties":{"aeroway":"taxiway","surface":"asphalt"},"geometry":{"type":"LineString","coordinates":[[139.769803,35.561937],[139.769835,35.561985],[139.769858,35.562028],[139.769876,35.562073],[139.76989,35.562117],[139.769901,35.56216],[139.769906,35.562203],[139.769907,35.562254],[139.769904,35.562298],[139.769894,35.562351],[139.769878,35.562398],[139.769864,35.562432],[139.769844,35.562473]]}}]}