{"type":"FeatureCollection","features":[{"type":"Feature","properties":{"aeroway":"taxiway","ref":"L","surface":"asphalt"},"geometry":{"type":"LineString","coordinates":[[139.780659,35.540055],[139.780613,35.540119],[139.780366,35.540471],[139.780105,35.540844],[139.780071,35.540891],[139.779657,35.541475],[139.77926,35.542035],[139.778278,35.543418]]}},{"type":"Feature","properties":{"aeroway":"apron"},"geometry":{"type":"Polygon","coordinates":[[[139.772425,35.54141],[139.776199,35.543226],[139.775506,35.544199],[139.775638,35.544259],[139.775687,35.544201],[139.775842,35.544272],[139.775887,35.544209],[139.775971,35.544243],[139.77601,35.544188],[139.776087,35.544217],[139.77621,35.544041],[139.77629,35.544073],[139.776481,35.543843],[139.776782,35.543987],[139.77575,35.545443],[139.774826,35.546762],[139.773024,35.549287],[139.77272,35.54914],[139.772892,35.548898],[139.772824,35.548864],[139.772947,35.548687],[139.772888,35.548662],[139.772937,35.548599],[139.772856,35.548554],[139.772898,35.548494],[139.772714,35.548407],[139.772744,35.548368],[139.772292,35.548143],[139.771636,35.549044],[139.770293,35.548416],[139.770176,35.548585],[139.768307,35.547727],[139.771634,35.54298],[139.771545,35.542705],[139.772425,35.54141]]]}},{"type":"Feature","properties":{"aeroway":"taxiway","surface":"asphalt"},"geometry":{"type":"LineString","coordinates":[[139.779331,35.544515],[139.779402,35.544561],[139.779452,35.544607],[139.779493,35.544645],[139.779528,35.544688],[139.779556,35.544735],[139.779581,35.54478],[139.779599,35.544831],[139.779612,35.544873],[139.77962,35.544923],[139.77962,35.544993],[139.779612,35.545071],[139.77959,35.545157]]}},{"type":"Feature","properties":{"aeroway":"taxiway","surface":"asphalt"},"geometry":{"type":"LineString","coordinates":[[139.777647,35.544297],[139.777696,35.544251],[139.777748,35.544207],[139.777805,35.544168],[139.777868,35.544134],[139.777934,35.544106],[139.778004,35.544085],[139.778077,35.54407],[139.778151,35.544062],[139.778226,35.54406],[139.7783,35.544065],[139.778374,35.544077],[139.77844,35.544095],[139.778501,35.544119]]}},{"type":"Feature","properties":{"aeroway":"taxiway","surface":"asphalt"},"geometry":{"type":"LineString","coordinates":[[139.778278,35.543418],[139.778256,35.543458],[139.778236,35.543505],[139.778222,35.543549],[139.778211,35.543598],[139.778206,35.543656],[139.778208,35.543704],[139.778213,35.543748],[139.778225,35.543797],[139.778244,35.543851],[139.778272,35.543903],[139.778303,35.543951],[139.778336,35.543987],[139.778373,35.544028],[139.778414,35.544061],[139.778455,35.544088],[139.778501,35.544119]]}},{"type":"Feature","properties":{"aeroway":"taxiway","ref":"A7","surface":"asphalt"},"geometry":{"type":"LineString","coordinates":[[139.780539,35.545398],[139.780127,35.5456],[139.779939,35.545704],[139.779716,35.545834],[139.779549,35.545945],[139.779507,35.545973],[139.779383,35.546056],[139.779239,35.546166],[139.779066,35.546303],[139.778822,35.546503],[139.778662,35.546652],[139.77849,35.546828],[139.778278,35.547044],[139.778149,35.547186]]}},{"type":"Feature","properties":{"aeroway":"taxiway","surface":"asphalt"},"geometry":{"type":"LineString","coordinates":[[139.77683,35.545454],[139.776863,35.545373],[139.776871,35.545312],[139.776873,35.545251],[139.776867,35.545196],[139.776856,35.54515],[139.776832,35.545094],[139.776797,35.545033],[139.776757,35.544987],[139.77671,35.544946],[139.776663,35.544912],[139.776626,35.544888]]}},{"type":"Feature","properties":{"aeroway":"taxiway","surface":"asphalt"},"geometry":{"type":"LineString","coordinates":[[139.777324,35.54476],[139.777282,35.544797],[139.777234,35.544834],[139.77717,35.544871],[139.777112,35.544896],[139.777057,35.544914],[139.777007,35.544927],[139.776943,35.544936],[139.776891,35.544939],[139.776822,35.544936],[139.776746,35.544927],[139.776668,35.544904],[139.776626,35.544888]]}},{"type":"Feature","properties":{"aeroway":"taxiway","surface":"asphalt"},"geometry":{"type":"LineString","coordinates":[[139.773835,35.543568],[139.773728,35.54354],[139.773656,35.543529],[139.773579,35.543525],[139.773511,35.543529],[139.773432,35.543538],[139.773362,35.543551],[139.773284,35.543579],[139.773205,35.543613],[139.773134,35.543659],[139.77305,35.543722]]}},{"type":"Feature","properties":{"aeroway":"taxiway","ref":"A8","surface":"asphalt"},"geometry":{"type":"LineString","coordinates":[[139.778992,35.549589],[139.779017,35.549541],[139.779037,35.549491],[139.779049,35.54944],[139.779055,35.549388],[139.779054,35.549336],[139.779057,35.548807],[139.779057,35.548759],[139.779058,35.54873],[139.779058,35.54854],[139.779057,35.547547],[139.779054,35.547487],[139.779054,35.547334],[139.779058,35.547169],[139.779087,35.547001],[139.779106,35.546832],[139.779131,35.546665],[139.779161,35.546498],[139.779197,35.546331],[139.779239,35.546166],[139.779304,35.545946],[139.779324,35.545886],[139.779379,35.545729],[139.779464,35.545514],[139.779558,35.545302],[139.77966,35.545099],[139.779756,35.544923]]}},{"type":"Feature","properties":{"aeroway":"taxiway","surface":"asphalt"},"geometry":{"type":"LineString","coordinates":[[139.773174,35.543162],[139.773132,35.542827],[139.7731,35.54257],[139.773061,35.54226],[139.773045,35.542131]]}},{"type":"Feature","properties":{"aeroway":"taxiway","surface":"asphalt"},"geometry":{"type":"LineString","coordinates":[[139.773835,35.543568],[139.773628,35.543468],[139.773466,35.543399],[139.773411,35.543373],[139.773361,35.543351],[139.773314,35.54332],[139.773271,35.543285],[139.773233,35.543247],[139.7732,35.543206],[139.773174,35.543162]]}},{"type":"Feature","properties":{"aeroway":"taxiway","surface":"asphalt"},"geometry":{"type":"LineString","coordinates":[[139.77305,35.543722],[139.773087,35.543668],[139.773127,35.543611],[139.773159,35.543551],[139.773183,35.543488],[139.773198,35.543423],[139.773205,35.543357],[139.773204,35.543322],[139.773203,35.543292],[139.773192,35.543226],[139.773174,35.543162]]}},{"type":"Feature","properties":{"aeroway":"taxiway","ref":"P8","surface":"asphalt"},"geometry":{"type":"LineString","coordinates":[[139.776626,35.544888],[139.776588,35.54487],[139.776555,35.544855],[139.776124,35.544651],[139.775615,35.544409],[139.775529,35.544368],[139.775076,35.544154],[139.774346,35.543808],[139.773835,35.543568]]}},{"type":"Feature","properties":{"aeroway":"taxiway","surface":"asphalt"},"geometry":{"type":"LineString","coordinates":[[139.776441,35.544208],[139.776383,35.544267],[139.776346,35.544301],[139.776308,35.544329],[139.776252,35.544361],[139.776192,35.54439],[139.776128,35.544417],[139.776067,35.544434],[139.775988,35.544447],[139.775912,35.544452],[139.775844,35.544451],[139.775767,35.544444],[139.775698,35.544431],[139.775615,35.544409]]}},{"type":"Feature","properties":{"aeroway":"taxiway","surface":"asphalt"},"geometry":{"type":"LineString","coordinates":[[139.775832,35.545066],[139.775874,35.544941],[139.775882,35.544877],[139.775882,35.544819],[139.775875,35.544756],[139.77586,35.544703],[139.775837,35.544646],[139.7758,35.544588],[139.775762,35.544536],[139.775714,35.544485],[139.775674,35.544452],[139.775615,35.544409]]}},{"type":"Feature","properties":{"aeroway":"taxiway","surface":"asphalt"},"geometry":{"type":"LineString","coordinates":[[139.776371,35.544307],[139.776351,35.544361],[139.776339,35.544401],[139.776331,35.544445],[139.77633,35.544496],[139.776335,35.544558],[139.77635,35.544616],[139.776377,35.544672],[139.776411,35.544724],[139.776456,35.544777],[139.776501,35.544815],[139.776555,35.544855]]}},{"type":"Feature","properties":{"aeroway":"taxiway","surface":"asphalt"},"geometry":{"type":"LineString","coordinates":[[139.775886,35.544994],[139.775924,35.544962],[139.775969,35.544924],[139.77602,35.544892],[139.776075,35.544864],[139.77614,35.544842],[139.776194,35.544828],[139.776267,35.544821],[139.776346,35.544818],[139.776422,35.544825],[139.776493,35.544839],[139.776555,35.544855]]}},{"type":"Feature","properties":{"aeroway":"taxiway","ref":"P9","surface":"asphalt"},"geometry":{"type":"LineString","coordinates":[[139.774239,35.546478],[139.773247,35.546008],[139.772406,35.54561]]}},{"type":"Feature","properties":{"aeroway":"taxiway","surface":"asphalt"},"geometry":{"type":"LineString","coordinates":[[139.774915,35.546363],[139.774857,35.546399],[139.774796,35.54643],[139.774732,35.546456],[139.774664,35.546477],[139.774595,35.546492],[139.774524,35.546501],[139.774452,35.546504],[139.77438,35.546501],[139.774309,35.546492],[139.774239,35.546478]]}},{"type":"Feature","properties":{"aeroway":"taxiway","surface":"asphalt"},"geometry":{"type":"LineString","coordinates":[[139.774239,35.546478],[139.774289,35.546524],[139.774333,35.546573],[139.774371,35.546626],[139.774402,35.546682],[139.774426,35.546741],[139.774442,35.546801],[139.774451,35.546862],[139.774452,35.546923],[139.774445,35.546984],[139.774431,35.547044]]}},{"type":"Feature","properties":{"aeroway":"taxiway","surface":"asphalt"},"geometry":{"type":"LineString","coordinates":[[139.772406,35.54561],[139.772335,35.545558],[139.772281,35.545514],[139.772241,35.54547],[139.772202,35.545416],[139.772167,35.545359],[139.772147,35.545305],[139.772131,35.545253],[139.772124,35.545194],[139.772125,35.545132],[139.772133,35.545074],[139.77215,35.545011],[139.772176,35.544952]]}},{"type":"Feature","properties":{"aeroway":"taxiway","surface":"asphalt"},"geometry":{"type":"LineString","coordinates":[[139.772406,35.54561],[139.7723,35.545579],[139.772224,35.545565],[139.772147,35.545558],[139.772085,35.545558],[139.772016,35.545563],[139.771954,35.545573],[139.77189,35.54559],[139.771828,35.545613],[139.771768,35.545638],[139.771717,35.545669],[139.771661,35.545706],[139.771604,35.545754]]}},{"type":"Feature","properties":{"aeroway":"taxiway","ref":"V","surface":"asphalt"},"geometry":{"type":"LineString","coordinates":[[139.77305,35.543722],[139.773022,35.543761],[139.772891,35.543946],[139.772804,35.544069],[139.772787,35.544092],[139.772767,35.544121],[139.772404,35.544631],[139.77237,35.544678],[139.77232,35.544749],[139.772176,35.544952],[139.772004,35.545193],[139.771604,35.545754]]}},{"type":"Feature","properties":{"aeroway":"taxiway","ref":"L6","surface":"asphalt"},"geometry":{"type":"LineString","coordinates":[[139.778501,35.544119],[139.779053,35.54438],[139.779134,35.544418],[139.779331,35.544515],[139.779868,35.544764]]}},{"type":"Feature","properties":{"aeroway":"taxiway","ref":"L","surface":"asphalt"},"geometry":{"type":"LineString","coordinates":[[139.777324,35.54476],[139.77683,35.545454],[139.776562,35.545826],[139.775941,35.54669],[139.775627,35.547136],[139.775321,35.547571],[139.774663,35.548505],[139.774625,35.548559]]}},{"type":"Feature","properties":{"aeroway":"taxiway","ref":"L","surface":"asphalt"},"geometry":{"type":"LineString","coordinates":[[139.778278,35.543418],[139.777647,35.544297],[139.777324,35.54476]]}},{"type":"Feature","properties":{"aeroway":"taxiway","ref":"P","surface":"asphalt"},"geometry":{"type":"LineString","coordinates":[[139.776441,35.544208],[139.776371,35.544307],[139.776124,35.544651],[139.775886,35.544994],[139.775832,35.545066],[139.775582,35.545422],[139.775173,35.546],[139.774915,35.546363],[139.774681,35.546692],[139.774431,35.547044],[139.774293,35.547239],[139.774237,35.547319],[139.773966,35.547699],[139.773918,35.547768],[139.773708,35.54806],[139.773643,35.548154]]}},{"type":"Feature","properties":{"aeroway":"taxiway","ref":"P","surface":"asphalt"},"geometry":{"type":"LineString","coordinates":[[139.779671,35.539648],[139.77915,35.540392],[139.778304,35.541584],[139.776441,35.544208]]}},{"type":"Feature","properties":{"aeroway":"taxiway","ref":"L9","surface":"asphalt"},"geometry":{"type":"LineString","coordinates":[[139.776202,35.547406],[139.776729,35.547654],[139.776808,35.547692],[139.776987,35.547777]]}},{"type":"Feature","properties":{"aeroway":"taxiway","surface":"asphalt"},"geometry":{"type":"LineString","coordinates":[[139.776202,35.547406],[139.776062,35.547358],[139.775928,35.547334],[139.775754,35.547338],[139.775598,35.547376],[139.775473,35.547441],[139.775402,35.547491],[139.775321,35.547571]]}},{"type":"Feature","properties":{"aeroway":"taxiway","surface":"asphalt"},"geometry":{"type":"LineString","coordinates":[[139.775321,35.547571],[139.775402,35.547429],[139.775422,35.547356],[139.775426,35.547289],[139.775421,35.547219],[139.7754,35.547155],[139.775358,35.547082],[139.775311,35.547022],[139.775263,35.546979],[139.775158,35.546916]]}},{"type":"Feature","properties":{"aeroway":"taxiway","surface":"asphalt"},"geometry":{"type":"LineString","coordinates":[[139.776202,35.547406],[139.776074,35.547332],[139.775996,35.547264],[139.77594,35.547179],[139.775898,35.547094],[139.775872,35.546987],[139.775876,35.546889],[139.775894,35.546784],[139.775941,35.54669]]}},{"type":"Feature","properties":{"aeroway":"taxiway","surface":"asphalt"},"geometry":{"type":"LineString","coordinates":[[139.775941,35.54669],[139.775847,35.546813],[139.77579,35.546861],[139.775729,35.546899],[139.775652,35.546934],[139.775548,35.546961],[139.77547,35.54697],[139.775376,35.546972],[139.775283,35.546957],[139.775221,35.54694],[139.775158,35.546916]]}},{"type":"Feature","properties":{"aeroway":"taxiway","surface":"asphalt"},"geometry":{"type":"LineString","coordinates":[[139.774431,35.547044],[139.774498,35.546972],[139.774556,35.546927],[139.774646,35.54689],[139.774732,35.546863],[139.774822,35.546851],[139.774913,35.546852],[139.775007,35.546862],[139.775072,35.546882],[139.775158,35.546916]]}},{"type":"Feature","properties":{"aeroway":"taxiway","surface":"asphalt"},"geometry":{"type":"LineString","coordinates":[[139.775158,35.546916],[139.775082,35.546874],[139.775031,35.546832],[139.774986,35.546795],[139.774944,35.54674],[139.774913,35.546695],[139.774887,35.546646],[139.774868,35.546582],[139.774859,35.546524],[139.774869,35.546461],[139.774887,35.546411],[139.774915,35.546363]]}},{"type":"Feature","properties":{"aeroway":"taxiway","surface":"asphalt"},"geometry":{"type":"LineString","coordinates":[[139.776202,35.547406],[139.775627,35.547136],[139.775158,35.546916]]}},{"type":"Feature","properties":{"aeroway":"taxiway","surface":"asphalt"},"geometry":{"type":"LineString","coordinates":[[139.774826,35.546762],[139.775158,35.546916]]}},{"type":"Feature","properties":{"aeroway":"taxiway","surface":"asphalt"},"geometry":{"type":"LineString","coordinates":[[139.774239,35.546478],[139.774681,35.546692],[139.774826,35.546762]]}}]}