{"type":"FeatureCollection","features":[{"type":"Feature","properties":{"aeroway":"taxiway","ref":"A","surface":"asphalt"},"geometry":{"type":"LineString","coordinates":[[139.772015,35.559418],[139.772219,35.559138],[139.772415,35.558856],[139.772562,35.558654],[139.772625,35.558561],[139.772834,35.558269],[139.772906,35.558163],[139.773024,35.557997]]}},{"type":"Feature","properties":{"aeroway":"taxiway","ref":"A12","surface":"asphalt"},"geometry":{"type":"LineString","coordinates":[[139.773523,35.55534],[139.773522,35.555283],[139.77352,35.555174],[139.773521,35.55505],[139.77353,35.554905],[139.77355,35.554662],[139.773569,35.554534],[139.7736,35.554362],[139.773659,35.554094],[139.773721,35.553874],[139.773814,35.553603],[139.773877,35.553437],[139.773957,35.553258],[139.774052,35.55306],[139.774202,35.552796],[139.774381,35.552517],[139.774492,35.552337]]}},{"type":"Feature","properties":{"aeroway":"taxiway","surface":"asphalt"},"geometry":{"type":"LineString","coordinates":[[139.772835,35.559239],[139.772762,35.559218],[139.772716,35.559207],[139.772647,35.559196],[139.772583,35.559191],[139.772509,35.559194],[139.772443,35.559199],[139.772381,35.559213],[139.772312,35.559231],[139.772241,35.55926],[139.772175,35.559292],[139.772115,35.559326],[139.772074,35.559364],[139.772015,35.559418]]}},{"type":"Feature","properties":{"aeroway":"taxiway","ref":"A15","surface":"asphalt"},"geometry":{"type":"LineString","coordinates":[[139.771831,35.558179],[139.771907,35.55825],[139.771963,35.558286],[139.772028,35.558323],[139.772096,35.558352],[139.772177,35.558374],[139.772261,35.558389],[139.772346,35.558394],[139.772431,35.558391],[139.772515,35.55838],[139.772597,35.558359],[139.772675,35.558331],[139.772748,35.558294],[139.772814,35.558251],[139.772862,35.558206],[139.772906,35.558163]]}},{"type":"Feature","properties":{"aeroway":"taxiway","ref":"A13","surface":"asphalt"},"geometry":{"type":"LineString","coordinates":[[139.772872,35.554621],[139.772819,35.554714],[139.772782,35.554774],[139.772767,35.554833],[139.772762,35.554881],[139.772764,35.55495],[139.772772,35.555011],[139.772793,35.55508],[139.77282,35.555137],[139.772857,35.555198],[139.772906,35.555256],[139.772959,35.555304],[139.77302,35.555349],[139.773075,35.555379],[139.773243,35.55546],[139.773393,35.555531],[139.773522,35.555593],[139.773789,35.555719],[139.773904,35.555768],[139.774426,35.556018]]}},{"type":"Feature","properties":{"aeroway":"taxiway","surface":"asphalt"},"geometry":{"type":"LineString","coordinates":[[139.7749,35.556242],[139.774826,35.556216],[139.77476,35.556199],[139.774678,35.556185],[139.774593,35.556185],[139.774527,35.55619],[139.774453,35.556208],[139.774393,35.556226],[139.77434,35.556251],[139.774288,35.556278],[139.774236,35.556317],[139.774186,35.556358]]}},{"type":"Feature","properties":{"aeroway":"taxiway","surface":"asphalt"},"geometry":{"type":"LineString","coordinates":[[139.77474,35.555583],[139.774718,35.555609],[139.774665,35.555656],[139.77461,35.555705],[139.774545,35.555743],[139.774469,35.555772],[139.774394,35.555798],[139.774327,35.555812],[139.774244,35.555822],[139.774162,35.555822],[139.774086,35.555817],[139.77401,35.5558],[139.773904,35.555768]]}},{"type":"Feature","properties":{"aeroway":"taxiway","surface":"asphalt"},"geometry":{"type":"LineString","coordinates":[[139.773523,35.55534],[139.773528,35.555356],[139.773542,35.555408],[139.773565,35.55547],[139.773592,35.555523],[139.773625,35.555571],[139.773678,35.55563],[139.773719,35.555667],[139.773789,35.555719]]}},{"type":"Feature","properties":{"aeroway":"taxiway","surface":"asphalt"},"geometry":{"type":"LineString","coordinates":[[139.7749,35.556242],[139.774838,35.556208],[139.774802,35.556184],[139.774762,35.556147],[139.77472,35.556102],[139.774686,35.556053],[139.774657,35.555998],[139.774639,35.55594],[139.774629,35.55588],[139.774631,35.555832],[139.774636,35.555791],[139.774647,35.555746],[139.774661,35.555709],[139.774678,35.555672]]}},{"type":"Feature","properties":{"aeroway":"taxiway","surface":"asphalt"},"geometry":{"type":"LineString","coordinates":[[139.778036,35.553773],[139.778155,35.553816],[139.778253,35.553833],[139.778348,35.553833],[139.778436,35.553819],[139.778517,35.553795],[139.7786,35.553763],[139.778672,35.553718],[139.778736,35.553669]]}},{"type":"Feature","properties":{"aeroway":"taxiway","surface":"asphalt"},"geometry":{"type":"LineString","coordinates":[[139.773243,35.55546],[139.77328,35.555485],[139.773334,35.555525],[139.773371,35.55556],[139.77338,35.555569],[139.773422,35.555616],[139.773458,35.55567],[139.773484,35.555719],[139.773502,35.555772],[139.773514,35.555815],[139.773522,35.555859]]}},{"type":"Feature","properties":{"aeroway":"taxiway","surface":"asphalt"},"geometry":{"type":"LineString","coordinates":[[139.773339,35.558435],[139.77326,35.558406],[139.773181,35.558385],[139.77312,35.558378],[139.773057,35.558379],[139.772982,35.558383],[139.7729,35.558403],[139.77283,35.558422],[139.772756,35.558459],[139.772697,35.5585],[139.772625,35.558561]]}},{"type":"Feature","properties":{"aeroway":"taxiway","surface":"asphalt"},"geometry":{"type":"LineString","coordinates":[[139.771039,35.555687],[139.771115,35.555758],[139.771203,35.555816],[139.771301,35.55586],[139.771407,35.555891],[139.771518,35.555906],[139.77163,35.555906],[139.771741,35.55589],[139.771847,35.55586],[139.771936,35.555823],[139.772012,35.555784],[139.772048,35.555757],[139.772096,35.555699],[139.772198,35.555575]]}},{"type":"Feature","properties":{"aeroway":"taxiway","surface":"asphalt"},"geometry":{"type":"LineString","coordinates":[[139.771445,35.556637],[139.771474,35.556563],[139.771494,35.556477],[139.771502,35.556423],[139.771503,35.556365],[139.771494,35.556316],[139.771481,35.55626],[139.771455,35.556198],[139.771413,35.556128],[139.771371,35.556068]]}},{"type":"Feature","properties":{"aeroway":"taxiway","surface":"asphalt"},"geometry":{"type":"LineString","coordinates":[[139.773904,35.559744],[139.773975,35.559764],[139.774043,35.559776],[139.774113,35.559779],[139.774182,35.559775],[139.77425,35.559763],[139.774316,35.559744],[139.774378,35.559717],[139.774434,35.559684],[139.774484,35.559644],[139.774522,35.559607]]}},{"type":"Feature","properties":{"aeroway":"taxiway","surface":"asphalt"},"geometry":{"type":"LineString","coordinates":[[139.773782,35.559689],[139.773732,35.559674],[139.773682,35.559663],[139.773625,35.559653],[139.773571,35.559647],[139.77351,35.559645],[139.773451,35.559647],[139.773395,35.559654],[139.773335,35.559664],[139.773282,35.559676],[139.773237,35.559691],[139.773181,35.559715],[139.773159,35.559727],[139.773128,35.559743],[139.773079,35.559775],[139.773034,35.559811],[139.772985,35.559855]]}},{"type":"Feature","properties":{"aeroway":"taxiway","surface":"asphalt"},"geometry":{"type":"LineString","coordinates":[[139.77354,35.559068],[139.773529,35.559116],[139.773517,35.559165],[139.773511,35.559214],[139.77351,35.559264],[139.773515,35.559313],[139.773525,35.559362],[139.773541,35.559409],[139.773561,35.559456],[139.773587,35.5595],[139.773618,35.559543],[139.773654,35.559583],[139.773693,35.559621],[139.773737,35.559655],[139.773782,35.559689]]}},{"type":"Feature","properties":{"aeroway":"taxiway","surface":"asphalt"},"geometry":{"type":"LineString","coordinates":[[139.772943,35.55991],[139.77297,35.55986],[139.772983,35.559816],[139.772991,35.559776],[139.772995,35.559729],[139.772994,35.559687],[139.772987,35.55964],[139.772974,35.559585],[139.772957,35.559531],[139.772939,35.55949],[139.772909,35.559441]]}},{"type":"Feature","properties":{"aeroway":"taxiway","surface":"asphalt"},"geometry":{"type":"LineString","coordinates":[[139.77354,35.559068],[139.773487,35.559125],[139.773454,35.559155],[139.773394,35.559197],[139.773332,35.559229],[139.773265,35.559253],[139.773195,35.55927],[139.773123,35.559279],[139.77305,35.55928],[139.772977,35.559274],[139.772901,35.559258],[139.772835,35.559239]]}},{"type":"Feature","properties":{"aeroway":"taxiway","surface":"asphalt"},"geometry":{"type":"LineString","coordinates":[[139.772835,35.559239],[139.772797,35.55922],[139.772753,35.559199],[139.772714,35.559175],[139.772681,35.559152],[139.772654,35.559128],[139.77262,35.559097],[139.772587,35.559048],[139.772565,35.559011],[139.772546,35.558969],[139.77253,35.55892],[139.772523,35.558884],[139.77252,35.558838],[139.772522,35.558796],[139.772526,35.558766],[139.772534,35.558729],[139.772548,35.55869],[139.772562,35.558654]]}},{"type":"Feature","properties":{"aeroway":"taxiway","surface":"asphalt"},"geometry":{"type":"LineString","coordinates":[[139.772219,35.559138],[139.772245,35.559088],[139.772264,35.559044],[139.772279,35.558997],[139.77229,35.558947],[139.772292,35.558899],[139.772289,35.55885],[139.772286,35.558807],[139.772279,35.558767],[139.772263,35.558721],[139.772242,35.558676],[139.772216,35.558633]]}},{"type":"Feature","properties":{"aeroway":"taxiway","ref":"L13","surface":"asphalt"},"geometry":{"type":"LineString","coordinates":[[139.771325,35.555192],[139.771365,35.555173],[139.77167,35.55503],[139.771903,35.554904],[139.772122,35.55478],[139.7724,35.554598],[139.77268,35.554397],[139.772864,35.554247],[139.773067,35.554076],[139.773305,35.553856],[139.773596,35.553535],[139.773844,35.553251]]}},{"type":"Feature","properties":{"aeroway":"taxiway","ref":"A14","surface":"asphalt"},"geometry":{"type":"LineString","coordinates":[[139.773024,35.557997],[139.772804,35.55774],[139.772472,35.557359],[139.772241,35.557085],[139.772212,35.557051],[139.771861,35.556641],[139.771632,35.556368]]}},{"type":"Feature","properties":{"aeroway":"taxiway","ref":"J1","surface":"asphalt"},"geometry":{"type":"LineString","coordinates":[[139.774569,35.559545],[139.774607,35.559478],[139.774629,35.559417],[139.77464,35.559353],[139.774641,35.559289],[139.77463,35.559225],[139.77461,35.559163],[139.774579,35.559104],[139.774539,35.559049],[139.77449,35.558999],[139.774433,35.558954]]}},{"type":"Feature","properties":{"aeroway":"taxiway","surface":"asphalt"},"geometry":{"type":"LineString","coordinates":[[139.77411,35.558279],[139.774086,35.558338],[139.77407,35.5584],[139.774063,35.558463],[139.774066,35.558526],[139.774078,35.558588],[139.774098,35.558648],[139.774128,35.558707],[139.774166,35.558762],[139.774211,35.558812],[139.774262,35.558861]]}},{"type":"Feature","properties":{"aeroway":"taxiway","ref":"J1","surface":"asphalt"},"geometry":{"type":"LineString","coordinates":[[139.775317,35.559372],[139.775248,35.559344],[139.775174,35.559326],[139.775097,35.559317],[139.77502,35.559316],[139.774943,35.559324],[139.774868,35.559341],[139.774797,35.559366],[139.774731,35.559398],[139.774671,35.559438],[139.774618,35.559484],[139.774569,35.559545]]}},{"type":"Feature","properties":{"aeroway":"taxiway","surface":"asphalt"},"geometry":{"type":"LineString","coordinates":[[139.773576,35.559024],[139.773598,35.55896],[139.773614,35.558905],[139.773622,35.55884],[139.773621,35.55878],[139.77361,35.558724],[139.773592,35.558675],[139.77356,35.558628],[139.773526,35.558578],[139.773492,35.558539],[139.773456,35.558507],[139.773445,35.558496],[139.773401,35.558465]]}},{"type":"Feature","properties":{"aeroway":"taxiway","surface":"asphalt"},"geometry":{"type":"LineString","coordinates":[[139.772834,35.558269],[139.772862,35.558206],[139.772876,35.558172],[139.772889,35.558124],[139.772897,35.558075],[139.7729,35.558026],[139.772898,35.557978],[139.772892,35.557929],[139.77288,35.557881],[139.772866,35.557842],[139.772845,35.557802],[139.772804,35.55774]]}},{"type":"Feature","properties":{"aeroway":"taxiway","ref":"A12","surface":"asphalt"},"geometry":{"type":"LineString","coordinates":[[139.773458,35.557384],[139.773474,35.557344],[139.773495,35.557299],[139.773498,35.557285],[139.773509,35.557242],[139.773518,35.557172],[139.773522,35.555859],[139.773522,35.555593],[139.773523,35.555362],[139.773523,35.55534]]}},{"type":"Feature","properties":{"aeroway":"taxiway","ref":"A14","surface":"asphalt"},"geometry":{"type":"LineString","coordinates":[[139.772472,35.557359],[139.772557,35.557418],[139.77263,35.55746],[139.772709,35.557493],[139.772793,35.557517],[139.77288,35.557532],[139.772969,35.557536],[139.773058,35.557532],[139.773145,35.557517],[139.773229,35.557494],[139.773308,35.557461],[139.773382,35.55742],[139.773474,35.557344],[139.773502,35.557312]]}},{"type":"Feature","properties":{"aeroway":"taxiway","surface":"asphalt"},"geometry":{"type":"LineString","coordinates":[[139.773176,35.557789],[139.773156,35.55783],[139.77314,35.557872],[139.77313,35.557914],[139.773126,35.557958],[139.773127,35.558002],[139.773134,35.558045],[139.773146,35.558087],[139.773158,35.558126],[139.773188,35.558186]]}},{"type":"Feature","properties":{"aeroway":"taxiway","surface":"asphalt"},"geometry":{"type":"LineString","coordinates":[[139.773253,35.558267],[139.773295,35.558299],[139.773341,35.558331],[139.773394,35.558361],[139.773451,35.558386],[139.773511,35.558403],[139.773523,35.558407],[139.773579,35.558419],[139.773631,35.558423],[139.773691,35.558425],[139.773755,35.558422],[139.773805,35.558414],[139.773858,35.558404],[139.773905,35.558385],[139.773969,35.558357],[139.774026,35.558322],[139.774068,35.55829],[139.774115,35.558255],[139.774151,35.558218]]}},{"type":"Feature","properties":{"aeroway":"taxiway","surface":"asphalt"},"geometry":{"type":"LineString","coordinates":[[139.777924,35.553716],[139.777857,35.553695],[139.777788,35.55368],[139.777717,35.553674],[139.777645,35.553674],[139.777575,35.553682],[139.777506,35.553697],[139.777445,35.553716],[139.777377,35.553748],[139.777314,35.55379],[139.777256,35.553841]]}},{"type":"Feature","properties":{"aeroway":"taxiway","ref":"W13","surface":"asphalt"},"geometry":{"type":"LineString","coordinates":[[139.7749,35.556242],[139.774964,35.55627],[139.775015,35.556285],[139.77507,35.556297],[139.775129,35.556305],[139.775186,35.556306],[139.775255,35.556304],[139.775311,35.556295],[139.775372,35.556285],[139.775424,35.55627],[139.775474,35.556243],[139.775528,35.556208],[139.775583,35.556166],[139.775645,35.556108]]}},{"type":"Feature","properties":{"aeroway":"taxiway","ref":"W13","surface":"asphalt"},"geometry":{"type":"LineString","coordinates":[[139.7749,35.556242],[139.774966,35.556277],[139.775002,35.556303],[139.775019,35.556316],[139.775065,35.55636],[139.775105,35.556408],[139.775137,35.556459],[139.775161,35.556514],[139.775177,35.55657],[139.775184,35.556628],[139.775183,35.556686],[139.775173,35.556743],[139.775158,35.5568]]}},{"type":"Feature","properties":{"aeroway":"taxiway","surface":"asphalt"},"geometry":{"type":"LineString","coordinates":[[139.771861,35.556641],[139.771831,35.556596],[139.771807,35.556555],[139.771788,35.556513],[139.771772,35.55647],[139.77176,35.556426],[139.771753,35.556382],[139.77175,35.556337],[139.771751,35.556292],[139.771756,35.556248],[139.771766,35.556203],[139.77178,35.55616]]}},{"type":"Feature","properties":{"aeroway":"taxiway","ref":"A15","surface":"asphalt"},"geometry":{"type":"LineString","coordinates":[[139.771017,35.557235],[139.771235,35.55749],[139.771568,35.557874],[139.771588,35.5579],[139.771629,35.557947],[139.771831,35.558179],[139.772216,35.558633],[139.772415,35.558856],[139.77262,35.559097]]}},{"type":"Feature","properties":{"aeroway":"taxiway","ref":"J","surface":"asphalt"},"geometry":{"type":"LineString","coordinates":[[139.773456,35.558507],[139.773445,35.558496],[139.77343,35.55848],[139.773377,35.558417],[139.773253,35.558267],[139.773188,35.558186],[139.773024,35.557997]]}},{"type":"Feature","properties":{"aeroway":"taxiway","ref":"W13","surface":"asphalt"},"geometry":{"type":"LineString","coordinates":[[139.774426,35.556018],[139.7749,35.556242]]}},{"type":"Feature","properties":{"aeroway":"taxiway","ref":"W","surface":"asphalt"},"geometry":{"type":"LineString","coordinates":[[139.775645,35.556108],[139.775858,35.555811],[139.776244,35.555266],[139.776618,35.554718],[139.77702,35.554176],[139.777256,35.553841],[139.777396,35.553635],[139.777485,35.553509],[139.777731,35.553164]]}},{"type":"Feature","properties":{"aeroway":"taxiway","ref":"W","surface":"asphalt"},"geometry":{"type":"LineString","coordinates":[[139.774151,35.558218],[139.774307,35.557996],[139.77469,35.557452],[139.775083,35.556905],[139.775158,35.5568],[139.775466,35.556359],[139.775645,35.556108]]}},{"type":"Feature","properties":{"aeroway":"taxiway","ref":"W","surface":"asphalt"},"geometry":{"type":"LineString","coordinates":[[139.772943,35.55991],[139.772985,35.559855],[139.773114,35.559674],[139.773272,35.559447],[139.77354,35.559068],[139.773576,35.559024],[139.773838,35.55866],[139.77411,35.558279],[139.774151,35.558218]]}},{"type":"Feature","properties":{"aeroway":"taxiway","ref":"J","surface":"asphalt"},"geometry":{"type":"LineString","coordinates":[[139.773339,35.558435],[139.773401,35.558465],[139.77343,35.55848],[139.77345,35.558489],[139.77351,35.558515],[139.773838,35.55866],[139.774262,35.558861],[139.774433,35.558954],[139.774816,35.559138],[139.775317,35.559372]]}},{"type":"Feature","properties":{"aeroway":"taxiway","ref":"A","surface":"asphalt"},"geometry":{"type":"LineString","coordinates":[[139.773024,35.557997],[139.773176,35.557789],[139.773458,35.557384],[139.773502,35.557312],[139.773516,35.557293],[139.774186,35.556358],[139.774426,35.556018],[139.774678,35.555672],[139.77474,35.555583]]}},{"type":"Feature","properties":{"aeroway":"taxiway","ref":"A","surface":"asphalt"},"geometry":{"type":"LineString","coordinates":[[139.77474,35.555583],[139.775394,35.554661],[139.776233,35.553477]]}},{"type":"Feature","properties":{"aeroway":"taxiway","ref":"K","surface":"asphalt"},"geometry":{"type":"LineString","coordinates":[[139.774823,35.56018],[139.774691,35.560121],[139.774289,35.55993],[139.773904,35.559744],[139.773782,35.559689],[139.773272,35.559447],[139.772894,35.559267],[139.772835,35.559239]]}},{"type":"Feature","properties":{"aeroway":"taxiway","surface":"asphalt"},"geometry":{"type":"LineString","coordinates":[[139.774262,35.558861],[139.774182,35.558844],[139.774101,35.558834],[139.774019,35.558833],[139.773938,35.558841],[139.77386,35.558858],[139.773784,35.558883],[139.773714,35.558916],[139.77365,35.558957],[139.773576,35.559024]]}},{"type":"Feature","properties":{"aeroway":"taxiway","surface":"asphalt"},"geometry":{"type":"LineString","coordinates":[[139.773377,35.558417],[139.773426,35.558457],[139.773456,35.55848],[139.773466,35.558487],[139.77351,35.558515]]}},{"type":"Feature","properties":{"aeroway":"taxiway","surface":"asphalt"},"geometry":{"type":"LineString","coordinates":[[139.772284,35.555454],[139.772362,35.55538],[139.772436,35.55534],[139.77251,35.55531],[139.772605,35.555284],[139.772721,35.555279],[139.772834,35.555288],[139.772922,35.555311],[139.77302,35.555349]]}}]}