{"type":"FeatureCollection","features":[{"type":"Feature","properties":{"aeroway":"hangar","name":"\u671d\u65e5\u65b0\u805e"},"geometry":{"type":"Polygon","coordinates":[[[139.755286,35.55973],[139.754945,35.559779],[139.754888,35.55951],[139.754978,35.559498],[139.75496,35.559417],[139.7552,35.559383],[139.755217,35.559463],[139.755229,35.559462],[139.755286,35.55973]]]}},{"type":"Feature","properties":{"aeroway":"hangar","name":"\u6bce\u65e5\u65b0\u805e"},"geometry":{"type":"Polygon","coordinates":[[[139.755207,35.559348],[139.755193,35.55935],[139.754867,35.559396],[139.75481,35.559129],[139.754823,35.559127],[139.754808,35.559058],[139.755051,35.559024],[139.755064,35.559088],[139.755149,35.559076],[139.755207,35.559348]]]}},{"type":"Feature","properties":{"aeroway":"hangar","name":"\u6d77\u4e0a\u4fdd\u5b89\u5e81"},"geometry":{"type":"Polygon","coordinates":[[[139.754612,35.557536],[139.754658,35.557683],[139.754713,35.557856],[139.754691,35.557861],[139.754708,35.557914],[139.754749,35.557906],[139.754742,35.557882],[139.755148,35.557798],[139.755121,35.55771],[139.755193,35.557695],[139.755109,35.557437],[139.754612,35.557536]]]}},{"type":"Feature","properties":{"aeroway":"apron"},"geometry":{"type":"Polygon","coordinates":[[[139.754847,35.558374],[139.754902,35.558346],[139.755371,35.557795],[139.755431,35.557826],[139.755521,35.557725],[139.755775,35.557867],[139.755819,35.557815],[139.756108,35.557977],[139.756144,35.557978],[139.756166,35.557991],[139.756129,35.558033],[139.756397,35.558184],[139.756411,35.558168],[139.756437,35.558182],[139.756404,35.558221],[139.756693,35.558385],[139.758226,35.55657],[139.758564,35.556164],[139.758229,35.55598],[139.756386,35.553876],[139.756358,35.553711],[139.756125,35.553427],[139.75612,35.553315],[139.756054,35.553204],[139.7559,35.553152],[139.755715,35.553189],[139.755591,35.553106],[139.755063,35.55249],[139.755005,35.552363],[139.754637,35.551225],[139.754589,35.551038],[139.754599,35.550895],[139.7547,35.550819],[139.755498,35.550344],[139.75557,35.55025],[139.755699,35.550382],[139.755639,35.550422],[139.756149,35.551026],[139.756081,35.551069],[139.756136,35.551131],[139.756074,35.551169],[139.75612,35.551224],[139.75606,35.551263],[139.756454,35.551724],[139.756444,35.55173],[139.756312,35.551812],[139.75614,35.551918],[139.757279,35.553248],[139.757072,35.553376],[139.759015,35.55566],[139.759043,35.555706],[139.759043,35.555748],[139.75903,35.555792],[139.759012,35.555822],[139.758682,35.556229],[139.757127,35.558063],[139.757991,35.558556],[139.757288,35.559363],[139.757579,35.559539],[139.756509,35.560808],[139.75621,35.561372],[139.755903,35.561735],[139.755509,35.561497],[139.755239,35.56064],[139.755464,35.560611],[139.755457,35.56056],[139.755384,35.560207],[139.755379,35.560183],[139.755272,35.560198],[139.755248,35.56012],[139.755341,35.560015],[139.755285,35.559742],[139.755286,35.55973],[139.755229,35.559462],[139.755217,35.559463],[139.7552,35.559383],[139.755193,35.55935],[139.755207,35.559348],[139.755149,35.559076],[139.755064,35.559088],[139.755051,35.559024],[139.755049,35.558995],[139.755432,35.559032],[139.755554,35.559012],[139.755449,35.558724],[139.754856,35.558401],[139.754847,35.558374]]]}},{"type":"Feature","properties":{"aeroway":"apron"},"geometry":{"type":"Polygon","coordinates":[[[139.758905,35.551338],[139.757442,35.55218],[139.762037,35.557517],[139.763478,35.5567],[139.758905,35.551338]]]}},{"type":"Feature","properties":{"aeroway":"taxiway","ref":"T6","surface":"asphalt"},"geometry":{"type":"LineString","coordinates":[[139.762307,35.553651],[139.762223,35.553729],[139.762159,35.553819],[139.762117,35.553918],[139.762099,35.554021],[139.762106,35.554125],[139.762137,35.554226],[139.762196,35.554317]]}},{"type":"Feature","properties":{"aeroway":"taxiway","ref":"T5B","surface":"asphalt"},"geometry":{"type":"LineString","coordinates":[[139.762448,35.554628],[139.762512,35.554675],[139.762564,35.55471],[139.762631,35.554744],[139.762702,35.554772],[139.762775,35.554792],[139.762853,35.554804],[139.762928,35.554809],[139.763001,35.554807],[139.763072,35.554801],[139.76314,35.554788],[139.763206,35.554766],[139.76329,35.554733]]}},{"type":"Feature","properties":{"aeroway":"taxiway","ref":"T","surface":"asphalt"},"geometry":{"type":"LineString","coordinates":[[139.7605,35.552357],[139.760534,35.552394],[139.760603,35.552471],[139.760987,35.552925],[139.76145,35.553464],[139.761906,35.553995],[139.762196,35.554317],[139.762372,35.554533],[139.762448,35.554628],[139.762825,35.55507],[139.763147,35.555441],[139.763192,35.555492]]}},{"type":"Feature","properties":{"aeroway":"taxiway","ref":"N","surface":"asphalt"},"geometry":{"type":"LineString","coordinates":[[139.759418,35.555419],[139.759476,35.555488],[139.759514,35.555556],[139.759542,35.55563],[139.759552,35.555702]]}},{"type":"Feature","properties":{"aeroway":"taxiway","ref":"N","surface":"asphalt"},"geometry":{"type":"LineString","coordinates":[[139.756804,35.552382],[139.756992,35.552604],[139.75722,35.552867],[139.757913,35.553668],[139.7583,35.554127],[139.758679,35.554548],[139.758723,35.5546],[139.759093,35.555036],[139.759418,35.555419]]}},{"type":"Feature","properties":{"aeroway":"taxiway","surface":"asphalt"},"geometry":{"type":"LineString","coordinates":[[139.761265,35.557498],[139.761184,35.557703],[139.761095,35.557916]]}},{"type":"Feature","properties":{"aeroway":"taxiway","surface":"asphalt"},"geometry":{"type":"LineString","coordinates":[[139.761674,35.558273],[139.761621,35.558232],[139.761575,35.558201],[139.761526,35.558174],[139.761474,35.558152],[139.761418,35.558134],[139.761361,35.558121],[139.761302,35.558114],[139.761243,35.558111],[139.761184,35.558114],[139.761125,35.558122],[139.761068,35.558135],[139.761013,35.558153],[139.760961,35.558176],[139.760912,35.558203],[139.760832,35.558274]]}},{"type":"Feature","properties":{"aeroway":"taxiway","surface":"asphalt"},"geometry":{"type":"LineString","coordinates":[[139.761054,35.557565],[139.761087,35.557625],[139.761107,35.557672],[139.761119,35.557719],[139.76112,35.557757],[139.761122,35.557804],[139.761117,35.557832],[139.761107,35.557864],[139.761095,35.557916]]}},{"type":"Feature","properties":{"aeroway":"taxiway","surface":"asphalt"},"geometry":{"type":"LineString","coordinates":[[139.762638,35.559398],[139.76268,35.559435],[139.762729,35.559468],[139.762782,35.559496],[139.762837,35.559521],[139.762895,35.559541],[139.762955,35.559557],[139.763017,35.559568],[139.76308,35.559575],[139.763143,35.559577],[139.763206,35.559575],[139.763268,35.559567],[139.76333,35.559555],[139.76339,35.559539],[139.763448,35.559518],[139.763504,35.559494]]}},{"type":"Feature","properties":{"aeroway":"taxiway","surface":"asphalt"},"geometry":{"type":"LineString","coordinates":[[139.760648,35.55708],[139.760711,35.557132],[139.760779,35.557175],[139.760852,35.55721],[139.76093,35.557237],[139.761012,35.557257],[139.761084,35.557265],[139.761161,35.557268],[139.761234,35.557265],[139.761303,35.557255],[139.761366,35.55724],[139.761427,35.55722],[139.76148,35.557199]]}},{"type":"Feature","properties":{"aeroway":"taxiway","surface":"asphalt"},"geometry":{"type":"LineString","coordinates":[[139.76148,35.557199],[139.761435,35.557239],[139.761398,35.557271],[139.76136,35.557317],[139.761322,35.557368],[139.76129,35.557432],[139.761265,35.557498],[139.761254,35.557577],[139.761255,35.557631],[139.761257,35.557682],[139.761267,35.557732],[139.761285,35.55778],[139.76131,35.557831],[139.761338,35.557878]]}},{"type":"Feature","properties":{"aeroway":"taxiway","surface":"asphalt"},"geometry":{"type":"LineString","coordinates":[[139.763268,35.55617],[139.763114,35.556261],[139.761622,35.557118],[139.76148,35.557199]]}},{"type":"Feature","properties":{"aeroway":"taxiway","surface":"asphalt"},"geometry":{"type":"LineString","coordinates":[[139.759552,35.555702],[139.759578,35.555793],[139.759617,35.555865],[139.759668,35.555934],[139.759703,35.555976],[139.759742,35.556024]]}},{"type":"Feature","properties":{"aeroway":"taxiway","surface":"asphalt"},"geometry":{"type":"LineString","coordinates":[[139.759742,35.556024],[139.760115,35.556459],[139.760648,35.55708],[139.761054,35.557565],[139.761184,35.557703],[139.761338,35.557878],[139.761674,35.558273],[139.762638,35.559398]]}},{"type":"Feature","properties":{"aeroway":"hangar","name":"\u6d77\u4e0a\u4fdd\u5b89\u5e81"},"geometry":{"type":"Polygon","coordinates":[[[139.755109,35.557437],[139.755014,35.557123],[139.754935,35.55714],[139.75492,35.557092],[139.754762,35.557125],[139.754532,35.557172],[139.754524,35.557147],[139.75448,35.557156],[139.754498,35.55721],[139.754509,35.557208],[139.754561,35.557371],[139.754612,35.557536],[139.755109,35.557437]]]}},{"type":"Feature","properties":{"aeroway":"helipad"},"geometry":{"type":"Polygon","coordinates":[[[139.756884,35.559084],[139.75687,35.559062],[139.75686,35.559048],[139.756862,35.559021],[139.756879,35.559007],[139.756904,35.559002],[139.756924,35.559003],[139.756942,35.55901],[139.756959,35.559026],[139.756963,35.559043],[139.75696,35.559059],[139.756949,35.559071],[139.756942,35.559079],[139.756931,35.559082],[139.756921,35.559085],[139.756904,35.559085],[139.756884,35.559084]]]}}]}