{"type":"FeatureCollection","features":[{"type":"Feature","properties":{"aeroway":"apron"},"geometry":{"type":"Polygon","coordinates":[[[139.784766,35.565269],[139.784674,35.565405],[139.784609,35.565377],[139.784567,35.565438],[139.784497,35.565414],[139.784301,35.565667],[139.78423,35.565633],[139.78403,35.565892],[139.783972,35.565863],[139.783815,35.566056],[139.783747,35.566019],[139.783549,35.56628],[139.783478,35.566254],[139.783269,35.566506],[139.78319,35.566474],[139.783004,35.566728],[139.782927,35.566696],[139.782786,35.566896],[139.782699,35.566855],[139.782514,35.567122],[139.78245,35.567088],[139.782242,35.567348],[139.782167,35.567311],[139.782027,35.567509],[139.781954,35.567476],[139.781739,35.567762],[139.781253,35.567531],[139.781295,35.567484],[139.780889,35.567288],[139.780928,35.567231],[139.7806,35.567086],[139.780642,35.567036],[139.780142,35.566799],[139.780197,35.566733],[139.779757,35.566526],[139.779905,35.566327],[139.779972,35.566361],[139.780069,35.566227],[139.780148,35.566261],[139.780232,35.566132],[139.780304,35.566168],[139.780406,35.566032],[139.780481,35.566065],[139.780566,35.565936],[139.780639,35.56597],[139.780735,35.565837],[139.780808,35.565873],[139.782124,35.56402],[139.784766,35.565269]]]}},{"type":"Feature","properties":{"aeroway":"taxiway","surface":"asphalt"},"geometry":{"type":"LineString","coordinates":[[139.782269,35.566105],[139.782383,35.566185],[139.78245,35.566251],[139.782503,35.566324],[139.782537,35.566387],[139.782557,35.566454],[139.782565,35.566525],[139.782565,35.566591],[139.782554,35.566655],[139.782521,35.566737],[139.782464,35.566829],[139.782388,35.566918]]}},{"type":"Feature","properties":{"aeroway":"taxiway","ref":"C","surface":"asphalt"},"geometry":{"type":"LineString","coordinates":[[139.780618,35.56769],[139.780711,35.567746],[139.780814,35.567786],[139.780925,35.56781],[139.78104,35.567817],[139.781154,35.567807],[139.781264,35.56778],[139.781366,35.567736],[139.781457,35.567679]]}},{"type":"Feature","properties":{"aeroway":"taxiway","surface":"asphalt"},"geometry":{"type":"LineString","coordinates":[[139.782269,35.566105],[139.782503,35.566215],[139.7826,35.566258],[139.782706,35.566288],[139.782796,35.566302],[139.782888,35.566308],[139.782963,35.566302],[139.783041,35.566291],[139.783122,35.566264],[139.783191,35.566239],[139.783289,35.566191]]}},{"type":"Feature","properties":{"aeroway":"taxiway","ref":"C","surface":"asphalt"},"geometry":{"type":"LineString","coordinates":[[139.781457,35.567679],[139.78148,35.567659],[139.781724,35.56745],[139.782202,35.567059],[139.782388,35.566918],[139.783289,35.566191],[139.783477,35.566032],[139.783987,35.56561],[139.784287,35.565375]]}},{"type":"Feature","properties":{"aeroway":"taxiway","ref":"C","surface":"asphalt"},"geometry":{"type":"LineString","coordinates":[[139.779099,35.566651],[139.779305,35.566786],[139.780618,35.56769]]}}]}