{"type":"FeatureCollection","features":[{"type":"Feature","properties":{"aeroway":"taxiway","ref":"B3","surface":"asphalt"},"geometry":{"type":"LineString","coordinates":[[139.763253,35.549252],[139.763205,35.549295],[139.763167,35.549333],[139.763123,35.549387],[139.763088,35.549446],[139.763063,35.549507],[139.763047,35.54957],[139.763042,35.549635],[139.763041,35.549679],[139.763041,35.549684]]}},{"type":"Feature","properties":{"aeroway":"taxiway","ref":"B4","surface":"asphalt"},"geometry":{"type":"LineString","coordinates":[[139.764519,35.551415],[139.764511,35.551375],[139.764498,35.551303],[139.764487,35.551231],[139.764495,35.551147],[139.764505,35.551094],[139.764527,35.551043],[139.764554,35.550988],[139.764585,35.550941],[139.764622,35.550893],[139.764664,35.550853],[139.764722,35.550808],[139.764789,35.550766],[139.764858,35.550732],[139.76493,35.550708],[139.765005,35.550688],[139.765082,35.550678],[139.765156,35.550676],[139.765233,35.550678],[139.765294,35.550688],[139.765369,35.550705],[139.765432,35.550726]]}},{"type":"Feature","properties":{"aeroway":"apron"},"geometry":{"type":"Polygon","coordinates":[[[139.770886,35.550048],[139.770926,35.550077],[139.770951,35.550109],[139.770954,35.550125],[139.770952,35.55016],[139.770932,35.550183],[139.770885,35.550157],[139.770356,35.550925],[139.770488,35.550989],[139.770434,35.551063],[139.77064,35.55116],[139.770677,35.551109],[139.77073,35.551132],[139.770789,35.551147],[139.770586,35.551421],[139.770512,35.551368],[139.77046,35.551342],[139.769977,35.552018],[139.770024,35.552039],[139.769999,35.552065],[139.769955,35.552083],[139.769906,35.552087],[139.769788,35.552043],[139.766806,35.55062],[139.766519,35.550478],[139.76681,35.550097],[139.766739,35.550066],[139.76687,35.549889],[139.766782,35.549848],[139.766833,35.549778],[139.766752,35.549743],[139.766704,35.549811],[139.766633,35.549781],[139.766489,35.549988],[139.766422,35.549955],[139.766237,35.550219],[139.765883,35.550044],[139.766116,35.549715],[139.766048,35.549687],[139.766025,35.549678],[139.766068,35.549616],[139.766119,35.549544],[139.766063,35.549523],[139.766039,35.549514],[139.766051,35.549492],[139.766082,35.549435],[139.765998,35.549398],[139.766042,35.549337],[139.765858,35.549246],[139.765733,35.549184],[139.765739,35.549176],[139.765781,35.549117],[139.764331,35.548427],[139.764376,35.54836],[139.764275,35.548319],[139.764236,35.548266],[139.764264,35.54822],[139.764132,35.54816],[139.764118,35.548126],[139.76414,35.54809],[139.764059,35.548054],[139.764146,35.547916],[139.76417,35.547903],[139.764206,35.547922],[139.76424,35.547872],[139.764283,35.547889],[139.764325,35.547818],[139.764398,35.547776],[139.764453,35.547804],[139.76451,35.547711],[139.764563,35.547678],[139.764789,35.547784],[139.765052,35.5474],[139.765109,35.547404],[139.765131,35.547378],[139.765177,35.5474],[139.765207,35.547366],[139.770886,35.550048]]]}},{"type":"Feature","properties":{"aeroway":"taxiway","surface":"asphalt"},"geometry":{"type":"LineString","coordinates":[[139.770655,35.553198],[139.770725,35.553249],[139.770777,35.553299],[139.770822,35.553354],[139.770859,35.553413],[139.770887,35.553475],[139.770906,35.553539],[139.770915,35.553605],[139.770915,35.553671],[139.770906,35.553737],[139.770887,35.553801],[139.770859,35.553863]]}},{"type":"Feature","properties":{"aeroway":"taxiway","surface":"asphalt"},"geometry":{"type":"LineString","coordinates":[[139.77062,35.553181],[139.770545,35.553164],[139.770483,35.553154],[139.770414,35.553149],[139.770391,35.55315],[139.770339,35.553153],[139.770252,35.553167],[139.770187,35.553188],[139.77013,35.553212],[139.770059,35.55325],[139.77001,35.55329],[139.76996,35.55333]]}},{"type":"Feature","properties":{"aeroway":"taxiway","surface":"asphalt"},"geometry":{"type":"LineString","coordinates":[[139.770508,35.552561],[139.770443,35.552622],[139.770393,35.552661],[139.770332,35.5527],[139.770266,35.552731],[139.770193,35.552756],[139.770108,35.552776],[139.770035,35.552786],[139.769965,35.552788],[139.769897,35.552786],[139.769823,35.552776],[139.76974,35.552757],[139.769672,35.552734]]}},{"type":"Feature","properties":{"aeroway":"taxiway","surface":"asphalt"},"geometry":{"type":"LineString","coordinates":[[139.769907,35.553398],[139.769937,35.553332],[139.769956,35.553277],[139.769961,35.553226],[139.769963,35.553166],[139.769959,35.553114],[139.769948,35.553057],[139.769927,35.553002],[139.769896,35.552944],[139.769861,35.552893],[139.769818,35.552844],[139.769769,35.552803],[139.76972,35.552765],[139.769672,35.552734]]}},{"type":"Feature","properties":{"aeroway":"taxiway","surface":"asphalt"},"geometry":{"type":"LineString","coordinates":[[139.770655,35.553198],[139.770723,35.553216],[139.770789,35.553228],[139.77085,35.553236],[139.77091,35.553238],[139.771008,35.553233],[139.771089,35.553221],[139.771163,35.553202],[139.77122,35.553178],[139.771283,35.553149],[139.771342,35.553113],[139.771392,35.553078],[139.77147,35.553]]}},{"type":"Feature","properties":{"aeroway":"taxiway","ref":"M","surface":"asphalt"},"geometry":{"type":"LineString","coordinates":[[139.765432,35.550726],[139.765515,35.550763],[139.765961,35.550973],[139.766239,35.551111],[139.766903,35.551417],[139.769672,35.552734],[139.770208,35.552985],[139.77062,35.553181],[139.770655,35.553198],[139.771161,35.553439]]}},{"type":"Feature","properties":{"aeroway":"taxiway","ref":"B5","surface":"asphalt"},"geometry":{"type":"LineString","coordinates":[[139.766366,35.552966],[139.76646,35.552911],[139.766537,35.552871],[139.76662,35.552839],[139.766708,35.552817],[139.766799,35.552805],[139.76689,35.552803],[139.766982,35.552811],[139.767071,35.552829],[139.767156,35.552857],[139.767236,35.552894],[139.767308,35.55294],[139.76737,35.552991],[139.767419,35.553034]]}},{"type":"Feature","properties":{"aeroway":"taxiway","ref":"P","surface":"asphalt"},"geometry":{"type":"LineString","coordinates":[[139.770508,35.552561],[139.770452,35.552641],[139.770208,35.552985],[139.76996,35.55333],[139.769907,35.553398],[139.769408,35.554102],[139.769118,35.554512],[139.769092,35.55456]]}},{"type":"Feature","properties":{"aeroway":"taxiway","ref":"P7","surface":"asphalt"},"geometry":{"type":"LineString","coordinates":[[139.77093,35.551966],[139.770963,35.551888],[139.770978,35.55184],[139.770987,35.551788],[139.770988,35.551722],[139.770983,35.55167],[139.770973,35.551618],[139.770952,35.551563],[139.770928,35.551507],[139.770883,35.551448],[139.770834,35.551395],[139.770783,35.551349],[139.770746,35.55132],[139.770711,35.551296]]}},{"type":"Feature","properties":{"aeroway":"taxiway","surface":"asphalt"},"geometry":{"type":"LineString","coordinates":[[139.765732,35.553332],[139.765678,35.553373],[139.76563,35.553418],[139.765571,35.553482],[139.765534,35.553543],[139.765514,35.553589],[139.765496,35.553645],[139.765485,35.553703],[139.765481,35.553769],[139.765489,35.553836],[139.765509,35.553913],[139.765525,35.553946],[139.765559,35.554004],[139.765568,35.55402]]}},{"type":"Feature","properties":{"aeroway":"taxiway","surface":"asphalt"},"geometry":{"type":"LineString","coordinates":[[139.770452,35.552641],[139.770424,35.552714],[139.770414,35.552765],[139.770409,35.552818],[139.770413,35.552882],[139.770425,35.552931],[139.770446,35.552991],[139.77049,35.553055],[139.770529,35.553103],[139.770569,35.55314],[139.77062,35.553181]]}},{"type":"Feature","properties":{"aeroway":"taxiway","surface":"asphalt"},"geometry":{"type":"LineString","coordinates":[[139.765732,35.553332],[139.765628,35.553371],[139.765552,35.553392],[139.765478,35.553404],[139.765418,35.553409],[139.765346,35.553408],[139.765256,35.553401],[139.765196,35.553388],[139.765147,35.553371],[139.765087,35.55335],[139.765042,35.553329],[139.764993,35.553303],[139.764949,35.553274],[139.764888,35.553223]]}},{"type":"Feature","properties":{"aeroway":"taxiway","ref":"P7","surface":"asphalt"},"geometry":{"type":"LineString","coordinates":[[139.770711,35.551296],[139.770754,35.551308],[139.770805,35.551322],[139.770856,35.551333],[139.770916,35.55134],[139.770983,35.551344],[139.771048,35.551343],[139.771126,35.551333],[139.771202,35.551314],[139.771272,35.551292],[139.771341,35.55126],[139.7714,35.551227],[139.771445,35.551193],[139.771528,35.55112]]}},{"type":"Feature","properties":{"aeroway":"taxiway","ref":"B5","surface":"asphalt"},"geometry":{"type":"LineString","coordinates":[[139.766366,35.552966],[139.766298,35.553006],[139.766141,35.553096],[139.766046,35.553152],[139.765918,35.553228],[139.765732,35.553332],[139.765276,35.553594],[139.765229,35.553621]]}},{"type":"Feature","properties":{"aeroway":"taxiway","ref":"B2","surface":"asphalt"},"geometry":{"type":"LineString","coordinates":[[139.764217,35.549308],[139.764152,35.549256],[139.764088,35.549213],[139.764014,35.549174],[139.763928,35.549146],[139.763845,35.549124],[139.763768,35.549118],[139.76369,35.549115],[139.763609,35.549118],[139.763538,35.549131],[139.763465,35.549147],[139.763377,35.549181]]}},{"type":"Feature","properties":{"aeroway":"taxiway","ref":"B2","surface":"asphalt"},"geometry":{"type":"LineString","coordinates":[[139.76357,35.548555],[139.763602,35.548615],[139.763622,35.548657],[139.763637,35.548706],[139.763646,35.548749],[139.763643,35.548822],[139.763639,35.548868],[139.763619,35.548924],[139.763596,35.548973],[139.76357,35.549023],[139.763532,35.549066],[139.763456,35.549135]]}},{"type":"Feature","properties":{"aeroway":"taxiway","ref":"U2","surface":"asphalt"},"geometry":{"type":"LineString","coordinates":[[139.764386,35.548597],[139.764431,35.548576],[139.764478,35.548553],[139.764536,35.548539],[139.76461,35.548523],[139.764678,35.548516],[139.764739,35.548515],[139.764811,35.548522],[139.764881,35.548535],[139.764949,35.548554]]}},{"type":"Feature","properties":{"aeroway":"taxiway","ref":"U2","surface":"asphalt"},"geometry":{"type":"LineString","coordinates":[[139.76428,35.548659],[139.764233,35.548699],[139.764194,35.548738],[139.764162,35.548774],[139.764137,35.548813],[139.76412,35.548848],[139.764103,35.548895],[139.764087,35.548946],[139.764082,35.548995],[139.764084,35.54905],[139.764092,35.549093],[139.764108,35.549139],[139.764119,35.549174],[139.764147,35.549227]]}},{"type":"Feature","properties":{"aeroway":"taxiway","ref":"U2","surface":"asphalt"},"geometry":{"type":"LineString","coordinates":[[139.76428,35.548659],[139.764204,35.54869],[139.764132,35.548708],[139.764069,35.548719],[139.764,35.54872],[139.763934,35.548718],[139.763869,35.548708],[139.763801,35.54869],[139.763738,35.54867],[139.763685,35.548645],[139.76363,35.548609],[139.76357,35.548555]]}},{"type":"Feature","properties":{"aeroway":"taxiway","ref":"P7","surface":"asphalt"},"geometry":{"type":"LineString","coordinates":[[139.767156,35.549604],[139.767012,35.549535],[139.766379,35.549234],[139.766152,35.549127],[139.76607,35.549087],[139.765458,35.548797],[139.764949,35.548554],[139.764773,35.548471]]}},{"type":"Feature","properties":{"aeroway":"taxiway","ref":"T4","surface":"asphalt"},"geometry":{"type":"LineString","coordinates":[[139.761469,35.551646],[139.761917,35.551858],[139.762916,35.552333],[139.763881,35.552786],[139.76418,35.552943],[139.764392,35.553069],[139.764729,35.553289],[139.764951,35.553458],[139.76518,35.55365],[139.765568,35.55402]]}},{"type":"Feature","properties":{"aeroway":"taxiway","ref":"B1","surface":"asphalt"},"geometry":{"type":"LineString","coordinates":[[139.762684,35.548367],[139.762769,35.548324],[139.762852,35.548293],[139.762939,35.548274],[139.76303,35.548267],[139.763121,35.548272],[139.763209,35.548289],[139.763293,35.548318],[139.76337,35.548358],[139.763438,35.548408],[139.763494,35.548466]]}},{"type":"Feature","properties":{"aeroway":"taxiway","ref":"B5","surface":"asphalt"},"geometry":{"type":"LineString","coordinates":[[139.766201,35.553366],[139.766204,35.553337],[139.766211,35.553278],[139.766222,35.55322],[139.766242,35.553158],[139.76627,35.553103],[139.766303,35.553051],[139.766366,35.552966],[139.766415,35.5529],[139.766591,35.552657],[139.766631,35.552601],[139.766658,35.552542],[139.766674,35.552494],[139.766688,35.552442],[139.766693,35.552398],[139.766694,35.552312],[139.766678,35.552246],[139.766657,35.552187],[139.766628,35.552132],[139.76659,35.552071]]}},{"type":"Feature","properties":{"aeroway":"taxiway","ref":"U4","surface":"asphalt"},"geometry":{"type":"LineString","coordinates":[[139.766312,35.549785],[139.766379,35.54972],[139.766446,35.54967],[139.766512,35.549634],[139.766586,35.549603],[139.766658,35.549578],[139.766736,35.549563],[139.76683,35.549556],[139.766931,35.549555],[139.767047,35.549571],[139.767156,35.549604]]}},{"type":"Feature","properties":{"aeroway":"taxiway","ref":"U4","surface":"asphalt"},"geometry":{"type":"LineString","coordinates":[[139.766016,35.550202],[139.765986,35.550273],[139.765982,35.550282],[139.76596,35.550345],[139.765953,35.550419],[139.765952,35.550494],[139.765957,35.550679],[139.765967,35.550741],[139.76598,35.550795],[139.766,35.550848],[139.766026,35.550899],[139.766058,35.550948],[139.766096,35.550994],[139.766139,35.551037],[139.766187,35.551076],[139.766239,35.551111]]}},{"type":"Feature","properties":{"aeroway":"taxiway","surface":"asphalt"},"geometry":{"type":"LineString","coordinates":[[139.765972,35.551523],[139.765963,35.55145],[139.765957,35.551416],[139.765944,35.551371],[139.765922,35.551321],[139.765897,35.551276],[139.765872,35.551233]]}},{"type":"Feature","properties":{"aeroway":"taxiway","surface":"asphalt"},"geometry":{"type":"LineString","coordinates":[[139.76601,35.552495],[139.765984,35.55237],[139.765977,35.551888],[139.765972,35.551523],[139.765968,35.551347]]}},{"type":"Feature","properties":{"aeroway":"taxiway","surface":"asphalt"},"geometry":{"type":"LineString","coordinates":[[139.765977,35.551888],[139.765989,35.551822],[139.765999,35.551775],[139.766017,35.551728],[139.766055,35.551663],[139.766109,35.551594],[139.766146,35.551555],[139.766206,35.551505],[139.766268,35.551467],[139.766337,35.551433],[139.766416,35.551406],[139.766501,35.551388],[139.766588,35.551378],[139.766666,35.551378],[139.766749,35.551385],[139.766811,35.551395],[139.766903,35.551417]]}},{"type":"Feature","properties":{"aeroway":"taxiway","ref":"U4","surface":"asphalt"},"geometry":{"type":"LineString","coordinates":[[139.766312,35.549785],[139.76634,35.549709],[139.76636,35.549651],[139.76637,35.549583],[139.766368,35.549535],[139.766362,35.549472],[139.766342,35.549403],[139.766306,35.549324],[139.76628,35.549286],[139.766256,35.549249],[139.76621,35.5492],[139.766143,35.549142],[139.76607,35.549087]]}},{"type":"Feature","properties":{"aeroway":"taxiway","ref":"B4","surface":"asphalt"},"geometry":{"type":"LineString","coordinates":[[139.765442,35.553868],[139.765324,35.553669],[139.765276,35.553594],[139.765229,35.553519],[139.765147,35.553371],[139.765072,35.553241],[139.765007,35.553102],[139.764938,35.552951],[139.764877,35.552808],[139.764833,35.552684],[139.764786,35.552529],[139.764738,35.552364],[139.764649,35.551986],[139.764519,35.551415]]}},{"type":"Feature","properties":{"aeroway":"taxiway","surface":"asphalt"},"geometry":{"type":"LineString","coordinates":[[139.763377,35.549181],[139.763456,35.549135],[139.763867,35.548901],[139.76428,35.548659],[139.764386,35.548597]]}},{"type":"Feature","properties":{"aeroway":"taxiway","ref":"U4","surface":"asphalt"},"geometry":{"type":"LineString","coordinates":[[139.765233,35.550678],[139.765295,35.55068],[139.765351,35.55068],[139.765393,35.550678],[139.765449,35.550668],[139.765498,35.550655],[139.765553,35.550636],[139.765604,35.550618],[139.765668,35.550588],[139.765719,35.550557],[139.765762,35.550526],[139.765808,35.550484],[139.765847,35.550439],[139.765965,35.550274],[139.766016,35.550202],[139.766312,35.549785]]}},{"type":"Feature","properties":{"aeroway":"taxiway","surface":"asphalt"},"geometry":{"type":"LineString","coordinates":[[139.765393,35.550678],[139.765461,35.550727],[139.765515,35.550763],[139.765599,35.550814],[139.765655,35.550858],[139.765736,35.550955],[139.765772,35.551015],[139.765787,35.551051],[139.765794,35.551076],[139.765804,35.551108],[139.765817,35.551139],[139.76584,35.551183],[139.765872,35.551233]]}},{"type":"Feature","properties":{"aeroway":"taxiway","ref":"B3","surface":"asphalt"},"geometry":{"type":"LineString","coordinates":[[139.763041,35.549684],[139.763198,35.550424],[139.763258,35.550682],[139.763388,35.551078],[139.763531,35.551404],[139.763678,35.551685],[139.763804,35.551898],[139.764039,35.552234]]}},{"type":"Feature","properties":{"aeroway":"taxiway","ref":"U4","surface":"asphalt"},"geometry":{"type":"LineString","coordinates":[[139.764971,35.550187],[139.76504,35.55025],[139.765102,35.550293],[139.76518,35.550334],[139.765255,35.55036],[139.765323,35.550381],[139.765403,35.550393],[139.765477,35.5504],[139.765557,35.550398],[139.765638,35.550388],[139.765713,35.550368],[139.765778,35.550346],[139.76584,35.550321],[139.765896,35.550289],[139.765938,35.55026],[139.766016,35.550202]]}},{"type":"Feature","properties":{"aeroway":"taxiway","ref":"P7","surface":"asphalt"},"geometry":{"type":"LineString","coordinates":[[139.770711,35.551296],[139.77063,35.551257],[139.770217,35.551059],[139.769886,35.550902],[139.769568,35.55075],[139.769145,35.550549],[139.768914,35.550439],[139.768442,35.550215],[139.768258,35.550128],[139.767712,35.549868],[139.767607,35.549818],[139.767156,35.549604]]}},{"type":"Feature","properties":{"aeroway":"taxiway","ref":"P","surface":"asphalt"},"geometry":{"type":"LineString","coordinates":[[139.772083,35.550339],[139.771528,35.55112],[139.771478,35.551189],[139.771229,35.551542],[139.770979,35.551897],[139.77093,35.551966],[139.770508,35.552561]]}},{"type":"Feature","properties":{"aeroway":"taxiway","ref":"B","surface":"asphalt"},"geometry":{"type":"LineString","coordinates":[[139.764217,35.549308],[139.764971,35.550187],[139.765393,35.550678],[139.765432,35.550726],[139.765872,35.551233],[139.765968,35.551347],[139.766047,35.551441],[139.766146,35.551555],[139.76659,35.552071]]}},{"type":"Feature","properties":{"aeroway":"taxiway","ref":"B","surface":"asphalt"},"geometry":{"type":"LineString","coordinates":[[139.76659,35.552071],[139.767419,35.553034],[139.76835,35.554119]]}},{"type":"Feature","properties":{"aeroway":"taxiway","ref":"B","surface":"asphalt"},"geometry":{"type":"LineString","coordinates":[[139.763494,35.548466],[139.76357,35.548555],[139.763867,35.548901],[139.764147,35.549227],[139.764217,35.549308]]}},{"type":"Feature","properties":{"aeroway":"taxiway","surface":"asphalt"},"geometry":{"type":"LineString","coordinates":[[139.771161,35.553439],[139.771244,35.553474]]}},{"type":"Feature","properties":{"aeroway":"terminal"},"geometry":{"type":"Polygon","coordinates":[[[139.770312,35.548973],[139.770466,35.549047],[139.770505,35.549161],[139.770493,35.549177],[139.770433,35.54926],[139.770392,35.549316],[139.770493,35.549365],[139.770534,35.549309],[139.770594,35.549226],[139.770613,35.5492],[139.77076,35.549181],[139.771092,35.54934],[139.771256,35.549114],[139.771124,35.549051],[139.771094,35.548816],[139.771126,35.548764],[139.771035,35.548727],[139.770996,35.548792],[139.771054,35.548815],[139.77108,35.54903],[139.77054,35.548772],[139.770534,35.54856],[139.770571,35.548503],[139.770465,35.548457],[139.770425,35.548519],[139.770477,35.548541],[139.770478,35.548742],[139.770312,35.548973]]]}},{"type":"Feature","properties":{"aeroway":"taxiway","surface":"asphalt"},"geometry":{"type":"LineString","coordinates":[[139.765966,35.551223],[139.76598,35.5513],[139.766002,35.551357],[139.766047,35.551441]]}},{"type":"Feature","properties":{"aeroway":"taxiway","surface":"asphalt"},"geometry":{"type":"LineString","coordinates":[[139.766298,35.553006],[139.766362,35.55295],[139.766415,35.5529]]}},{"type":"Feature","properties":{"aeroway":"taxiway","surface":"asphalt"},"geometry":{"type":"LineString","coordinates":[[139.76646,35.552911],[139.766397,35.55296],[139.766356,35.553],[139.766303,35.553051]]}},{"type":"Feature","properties":{"aeroway":"taxiway","surface":"asphalt"},"geometry":{"type":"LineString","coordinates":[[139.771654,35.551745],[139.771579,35.551724],[139.771517,35.551713],[139.771461,35.551708],[139.7714,35.551707],[139.771326,35.551716],[139.77125,35.551731],[139.771182,35.551755],[139.771129,35.55178],[139.771078,35.551811],[139.77104,35.551841],[139.770979,35.551897]]}},{"type":"Feature","properties":{"aeroway":"taxiway","surface":"asphalt"},"geometry":{"type":"LineString","coordinates":[[139.770711,35.551296],[139.771229,35.551542],[139.771654,35.551745],[139.771673,35.551754],[139.771742,35.551786]]}},{"type":"Feature","properties":{"aeroway":"taxiway","surface":"asphalt"},"geometry":{"type":"LineString","coordinates":[[139.765968,35.551347],[139.765966,35.551223],[139.765961,35.550973],[139.765957,35.550679]]}},{"type":"Feature","properties":{"aeroway":"taxiway","surface":"asphalt"},"geometry":{"type":"LineString","coordinates":[[139.766141,35.553096],[139.76601,35.552495]]}}]}