{"type":"FeatureCollection","features":[{"type":"Feature","properties":{"aeroway":"taxiway","ref":"C8","surface":"asphalt"},"geometry":{"type":"LineString","coordinates":[[139.795014,35.551965],[139.795017,35.552072],[139.795016,35.552403],[139.795016,35.552569],[139.795008,35.552778],[139.794989,35.552971],[139.794969,35.553122],[139.79494,35.553306],[139.794892,35.55352],[139.794837,35.553724],[139.794764,35.553952],[139.794705,35.554108],[139.79464,35.554273],[139.794557,35.554451],[139.794465,35.554638],[139.794272,35.554972],[139.794165,35.555161]]}},{"type":"Feature","properties":{"aeroway":"apron"},"geometry":{"type":"Polygon","coordinates":[[[139.79469,35.547999],[139.793887,35.549108],[139.790832,35.547677],[139.791632,35.546536],[139.79469,35.547999]]]}},{"type":"Feature","properties":{"aeroway":"taxiway","surface":"asphalt"},"geometry":{"type":"LineString","coordinates":[[139.792534,35.553006],[139.792595,35.553043],[139.79264,35.553081],[139.792682,35.553121],[139.792717,35.553165],[139.792747,35.553219],[139.79277,35.553277],[139.792782,35.553336],[139.792786,35.553386],[139.792781,35.553441],[139.792774,35.553488],[139.792739,35.553574]]}},{"type":"Feature","properties":{"aeroway":"taxiway","ref":"M2","surface":"asphalt"},"geometry":{"type":"LineString","coordinates":[[139.790861,35.552213],[139.790892,35.552227],[139.791539,35.552536],[139.792031,35.552772],[139.792468,35.552977],[139.792482,35.552984],[139.792534,35.553006]]}},{"type":"Feature","properties":{"aeroway":"taxiway","surface":"asphalt"},"geometry":{"type":"LineString","coordinates":[[139.792534,35.553006],[139.792602,35.553031],[139.79266,35.553044],[139.79271,35.553052],[139.792768,35.553055],[139.792822,35.553055],[139.792843,35.553053],[139.792892,35.553048],[139.792952,35.553037],[139.793016,35.553017],[139.793078,35.552992],[139.793133,35.552963],[139.793185,35.552926],[139.793245,35.552867]]}},{"type":"Feature","properties":{"aeroway":"taxiway","surface":"asphalt"},"geometry":{"type":"LineString","coordinates":[[139.794016,35.551772],[139.794099,35.551703],[139.79417,35.55166],[139.794254,35.551623],[139.794341,35.5516],[139.794403,35.551592],[139.794492,35.551591],[139.794569,35.551597],[139.794645,35.551615],[139.794736,35.551648],[139.794809,35.551691],[139.794876,35.551744],[139.794922,35.551792],[139.794961,35.55184],[139.794984,35.55189],[139.795014,35.551965]]}},{"type":"Feature","properties":{"aeroway":"taxiway","surface":"asphalt"},"geometry":{"type":"LineString","coordinates":[[139.792847,35.550659],[139.792861,35.550666],[139.792933,35.550687],[139.792986,35.550699],[139.793062,35.550706],[139.793146,35.550708],[139.793238,35.550704],[139.793311,35.550688],[139.793378,35.550671],[139.793439,35.550645],[139.793501,35.550615],[139.793559,35.55058],[139.793591,35.550554],[139.793639,35.550509]]}},{"type":"Feature","properties":{"aeroway":"taxiway","surface":"asphalt"},"geometry":{"type":"LineString","coordinates":[[139.794754,35.551571],[139.794708,35.551528],[139.79465,35.551468],[139.794614,35.551414],[139.794587,35.55136],[139.794563,35.551302],[139.794552,35.551252],[139.794545,35.551193],[139.794545,35.551139],[139.794552,35.55109],[139.794569,35.551036],[139.7946,35.550949]]}},{"type":"Feature","properties":{"aeroway":"taxiway","surface":"asphalt"},"geometry":{"type":"LineString","coordinates":[[139.794071,35.551695],[139.794086,35.551655],[139.794101,35.551622],[139.794112,35.551566],[139.794115,35.551497],[139.794104,35.551433],[139.794087,35.551376],[139.794069,35.551341],[139.794039,35.55129],[139.793998,35.551247],[139.793959,35.551208],[139.793923,35.551181],[139.79388,35.55115]]}},{"type":"Feature","properties":{"aeroway":"taxiway","surface":"asphalt"},"geometry":{"type":"LineString","coordinates":[[139.79537,35.548073],[139.795414,35.548025],[139.795455,35.547991],[139.795512,35.547953],[139.795578,35.547921],[139.795655,35.547893],[139.795729,35.547877],[139.795809,35.54787],[139.795895,35.547873],[139.795972,35.547882],[139.796034,35.547899],[139.796072,35.547913]]}},{"type":"Feature","properties":{"aeroway":"taxiway","surface":"asphalt"},"geometry":{"type":"LineString","coordinates":[[139.791539,35.552536],[139.791606,35.55259],[139.791639,35.55262],[139.791685,35.552675],[139.791724,35.552725],[139.791754,35.552779],[139.791772,35.552832],[139.791788,35.552895],[139.791793,35.552953],[139.791793,35.553011],[139.791782,35.55307],[139.791762,35.553128],[139.791739,35.553186]]}},{"type":"Feature","properties":{"aeroway":"taxiway","surface":"asphalt"},"geometry":{"type":"LineString","coordinates":[[139.791539,35.552536],[139.791616,35.552553],[139.791689,35.552567],[139.791764,35.552574],[139.791839,35.552576],[139.791925,35.552565],[139.792014,35.552545],[139.792095,35.552517],[139.792173,35.552482],[139.792249,35.552432],[139.792321,35.552365]]}},{"type":"Feature","properties":{"aeroway":"taxiway","surface":"asphalt"},"geometry":{"type":"LineString","coordinates":[[139.790652,35.551576],[139.790626,35.551644],[139.790608,35.551714],[139.790606,35.551786],[139.790612,35.551852],[139.790629,35.551917],[139.790656,35.551977],[139.790693,35.552036],[139.790733,35.55209],[139.790779,35.552141],[139.790832,35.552187],[139.790892,35.552227]]}},{"type":"Feature","properties":{"aeroway":"runway","ref":"16L/34R","name":"\u6771\u4eac\u56fd\u969b\u7a7a\u6e2fC\u6ed1\u8d70\u8def","surface":"asphalt"},"geometry":{"type":"LineString","coordinates":[[139.788676,35.562894],[139.789575,35.561622],[139.790539,35.560267],[139.791081,35.559506],[139.792835,35.557024],[139.793612,35.555925],[139.794165,35.555161],[139.795795,35.55286],[139.796771,35.551481],[139.798681,35.548785],[139.799975,35.546962],[139.800077,35.546817],[139.800539,35.546167],[139.8014,35.544954],[139.802186,35.543849],[139.802933,35.542803],[139.803143,35.542511]]}},{"type":"Feature","properties":{"aeroway":"taxiway","surface":"asphalt"},"geometry":{"type":"LineString","coordinates":[[139.79533,35.548126],[139.795361,35.548054],[139.795381,35.547986],[139.795389,35.547921],[139.795387,35.547858],[139.795375,35.547794],[139.795352,35.547733],[139.795332,35.547683],[139.795292,35.547623],[139.795257,35.54758],[139.795217,35.547536],[139.795173,35.547503],[139.795106,35.547455]]}},{"type":"Feature","properties":{"aeroway":"taxiway","surface":"asphalt"},"geometry":{"type":"LineString","coordinates":[[139.79388,35.55115],[139.793942,35.551168],[139.793998,35.55118],[139.794064,35.551188],[139.794142,35.551188],[139.79422,35.551181],[139.794289,35.551166],[139.794357,35.551142],[139.794422,35.551115],[139.79447,35.551086],[139.794514,35.551048],[139.794558,35.551008]]}},{"type":"Feature","properties":{"aeroway":"taxiway","surface":"asphalt"},"geometry":{"type":"LineString","coordinates":[[139.790091,35.552376],[139.790145,35.552321],[139.790185,35.552291],[139.790251,35.55225],[139.790336,35.552218],[139.790413,35.552198],[139.790493,35.552184],[139.790574,35.552179],[139.790655,35.55218],[139.790736,35.552189],[139.790814,35.552206],[139.790892,35.552227]]}},{"type":"Feature","properties":{"aeroway":"taxiway","surface":"asphalt"},"geometry":{"type":"LineString","coordinates":[[139.793067,35.551317],[139.793094,35.551244],[139.793108,35.551201],[139.793116,35.551144],[139.793116,35.551085],[139.793112,35.551026],[139.793098,35.550972],[139.793077,35.550913],[139.793049,35.550862],[139.793016,35.55081],[139.792977,35.550769],[139.79293,35.550725],[139.792861,35.550666],[139.792847,35.550659]]}},{"type":"Feature","properties":{"aeroway":"taxiway","surface":"asphalt"},"geometry":{"type":"LineString","coordinates":[[139.793806,35.551119],[139.793758,35.551107],[139.793706,35.551092],[139.793648,35.551082],[139.793597,35.551076],[139.793533,35.551074],[139.793455,35.551084],[139.793394,35.551097],[139.793327,35.55112],[139.793266,35.551146],[139.793215,35.551176],[139.793173,35.551209],[139.793131,35.551247],[139.793094,35.551279]]}},{"type":"Feature","properties":{"aeroway":"taxiway","surface":"asphalt"},"geometry":{"type":"LineString","coordinates":[[139.793639,35.550509],[139.793601,35.550593],[139.793582,35.550644],[139.793571,35.550697],[139.79357,35.550762],[139.793574,35.550826],[139.793586,35.550862],[139.793604,35.550907],[139.793629,35.550951],[139.793659,35.550994],[139.793692,35.55103],[139.79373,35.551063],[139.793768,35.551092],[139.793806,35.551119]]}},{"type":"Feature","properties":{"aeroway":"taxiway","ref":"R","surface":"asphalt"},"geometry":{"type":"LineString","coordinates":[[139.789362,35.553409],[139.78949,35.553227],[139.789545,35.553149],[139.789593,35.553081],[139.789646,35.553002],[139.789877,35.552679],[139.789929,35.552605],[139.78999,35.552519],[139.790034,35.552456],[139.790091,35.552376],[139.790316,35.552056],[139.790423,35.551904],[139.790652,35.551576],[139.7907,35.551512],[139.790752,35.551438],[139.79081,35.551353],[139.790857,35.551285],[139.791085,35.550966],[139.791145,35.550884],[139.791195,35.550811],[139.791254,35.550724],[139.79139,35.550536]]}},{"type":"Feature","properties":{"aeroway":"taxiway","ref":"C8","surface":"asphalt"},"geometry":{"type":"LineString","coordinates":[[139.794314,35.55135],[139.794754,35.551571],[139.794794,35.551596],[139.794834,35.551627],[139.794868,35.55166],[139.794904,35.551698],[139.794939,35.551741],[139.794969,35.55179],[139.794992,35.551846],[139.79501,35.55191],[139.795014,35.551965]]}},{"type":"Feature","properties":{"aeroway":"taxiway","ref":"E8","surface":"asphalt"},"geometry":{"type":"LineString","coordinates":[[139.792212,35.550362],[139.792589,35.550539],[139.792709,35.550599],[139.792847,35.550659],[139.792861,35.550666],[139.79336,35.550904],[139.793806,35.551119],[139.79388,35.55115],[139.794314,35.55135]]}},{"type":"Feature","properties":{"aeroway":"taxiway","surface":"asphalt"},"geometry":{"type":"LineString","coordinates":[[139.79139,35.550536],[139.791459,35.550473],[139.791486,35.550453],[139.791535,35.550418],[139.791587,35.550386],[139.791662,35.550357],[139.791734,35.550333],[139.791814,35.550318],[139.791899,35.550312],[139.791995,35.550311],[139.79207,35.550322],[139.792212,35.550362]]}},{"type":"Feature","properties":{"aeroway":"taxiway","surface":"asphalt"},"geometry":{"type":"LineString","coordinates":[[139.796158,35.547955],[139.796222,35.548002],[139.796262,35.548039],[139.796295,35.548078],[139.796324,35.548117],[139.796353,35.548174],[139.796371,35.548231],[139.796384,35.5483],[139.796382,35.548364],[139.796368,35.548427],[139.796339,35.548507]]}},{"type":"Feature","properties":{"aeroway":"taxiway","surface":"asphalt"},"geometry":{"type":"LineString","coordinates":[[139.79589,35.547351],[139.795851,35.547435],[139.795841,35.547496],[139.795839,35.547566],[139.795844,35.547621],[139.795865,35.547684],[139.795896,35.547744],[139.795938,35.547799],[139.795989,35.547849],[139.796034,35.547886],[139.796072,35.547913]]}},{"type":"Feature","properties":{"aeroway":"taxiway","surface":"asphalt"},"geometry":{"type":"LineString","coordinates":[[139.791782,35.553124],[139.791841,35.553069],[139.791911,35.553018],[139.791959,35.552997],[139.792023,35.552971],[139.792084,35.552955],[139.792151,35.552942],[139.792226,35.552936],[139.792302,35.552941],[139.792353,35.552947],[139.79241,35.55296],[139.792468,35.552977]]}},{"type":"Feature","properties":{"aeroway":"taxiway","surface":"asphalt"},"geometry":{"type":"LineString","coordinates":[[139.792274,35.55244],[139.792253,35.552506],[139.79224,35.552549],[139.792236,35.552601],[139.792236,35.552652],[139.792244,35.552693],[139.792259,35.552734],[139.792283,35.552788],[139.79231,35.552831],[139.792344,35.552876],[139.792382,35.552914],[139.792427,35.552948],[139.792468,35.552977]]}},{"type":"Feature","properties":{"aeroway":"taxiway","ref":"E","surface":"asphalt"},"geometry":{"type":"LineString","coordinates":[[139.793639,35.550509],[139.79528,35.548196],[139.79533,35.548126]]}},{"type":"Feature","properties":{"aeroway":"taxiway","ref":"E","surface":"asphalt"},"geometry":{"type":"LineString","coordinates":[[139.791739,35.553186],[139.791782,35.553124],[139.791898,35.552961],[139.792031,35.552772],[139.792274,35.55244],[139.792321,35.552365],[139.792868,35.551597],[139.793067,35.551317],[139.793094,35.551279],[139.79336,35.550904],[139.793639,35.550509]]}},{"type":"Feature","properties":{"aeroway":"taxiway","ref":"H","surface":"asphalt"},"geometry":{"type":"LineString","coordinates":[[139.795106,35.547455],[139.795184,35.547494],[139.795629,35.547704],[139.796072,35.547913],[139.796091,35.547922],[139.796158,35.547955],[139.796589,35.54816],[139.797066,35.548388]]}},{"type":"Feature","properties":{"aeroway":"taxiway","ref":"C","surface":"asphalt"},"geometry":{"type":"LineString","coordinates":[[139.796277,35.548594],[139.795355,35.54989],[139.7946,35.550949]]}},{"type":"Feature","properties":{"aeroway":"taxiway","ref":"C","surface":"asphalt"},"geometry":{"type":"LineString","coordinates":[[139.7946,35.550949],[139.794558,35.551008],[139.794314,35.55135],[139.794071,35.551695],[139.794016,35.551772],[139.793245,35.552867]]}},{"type":"Feature","properties":{"aeroway":"taxiway","ref":"C","surface":"asphalt"},"geometry":{"type":"LineString","coordinates":[[139.793245,35.552867],[139.793045,35.553147],[139.792739,35.553574]]}},{"type":"Feature","properties":{"aeroway":"runway","ref":"34R/16L","surface":"asphalt"},"geometry":{"type":"LineString","coordinates":[[139.805462,35.539232],[139.786232,35.566328]]}},{"type":"Feature","properties":{"aeroway":"terminal","name":"\u7b2c2\u30bf\u30fc\u30df\u30ca\u30eb2\u968e\u56fd\u969b\u7dda\u30c7\u30c3\u30ad"},"geometry":{"type":"Polygon","coordinates":[[[139.789438,35.549254],[139.789456,35.549312],[139.789513,35.549378],[139.789548,35.549396],[139.78967,35.549461],[139.789896,35.549529],[139.790066,35.549541],[139.790103,35.549544],[139.790549,35.548977],[139.790659,35.548837],[139.790664,35.548785],[139.790664,35.548774],[139.79055,35.548637],[139.790459,35.548569],[139.790414,35.548547],[139.790389,35.548527],[139.790355,35.548508],[139.790328,35.548484],[139.79026,35.548457],[139.790166,35.548422],[139.790105,35.548412],[139.790056,35.548424],[139.790006,35.548446],[139.789866,35.548646],[139.789438,35.549254]]]}}]}