{"type":"FeatureCollection","features":[{"type":"Feature","properties":{"aeroway":"taxiway","ref":"H","surface":"asphalt"},"geometry":{"type":"LineString","coordinates":[[139.792047,35.546003],[139.792369,35.546158],[139.792871,35.546397],[139.792993,35.546456],[139.793058,35.546484],[139.79386,35.546867],[139.793928,35.546893],[139.794234,35.547043],[139.794782,35.547305],[139.795106,35.547455]]}},{"type":"Feature","properties":{"aeroway":"taxiway","ref":"R","surface":"asphalt"},"geometry":{"type":"LineString","coordinates":[[139.79386,35.546867],[139.793809,35.546829],[139.793772,35.546797],[139.793734,35.546754],[139.793702,35.546704],[139.79367,35.546648],[139.79365,35.546587],[139.793639,35.546521],[139.793641,35.54645],[139.793656,35.5464],[139.793669,35.546365],[139.793688,35.546315]]}},{"type":"Feature","properties":{"aeroway":"taxiway","ref":"R","surface":"asphalt"},"geometry":{"type":"LineString","coordinates":[[139.797151,35.541416],[139.796779,35.541935],[139.79675,35.541976],[139.796585,35.542208],[139.796386,35.542488],[139.796347,35.54254],[139.796002,35.543029],[139.795946,35.543106],[139.795614,35.543576],[139.795519,35.54371],[139.795367,35.543924],[139.795231,35.544116],[139.795197,35.544164],[139.794866,35.54463],[139.794839,35.544669],[139.79446,35.545203],[139.794286,35.545466],[139.794242,35.54553],[139.79399,35.545884],[139.79375,35.546227],[139.793688,35.546315]]}},{"type":"Feature","properties":{"aeroway":"taxiway","surface":"asphalt"},"geometry":{"type":"LineString","coordinates":[[139.794497,35.546125],[139.794433,35.546078],[139.79438,35.546028],[139.794334,35.545973],[139.794296,35.545915],[139.794266,35.545848],[139.794243,35.545773],[139.794237,35.545705],[139.794239,35.545634],[139.794247,35.545576],[139.794264,35.545527],[139.794286,35.545466]]}},{"type":"Feature","properties":{"aeroway":"taxiway","ref":"H1","surface":"asphalt"},"geometry":{"type":"LineString","coordinates":[[139.788906,35.544518],[139.788829,35.544456],[139.788773,35.544403],[139.788728,35.544335],[139.788699,35.544264],[139.788678,35.544202],[139.788676,35.544138],[139.788681,35.544084],[139.788698,35.544036],[139.788719,35.543985],[139.788754,35.543921],[139.788807,35.543859],[139.788839,35.543826],[139.788896,35.543784],[139.788968,35.543752],[139.789037,35.543726],[139.789112,35.543709],[139.789194,35.5437],[139.78928,35.543702],[139.789362,35.543712],[139.789438,35.543728]]}},{"type":"Feature","properties":{"aeroway":"taxiway","surface":"asphalt"},"geometry":{"type":"LineString","coordinates":[[139.793536,35.545666],[139.793617,35.545694],[139.793676,35.545707],[139.793739,35.545716],[139.793823,35.545715],[139.793899,35.545707],[139.793971,35.545692],[139.794047,35.545668],[139.794114,35.545635],[139.794172,35.545593],[139.794242,35.54553]]}},{"type":"Feature","properties":{"aeroway":"taxiway","ref":"R","surface":"asphalt"},"geometry":{"type":"LineString","coordinates":[[139.792993,35.546456],[139.793055,35.546473],[139.793116,35.546486],[139.793189,35.546496],[139.793268,35.546497],[139.793347,35.546489],[139.793426,35.546473],[139.793489,35.546452],[139.793559,35.546417],[139.793607,35.546387],[139.793641,35.546357],[139.793688,35.546315]]}},{"type":"Feature","properties":{"aeroway":"taxiway","surface":"asphalt"},"geometry":{"type":"LineString","coordinates":[[139.795636,35.546663],[139.795702,35.546688],[139.795773,35.546707],[139.795847,35.546718],[139.795922,35.546723],[139.796006,35.546723],[139.796077,35.546714],[139.796152,35.546698],[139.796228,35.546675],[139.796299,35.546643],[139.796365,35.546603],[139.796412,35.546567],[139.796445,35.546537],[139.796477,35.546504]]}},{"type":"Feature","properties":{"aeroway":"taxiway","surface":"asphalt"},"geometry":{"type":"LineString","coordinates":[[139.795759,35.546725],[139.795815,35.546764],[139.795866,35.546806],[139.795909,35.546854],[139.795943,35.546907],[139.795969,35.546963],[139.795984,35.547021],[139.79599,35.54708],[139.795986,35.54714],[139.795971,35.547202],[139.795952,35.547248],[139.795937,35.547284]]}},{"type":"Feature","properties":{"aeroway":"taxiway","surface":"asphalt"},"geometry":{"type":"LineString","coordinates":[[139.79661,35.547131],[139.796559,35.547115],[139.796509,35.547105],[139.796448,35.547096],[139.79637,35.547094],[139.796295,35.547096],[139.796226,35.54711],[139.796147,35.547134],[139.796075,35.547171],[139.796014,35.547214],[139.795965,35.547253],[139.795937,35.547284]]}},{"type":"Feature","properties":{"aeroway":"taxiway","ref":"H1","surface":"asphalt"},"geometry":{"type":"LineString","coordinates":[[139.788595,35.543328],[139.788701,35.543408],[139.788739,35.54345],[139.788776,35.543502],[139.788801,35.543554],[139.78882,35.543613],[139.788829,35.543665],[139.78883,35.543718],[139.788821,35.543763],[139.78881,35.543808],[139.788788,35.543862],[139.788754,35.543921],[139.788711,35.543975],[139.788662,35.544018],[139.788606,35.544056],[139.788556,35.544085],[139.788492,35.544112],[139.78843,35.544128],[139.788351,35.544144],[139.788279,35.544146],[139.788201,35.544143],[139.788134,35.544131],[139.788057,35.544111]]}},{"type":"Feature","properties":{"aeroway":"taxiway","ref":"H2","surface":"asphalt"},"geometry":{"type":"LineString","coordinates":[[139.792047,35.546003],[139.792119,35.54602],[139.792203,35.546033],[139.792286,35.546033],[139.792362,35.546026],[139.792432,35.546011],[139.792511,35.545987],[139.79257,35.545957],[139.792632,35.545915],[139.792678,35.545873],[139.792734,35.54581],[139.792775,35.545739],[139.792798,35.545687],[139.79281,35.545623],[139.79281,35.545564],[139.792802,35.545501],[139.79278,35.545441],[139.792747,35.545377],[139.792703,35.545322],[139.792648,35.545263],[139.792575,35.545214]]}},{"type":"Feature","properties":{"aeroway":"taxiway","surface":"asphalt"},"geometry":{"type":"LineString","coordinates":[[139.79375,35.546227],[139.7938,35.546186],[139.79385,35.546148],[139.79391,35.546113],[139.793986,35.546082],[139.794058,35.546063],[139.794127,35.546052],[139.794192,35.546049],[139.794261,35.546052],[139.794322,35.546059],[139.794402,35.546081]]}},{"type":"Feature","properties":{"aeroway":"taxiway","surface":"asphalt"},"geometry":{"type":"LineString","coordinates":[[139.79375,35.546227],[139.793764,35.546184],[139.793775,35.546154],[139.793786,35.546093],[139.793787,35.546033],[139.793784,35.545986],[139.793774,35.545942],[139.793752,35.545884],[139.793722,35.54583],[139.793683,35.545779],[139.793636,35.545733],[139.793576,35.545687]]}},{"type":"Feature","properties":{"aeroway":"taxiway","ref":"H2","surface":"asphalt"},"geometry":{"type":"LineString","coordinates":[[139.793414,35.545609],[139.793345,35.545594],[139.793266,35.545584],[139.793189,35.545585],[139.793104,35.545591],[139.793012,35.545614],[139.792936,35.545645],[139.792876,35.545676],[139.79282,35.545717],[139.792783,35.545748],[139.792734,35.54581],[139.792699,35.545874],[139.792675,35.545928],[139.792662,35.545985],[139.79266,35.546057],[139.792668,35.546123],[139.79269,35.54619],[139.792725,35.546254],[139.792766,35.546301],[139.792816,35.546351],[139.792871,35.546397]]}},{"type":"Feature","properties":{"aeroway":"taxiway","surface":"asphalt"},"geometry":{"type":"LineString","coordinates":[[139.79589,35.547351],[139.795832,35.547405],[139.795762,35.547452],[139.795692,35.547487],[139.795613,35.547516],[139.795539,35.54753],[139.795453,35.547538],[139.795376,35.547538],[139.795301,35.547526],[139.795228,35.547507],[139.795184,35.547494]]}},{"type":"Feature","properties":{"aeroway":"taxiway","ref":"E","surface":"asphalt"},"geometry":{"type":"LineString","coordinates":[[139.79533,35.548126],[139.79537,35.548073],[139.795629,35.547704],[139.79589,35.547351],[139.795937,35.547284],[139.796187,35.546927],[139.796436,35.546569],[139.796477,35.546504],[139.79685,35.54598],[139.797224,35.545456]]}},{"type":"Feature","properties":{"aeroway":"taxiway","ref":"G","surface":"asphalt"},"geometry":{"type":"LineString","coordinates":[[139.789438,35.543728],[139.792575,35.545214],[139.793414,35.545609],[139.793536,35.545666]]}},{"type":"Feature","properties":{"aeroway":"taxiway","ref":"G","surface":"asphalt"},"geometry":{"type":"LineString","coordinates":[[139.793536,35.545666],[139.793576,35.545687],[139.79399,35.545884],[139.794402,35.546081],[139.794497,35.546125],[139.795636,35.546663]]}},{"type":"Feature","properties":{"aeroway":"taxiway","ref":"G","surface":"asphalt"},"geometry":{"type":"LineString","coordinates":[[139.795636,35.546663],[139.795759,35.546725],[139.796187,35.546927],[139.79661,35.547131],[139.796648,35.547149],[139.796704,35.547176],[139.797136,35.547379]]}},{"type":"Feature","properties":{"aeroway":"taxiway","ref":"H","surface":"asphalt"},"geometry":{"type":"LineString","coordinates":[[139.788057,35.544111],[139.788625,35.544382],[139.788906,35.544518],[139.78909,35.544604],[139.792047,35.546003]]}}]}