{"type":"FeatureCollection","features":[{"type":"Feature","properties":{"aeroway":"runway","ref":"04/22","name":"\u6771\u4eac\u56fd\u969b\u7a7a\u6e2fB\u6ed1\u8d70\u8def","surface":"asphalt"},"geometry":{"type":"LineString","coordinates":[[139.761264,35.549002],[139.761662,35.54946],[139.761708,35.549519],[139.761773,35.549603],[139.762066,35.549936],[139.762294,35.550201],[139.762416,35.550344],[139.763167,35.551219],[139.764039,35.552234],[139.764888,35.553223],[139.765229,35.553621],[139.765442,35.553868],[139.765568,35.55402],[139.766888,35.555559],[139.76718,35.5559],[139.767696,35.556494],[139.768035,35.556889],[139.768355,35.557268],[139.768981,35.557994],[139.769379,35.558454],[139.769798,35.558948],[139.770136,35.559346],[139.770418,35.559664],[139.770672,35.55996],[139.771004,35.560351],[139.7712,35.560575],[139.77138,35.560783],[139.771413,35.560823],[139.771588,35.561028],[139.771722,35.561198],[139.771894,35.561383],[139.772103,35.56163],[139.772196,35.561736],[139.772428,35.562006],[139.772526,35.56212],[139.773244,35.562959],[139.773771,35.56357],[139.774315,35.564219],[139.774852,35.564829],[139.776048,35.566222],[139.776384,35.566614],[139.776677,35.566955],[139.777063,35.567404]]}},{"type":"Feature","properties":{"aeroway":"taxiway","ref":"B6","surface":"asphalt"},"geometry":{"type":"LineString","coordinates":[[139.76718,35.5559],[139.767158,35.555867],[139.766997,35.555632],[139.76694,35.555529],[139.766883,35.555427],[139.766696,35.555079],[139.766545,35.554729],[139.766414,35.554341],[139.766201,35.553366],[139.766191,35.553321],[139.766141,35.553096]]}},{"type":"Feature","properties":{"aeroway":"taxiway","ref":"B7","surface":"asphalt"},"geometry":{"type":"LineString","coordinates":[[139.770197,35.556272],[139.770118,35.556204],[139.770038,35.556151],[139.769931,35.556107],[139.769824,35.556078],[139.769745,35.556066],[139.769644,35.556067],[139.769552,35.556072],[139.769466,35.55609],[139.769353,35.556129],[139.76928,35.55617],[139.769243,35.556192]]}},{"type":"Feature","properties":{"aeroway":"taxiway","ref":"L15","surface":"asphalt"},"geometry":{"type":"LineString","coordinates":[[139.769622,35.555606],[139.769835,35.555854],[139.770197,35.556272],[139.77041,35.556527],[139.770435,35.556557],[139.771017,35.557235]]}},{"type":"Feature","properties":{"aeroway":"taxiway","surface":"asphalt"},"geometry":{"type":"LineString","coordinates":[[139.770136,35.559346],[139.769772,35.558985],[139.769576,35.558807],[139.769424,35.558679],[139.769155,35.558477],[139.768926,35.558318],[139.768627,35.55813],[139.768435,35.558019],[139.768237,35.557916],[139.768015,35.55781],[139.767801,35.557718],[139.767424,35.557564]]}},{"type":"Feature","properties":{"aeroway":"taxiway","ref":"B8","surface":"asphalt"},"geometry":{"type":"LineString","coordinates":[[139.769011,35.556647],[139.76904,35.5569],[139.769082,35.557164],[139.76914,35.557393],[139.769202,35.557617],[139.769283,35.557854],[139.769371,35.558078],[139.769506,35.558355],[139.769681,35.558677],[139.76983,35.558903],[139.7701,35.559294],[139.770136,35.559346]]}},{"type":"Feature","properties":{"aeroway":"taxiway","ref":"L16","surface":"asphalt"},"geometry":{"type":"LineString","coordinates":[[139.768856,35.560837],[139.768085,35.55994],[139.768052,35.559897],[139.767638,35.559416],[139.766657,35.558276],[139.766603,35.558213],[139.76631,35.557871]]}},{"type":"Feature","properties":{"aeroway":"taxiway","surface":"asphalt"},"geometry":{"type":"LineString","coordinates":[[139.765967,35.557608],[139.766055,35.557656],[139.766141,35.557688],[139.76623,35.557708],[139.766316,35.557719],[139.766403,35.557719],[139.766496,35.557711],[139.766577,35.557694],[139.76667,35.557662],[139.766761,35.557619]]}},{"type":"Feature","properties":{"aeroway":"taxiway","surface":"asphalt"},"geometry":{"type":"LineString","coordinates":[[139.765726,35.557427],[139.765793,35.557488],[139.765848,35.557557],[139.76589,35.557632],[139.765917,35.557711],[139.765929,35.557792],[139.765926,35.557875],[139.765908,35.557955],[139.765875,35.558033],[139.765828,35.558106],[139.765768,35.558172],[139.765696,35.55823]]}},{"type":"Feature","properties":{"aeroway":"taxiway","surface":"asphalt"},"geometry":{"type":"LineString","coordinates":[[139.766603,35.558213],[139.766572,35.558158],[139.766548,35.558101],[139.766535,35.558041],[139.766531,35.557981],[139.766537,35.557921],[139.766552,35.557862],[139.766577,35.557805],[139.766611,35.557752],[139.766654,35.557702],[139.766704,35.557658],[139.766761,35.557619]]}},{"type":"Feature","properties":{"aeroway":"taxiway","surface":"asphalt"},"geometry":{"type":"LineString","coordinates":[[139.765839,35.558148],[139.765921,35.558118],[139.766008,35.558097],[139.766097,35.558086],[139.766187,35.558084],[139.766276,35.558093],[139.766363,35.558112],[139.766446,35.55814],[139.766524,35.558177],[139.766595,35.558223],[139.766657,35.558276]]}},{"type":"Feature","properties":{"aeroway":"taxiway","ref":"T","surface":"asphalt"},"geometry":{"type":"LineString","coordinates":[[139.763192,35.555492],[139.763279,35.555564],[139.763403,35.555658],[139.763915,35.556047],[139.764094,35.556182],[139.764289,35.556328],[139.765726,35.557427],[139.765967,35.557608],[139.76631,35.557871]]}},{"type":"Feature","properties":{"aeroway":"taxiway","ref":"L14","surface":"asphalt"},"geometry":{"type":"LineString","coordinates":[[139.770496,35.555052],[139.770564,35.555113],[139.770643,35.555165],[139.770731,35.555207],[139.770826,35.555237],[139.770925,35.555254],[139.771027,35.555259],[139.771128,35.55525],[139.771226,35.555229],[139.771325,35.555192]]}},{"type":"Feature","properties":{"aeroway":"taxiway","surface":"asphalt"},"geometry":{"type":"LineString","coordinates":[[139.769408,35.554102],[139.769353,35.554155],[139.769296,35.554203],[139.76923,35.554242],[139.769164,35.554271],[139.769092,35.554295],[139.769017,35.554313],[139.768953,35.554323],[139.768884,35.554327],[139.768807,35.554325],[139.76872,35.554313],[139.768649,35.554295],[139.768574,35.55427],[139.768494,35.554233],[139.768428,35.554189],[139.768395,35.554162],[139.76835,35.554119]]}},{"type":"Feature","properties":{"aeroway":"taxiway","ref":"L14","surface":"asphalt"},"geometry":{"type":"LineString","coordinates":[[139.770822,35.555429],[139.770753,35.555366],[139.770675,35.555311],[139.770588,35.555266],[139.770493,35.555233],[139.770392,35.555212],[139.770289,35.555205],[139.770186,35.555211],[139.770086,35.55523],[139.76999,35.555261],[139.769901,35.555305],[139.769822,35.555359],[139.769784,35.555393],[139.769755,35.555423]]}},{"type":"Feature","properties":{"aeroway":"taxiway","surface":"asphalt"},"geometry":{"type":"LineString","coordinates":[[139.769092,35.55456],[139.769068,35.554615],[139.769053,35.554667],[139.769046,35.554725],[139.769044,35.554786],[139.769048,35.554837],[139.769058,35.554883],[139.769079,35.554944],[139.769107,35.554994],[139.769143,35.555051]]}},{"type":"Feature","properties":{"aeroway":"taxiway","surface":"asphalt"},"geometry":{"type":"LineString","coordinates":[[139.770135,35.554889],[139.770063,35.554962],[139.769994,35.555015],[139.769911,35.555063],[139.769836,35.555096],[139.769743,35.555123],[139.769652,35.555137],[139.769564,35.555142],[139.76947,35.555138],[139.769391,35.555123],[139.769316,35.555101],[139.769237,35.555068],[139.76917,35.555032],[139.769107,35.554994],[139.769055,35.554948]]}},{"type":"Feature","properties":{"aeroway":"taxiway","ref":"T5B","surface":"asphalt"},"geometry":{"type":"LineString","coordinates":[[139.76329,35.554733],[139.76323,35.554779],[139.763177,35.55483],[139.763133,35.554887],[139.763106,35.554927],[139.763082,35.554978],[139.763061,35.555037],[139.76305,35.555102],[139.763048,35.555177],[139.763053,35.555224],[139.763067,35.555282],[139.76309,35.555343],[139.763119,35.555394],[139.763147,35.555441]]}},{"type":"Feature","properties":{"aeroway":"taxiway","ref":"L13","surface":"asphalt"},"geometry":{"type":"LineString","coordinates":[[139.769548,35.55552],[139.769635,35.555587],[139.76969,35.55562],[139.769749,35.555649],[139.769833,35.555679],[139.769915,35.555698],[139.770011,35.555708],[139.770105,35.555708],[139.770192,35.555702],[139.770301,35.555675],[139.770392,35.555636],[139.770822,35.555429],[139.771325,35.555192]]}},{"type":"Feature","properties":{"aeroway":"taxiway","ref":"L14","surface":"asphalt"},"geometry":{"type":"LineString","coordinates":[[139.770496,35.555052],[139.770444,35.554992],[139.770403,35.554927],[139.770374,35.554858],[139.770356,35.554787],[139.770351,35.554714],[139.770358,35.554641],[139.770378,35.55457],[139.770416,35.554484]]}},{"type":"Feature","properties":{"aeroway":"taxiway","surface":"asphalt"},"geometry":{"type":"LineString","coordinates":[[139.769809,35.555347],[139.769784,35.555393],[139.76976,35.555455],[139.76975,35.555504],[139.769745,35.555555],[139.769744,35.555604],[139.769749,35.555649],[139.769759,35.555695],[139.769775,35.555742],[139.769794,35.555786],[139.769835,35.555854]]}},{"type":"Feature","properties":{"aeroway":"taxiway","surface":"asphalt"},"geometry":{"type":"LineString","coordinates":[[139.767424,35.557564],[139.767339,35.557535],[139.767261,35.557515],[139.76718,35.557504],[139.767099,35.557504],[139.767018,35.557512],[139.76694,35.557531],[139.766866,35.557559]]}},{"type":"Feature","properties":{"aeroway":"taxiway","ref":"T6","surface":"asphalt"},"geometry":{"type":"LineString","coordinates":[[139.765445,35.554687],[139.764651,35.554306],[139.764584,35.554275],[139.764306,35.554146],[139.763557,35.553795],[139.763022,35.553545]]}},{"type":"Feature","properties":{"aeroway":"taxiway","surface":"asphalt"},"geometry":{"type":"LineString","coordinates":[[139.76718,35.5559],[139.766928,35.555672],[139.766835,35.555588],[139.766736,35.555499],[139.766415,35.555255],[139.766198,35.555104],[139.765974,35.554964],[139.765729,35.554826],[139.765445,35.554687]]}},{"type":"Feature","properties":{"aeroway":"taxiway","surface":"asphalt"},"geometry":{"type":"LineString","coordinates":[[139.764739,35.553903],[139.764808,35.553876],[139.764889,35.553853],[139.764965,35.553838],[139.765034,35.553835],[139.765124,35.553837],[139.7652,35.553846],[139.76527,35.553862],[139.765349,35.553888],[139.76541,35.553914],[139.765487,35.553958],[139.765568,35.55402]]}},{"type":"Feature","properties":{"aeroway":"taxiway","surface":"asphalt"},"geometry":{"type":"LineString","coordinates":[[139.767696,35.556494],[139.767736,35.55653],[139.767786,35.556562],[139.767833,35.556591],[139.767886,35.556616],[139.767943,35.556637],[139.768002,35.556653],[139.768063,35.556666],[139.768125,35.556673],[139.768193,35.556675],[139.768262,35.556674],[139.768327,35.556666],[139.768392,35.55665],[139.768451,35.556633],[139.768504,35.556612],[139.76856,35.556586]]}},{"type":"Feature","properties":{"aeroway":"taxiway","surface":"asphalt"},"geometry":{"type":"LineString","coordinates":[[139.76856,35.556586],[139.768502,35.556628],[139.76845,35.556672],[139.768404,35.55672],[139.768365,35.556772],[139.768333,35.556828],[139.768316,35.556872],[139.768302,35.556923],[139.768293,35.556972],[139.768291,35.557032],[139.768293,35.557084],[139.768306,35.557144],[139.768324,35.557196],[139.76835,35.557256],[139.768355,35.557268]]}},{"type":"Feature","properties":{"aeroway":"taxiway","surface":"asphalt"},"geometry":{"type":"LineString","coordinates":[[139.767543,35.55717],[139.767585,35.557133],[139.76763,35.557091],[139.767669,35.557044],[139.767704,35.556993],[139.76773,35.556944],[139.767747,35.556898],[139.767759,35.556854],[139.767765,35.556804],[139.76777,35.55674],[139.767761,35.556663],[139.767742,35.556594],[139.76772,35.556549],[139.767696,35.556494]]}},{"type":"Feature","properties":{"aeroway":"taxiway","surface":"asphalt"},"geometry":{"type":"LineString","coordinates":[[139.768355,35.557268],[139.768282,35.557215],[139.768233,35.557188],[139.76818,35.557163],[139.768126,35.557143],[139.768069,35.557127],[139.768011,35.557114],[139.767952,35.557106],[139.767892,35.557103],[139.767832,35.557103],[139.767772,35.557108],[139.767713,35.557118],[139.767655,35.557131],[139.767599,35.557148],[139.767543,35.55717]]}},{"type":"Feature","properties":{"aeroway":"taxiway","surface":"asphalt"},"geometry":{"type":"LineString","coordinates":[[139.769438,35.55586],[139.769469,35.555803],[139.769488,35.555748],[139.769498,35.555698],[139.769502,35.55565],[139.769502,35.555589],[139.769494,35.555539],[139.769478,35.555488],[139.769452,35.555429],[139.769416,35.555365]]}},{"type":"Feature","properties":{"aeroway":"taxiway","surface":"asphalt"},"geometry":{"type":"LineString","coordinates":[[139.770499,35.557959],[139.770546,35.557905],[139.770598,35.557854],[139.770658,35.55781],[139.770725,35.557772],[139.770796,35.557741],[139.770872,35.557717],[139.770951,35.557701],[139.771031,35.557693],[139.771112,35.557693],[139.771193,35.557702],[139.771272,35.557719],[139.771347,35.557743],[139.771418,35.557775],[139.771484,35.557814],[139.771568,35.557874]]}},{"type":"Feature","properties":{"aeroway":"taxiway","ref":"B7","surface":"asphalt"},"geometry":{"type":"LineString","coordinates":[[139.769091,35.556276],[139.769143,35.556237],[139.769175,35.556209],[139.769216,35.55617],[139.769438,35.55586],[139.769622,35.555606]]}},{"type":"Feature","properties":{"aeroway":"taxiway","surface":"asphalt"},"geometry":{"type":"LineString","coordinates":[[139.771235,35.55749],[139.771205,35.557441],[139.77118,35.557392],[139.771161,35.55734],[139.771148,35.557288],[139.771141,35.557234],[139.771141,35.55718],[139.771147,35.557127],[139.77116,35.557074],[139.771178,35.557027],[139.771212,35.556959]]}},{"type":"Feature","properties":{"aeroway":"taxiway","surface":"asphalt"},"geometry":{"type":"LineString","coordinates":[[139.770435,35.556557],[139.770497,35.556612],[139.770567,35.556661],[139.770645,35.556701],[139.770728,35.556732],[139.770817,35.556754],[139.770908,35.556765],[139.771,35.556766],[139.771091,35.556757],[139.77118,35.556738],[139.771277,35.556709],[139.771332,35.556678],[139.771384,35.556645],[139.771436,35.556602],[139.771474,35.556563],[139.771538,35.556498]]}},{"type":"Feature","properties":{"aeroway":"taxiway","ref":"B7","surface":"asphalt"},"geometry":{"type":"LineString","coordinates":[[139.769091,35.556276],[139.768865,35.556408],[139.768718,35.556493],[139.76856,35.556586],[139.768035,35.556889]]}},{"type":"Feature","properties":{"aeroway":"taxiway","ref":"T7","surface":"asphalt"},"geometry":{"type":"LineString","coordinates":[[139.768035,35.556889],[139.767543,35.55717],[139.76734,35.557288],[139.766866,35.557559],[139.766828,35.557581],[139.766761,35.557619],[139.76631,35.557871]]}},{"type":"Feature","properties":{"aeroway":"taxiway","ref":"L","surface":"asphalt"},"geometry":{"type":"LineString","coordinates":[[139.769216,35.55617],[139.769173,35.556233]]}},{"type":"Feature","properties":{"aeroway":"taxiway","ref":"L14","surface":"asphalt"},"geometry":{"type":"LineString","coordinates":[[139.771632,35.556368],[139.771371,35.556068],[139.771039,35.555687],[139.771016,35.55566],[139.770822,35.555429],[139.770496,35.555052]]}},{"type":"Feature","properties":{"aeroway":"taxiway","ref":"T5","surface":"asphalt"},"geometry":{"type":"LineString","coordinates":[[139.765229,35.553621],[139.76518,35.55365],[139.764739,35.553903],[139.76453,35.554016],[139.764306,35.554146],[139.764056,35.554294],[139.764011,35.55432],[139.76329,35.554733]]}},{"type":"Feature","properties":{"aeroway":"taxiway","surface":"asphalt"},"geometry":{"type":"LineString","coordinates":[[139.764651,35.554306],[139.76458,35.554283],[139.764516,35.554265],[139.764446,35.554254],[139.764385,35.554249],[139.7643,35.554247],[139.764231,35.554253],[139.76417,35.554265],[139.764115,35.554279],[139.764056,35.554294]]}},{"type":"Feature","properties":{"aeroway":"taxiway","ref":"L","surface":"asphalt"},"geometry":{"type":"LineString","coordinates":[[139.770747,35.554011],[139.770416,35.554484],[139.770376,35.554542],[139.770135,35.554889],[139.769809,35.555347],[139.769755,35.555423],[139.769635,35.555587],[139.769622,35.555606]]}},{"type":"Feature","properties":{"aeroway":"taxiway","ref":"B","surface":"asphalt"},"geometry":{"type":"LineString","coordinates":[[139.76835,35.554119],[139.769055,35.554948],[139.769143,35.555051],[139.769416,35.555365],[139.769548,35.55552],[139.769622,35.555606]]}},{"type":"Feature","properties":{"aeroway":"taxiway","surface":"asphalt"},"geometry":{"type":"LineString","coordinates":[[139.764094,35.556182],[139.764024,35.55614],[139.763978,35.55612],[139.763919,35.556098],[139.763853,35.556078],[139.763801,35.556069],[139.763741,35.556062],[139.763685,35.55606],[139.763625,35.556061],[139.76356,35.556065],[139.763497,35.556077],[139.763432,35.556095],[139.763364,35.556121],[139.763268,35.55617]]}},{"type":"Feature","properties":{"aeroway":"taxiway","surface":"asphalt"},"geometry":{"type":"LineString","coordinates":[[139.763114,35.556261],[139.763168,35.556214],[139.763209,35.556176],[139.763244,35.556135],[139.763271,35.556096],[139.763295,35.556054],[139.763311,35.556019],[139.763329,35.555975],[139.76334,35.555934],[139.763346,35.555887],[139.76335,35.555838],[139.763344,35.555792],[139.763332,35.555732],[139.76332,35.555692],[139.763296,35.555637],[139.763275,35.555597],[139.763252,35.555564],[139.763226,35.555529],[139.763192,35.555492]]}},{"type":"Feature","properties":{"aeroway":"taxiway","ref":"T6","surface":"asphalt"},"geometry":{"type":"LineString","coordinates":[[139.76631,35.557871],[139.765839,35.558148],[139.765696,35.55823],[139.763504,35.559494]]}},{"type":"Feature","properties":{"aeroway":"taxiway","surface":"asphalt"},"geometry":{"type":"LineString","coordinates":[[139.769173,35.556233],[139.769091,35.556276]]}},{"type":"Feature","properties":{"aeroway":"taxiway","surface":"asphalt"},"geometry":{"type":"LineString","coordinates":[[139.769243,35.556192],[139.769173,35.556233],[139.769123,35.556299]]}},{"type":"Feature","properties":{"aeroway":"taxiway","ref":"B7","surface":"asphalt"},"geometry":{"type":"LineString","coordinates":[[139.769123,35.556299],[139.769097,35.556333],[139.769058,35.556399],[139.769034,35.556459],[139.76902,35.55651],[139.769011,35.556575],[139.76901,35.556583],[139.769011,35.556647]]}},{"type":"Feature","properties":{"aeroway":"taxiway","ref":"B7","surface":"asphalt"},"geometry":{"type":"LineString","coordinates":[[139.769243,35.556192],[139.769188,35.556236],[139.769157,35.556267],[139.769123,35.556299]]}},{"type":"Feature","properties":{"aeroway":"runway","ref":"04/22","surface":"asphalt"},"geometry":{"type":"LineString","coordinates":[[139.777491,35.567903],[139.776677,35.566955],[139.776048,35.566222],[139.774852,35.564829],[139.77429,35.564174],[139.773771,35.56357],[139.772526,35.56212],[139.772196,35.561736],[139.772096,35.56162],[139.7719,35.561391],[139.771894,35.561383],[139.771588,35.561028],[139.771413,35.560823],[139.7712,35.560575],[139.770672,35.55996],[139.770418,35.559664],[139.7701,35.559294],[139.769798,35.558948],[139.768981,35.557994],[139.76835,35.557256],[139.768035,35.556889],[139.767696,35.556494],[139.767158,35.555867],[139.766888,35.555559],[139.765559,35.554004],[139.765442,35.553868],[139.765229,35.553621],[139.764888,35.553223],[139.764039,35.552234],[139.762416,35.550344],[139.761794,35.54962],[139.761708,35.549519],[139.761651,35.549452],[139.761264,35.549002],[139.760889,35.548565]]}}]}