{"type":"FeatureCollection","features":[{"type":"Feature","properties":{"aeroway":"taxiway","surface":"asphalt"},"geometry":{"type":"LineString","coordinates":[[139.796277,35.548594],[139.796323,35.548543],[139.79637,35.548502],[139.796427,35.548463],[139.796489,35.548429],[139.796555,35.5484],[139.796625,35.548378],[139.796698,35.548363],[139.796772,35.548354],[139.796847,35.548352],[139.796922,35.548356],[139.796995,35.548368],[139.797066,35.548388],[139.797154,35.548423],[139.797234,35.548468],[139.797306,35.548522],[139.797367,35.548584],[139.797417,35.548652],[139.797446,35.54871],[139.797469,35.548791],[139.797482,35.548875]]}},{"type":"Feature","properties":{"aeroway":"taxiway","ref":"C7","surface":"asphalt"},"geometry":{"type":"LineString","coordinates":[[139.797136,35.547379],[139.797207,35.547412],[139.797272,35.547456],[139.797331,35.547505],[139.797366,35.547545],[139.797415,35.547612],[139.797446,35.547669],[139.797463,35.547717],[139.797477,35.547782],[139.797485,35.547842],[139.797482,35.548698],[139.797482,35.548875],[139.797481,35.548924],[139.797477,35.549146],[139.797463,35.549398],[139.797439,35.549624],[139.79739,35.549896],[139.797343,35.550103],[139.797285,35.550312],[139.797219,35.550504],[139.797135,35.550739],[139.797005,35.551022],[139.796771,35.551481]]}},{"type":"Feature","properties":{"aeroway":"taxiway","surface":"asphalt"},"geometry":{"type":"LineString","coordinates":[[139.796158,35.547955],[139.796215,35.547972],[139.796275,35.547984],[139.796356,35.54799],[139.796442,35.547989],[139.796512,35.54798],[139.796594,35.547956],[139.796665,35.547926],[139.796726,35.547893],[139.796782,35.547851],[139.796835,35.5478]]}},{"type":"Feature","properties":{"aeroway":"taxiway","ref":"C","surface":"asphalt"},"geometry":{"type":"LineString","coordinates":[[139.797372,35.547036],[139.797136,35.547379],[139.796882,35.547733],[139.796835,35.5478],[139.796589,35.54816],[139.796339,35.548507],[139.796277,35.548594]]}}]}