{"type":"FeatureCollection","features":[{"type":"Feature","properties":{"aeroway":"taxiway","ref":"R","surface":"asphalt"},"geometry":{"type":"LineString","coordinates":[[139.779348,35.566004],[139.779787,35.565751],[139.779956,35.565658],[139.780265,35.565482],[139.780584,35.565301],[139.780719,35.565223]]}},{"type":"Feature","properties":{"aeroway":"taxiway","ref":"K","surface":"asphalt"},"geometry":{"type":"LineString","coordinates":[[139.784722,35.56487],[139.784276,35.564661],[139.784197,35.564623],[139.784134,35.564594],[139.783313,35.564208],[139.78248,35.563813],[139.782417,35.563782],[139.781984,35.563574],[139.781524,35.563357],[139.78144,35.563319]]}},{"type":"Feature","properties":{"aeroway":"taxiway","ref":"Y","surface":"asphalt"},"geometry":{"type":"LineString","coordinates":[[139.779753,35.564912],[139.78018,35.565113],[139.780584,35.565301],[139.780921,35.565469],[139.781203,35.565593],[139.781217,35.565603],[139.782269,35.566105]]}},{"type":"Feature","properties":{"aeroway":"taxiway","surface":"asphalt"},"geometry":{"type":"LineString","coordinates":[[139.784013,35.564067],[139.78398,35.5641],[139.783936,35.564138],[139.783883,35.564173],[139.783822,35.564206],[139.783749,35.564233],[139.783686,35.564246],[139.783617,35.564256],[139.783537,35.564255],[139.783458,35.564244],[139.783394,35.564229],[139.783313,35.564208]]}},{"type":"Feature","properties":{"aeroway":"taxiway","surface":"asphalt"},"geometry":{"type":"LineString","coordinates":[[139.784013,35.564067],[139.783997,35.564111],[139.783979,35.564158],[139.783969,35.564211],[139.783966,35.564267],[139.783971,35.56432],[139.783985,35.564379],[139.784007,35.564433],[139.784042,35.564484],[139.784077,35.564529],[139.784123,35.564569],[139.784197,35.564623]]}},{"type":"Feature","properties":{"aeroway":"taxiway","surface":"asphalt"},"geometry":{"type":"LineString","coordinates":[[139.785522,35.563742],[139.785502,35.563797],[139.785488,35.563837],[139.78548,35.563885],[139.785475,35.563942],[139.785482,35.563996],[139.785493,35.564041],[139.785513,35.564086],[139.785536,35.564134],[139.78557,35.56418],[139.785607,35.564221],[139.785644,35.564257],[139.785702,35.564297]]}},{"type":"Feature","properties":{"aeroway":"taxiway","surface":"asphalt"},"geometry":{"type":"LineString","coordinates":[[139.785702,35.564297],[139.785632,35.564277],[139.785572,35.564267],[139.7855,35.56426],[139.785425,35.564262],[139.785354,35.564269],[139.785294,35.564284],[139.78523,35.564306],[139.785172,35.564333],[139.785134,35.564356],[139.785093,35.564381],[139.785053,35.564417],[139.785018,35.564452]]}},{"type":"Feature","properties":{"aeroway":"taxiway","surface":"asphalt"},"geometry":{"type":"LineString","coordinates":[[139.784619,35.563218],[139.784557,35.563278],[139.784514,35.563306],[139.784467,35.563339],[139.784407,35.563371],[139.784348,35.563396],[139.784279,35.563417],[139.784216,35.56343],[139.78415,35.563438],[139.784081,35.563441],[139.784002,35.563436],[139.783926,35.563424],[139.783858,35.563411],[139.783788,35.563387]]}},{"type":"Feature","properties":{"aeroway":"taxiway","surface":"asphalt"},"geometry":{"type":"LineString","coordinates":[[139.78458,35.563273],[139.784554,35.563328],[139.784533,35.563379],[139.784523,35.563426],[139.784522,35.563482],[139.784524,35.56354],[139.784537,35.563592],[139.784559,35.563634],[139.784581,35.56368],[139.784618,35.563729],[139.784656,35.56377],[139.784708,35.563822]]}},{"type":"Feature","properties":{"aeroway":"taxiway","surface":"asphalt"},"geometry":{"type":"LineString","coordinates":[[139.782838,35.56237],[139.782808,35.562441],[139.782794,35.562486],[139.782782,35.562541],[139.782779,35.562595],[139.782782,35.562653],[139.782794,35.562711],[139.782814,35.562772],[139.782846,35.562838],[139.782888,35.562895],[139.782934,35.562948],[139.782983,35.56299],[139.783034,35.563028]]}},{"type":"Feature","properties":{"aeroway":"taxiway","surface":"asphalt"},"geometry":{"type":"LineString","coordinates":[[139.782027,35.562553],[139.782094,35.562572],[139.782171,35.562585],[139.782239,35.562591],[139.782314,35.562593],[139.782407,35.562589],[139.782494,35.562575],[139.78257,35.562552],[139.782637,35.562524],[139.782688,35.562495],[139.782738,35.56246],[139.78279,35.562418],[139.782838,35.56237]]}},{"type":"Feature","properties":{"aeroway":"taxiway","surface":"asphalt"},"geometry":{"type":"LineString","coordinates":[[139.78485,35.563892],[139.784918,35.563909],[139.784961,35.563918],[139.785013,35.563926],[139.785053,35.563928],[139.785106,35.563926],[139.785166,35.563922],[139.785206,35.563915],[139.785245,35.563906],[139.785284,35.563895],[139.785317,35.56388],[139.785355,35.563863],[139.785399,35.56384],[139.785438,35.563814],[139.785478,35.563784],[139.785522,35.563742]]}},{"type":"Feature","properties":{"aeroway":"taxiway","surface":"asphalt"},"geometry":{"type":"LineString","coordinates":[[139.782968,35.562999],[139.782894,35.562978],[139.782825,35.562963],[139.782753,35.562961],[139.782687,35.562961],[139.782627,35.562969],[139.78256,35.562984],[139.782497,35.563005],[139.782429,35.563033],[139.782377,35.563065],[139.78234,35.563095],[139.782306,35.563124],[139.782278,35.563157]]}},{"type":"Feature","properties":{"aeroway":"taxiway","surface":"asphalt"},"geometry":{"type":"LineString","coordinates":[[139.781524,35.563357],[139.781604,35.563385],[139.781675,35.563401],[139.781748,35.563409],[139.781821,35.563409],[139.781894,35.563401],[139.781964,35.563385],[139.782032,35.563361],[139.782094,35.56333],[139.782151,35.563292],[139.782198,35.563254],[139.78224,35.563209]]}},{"type":"Feature","properties":{"aeroway":"taxiway","surface":"asphalt"},"geometry":{"type":"LineString","coordinates":[[139.781673,35.564008],[139.781735,35.563947],[139.781781,35.563908],[139.781841,35.563873],[139.781905,35.563839],[139.781976,35.563812],[139.78205,35.56379],[139.782122,35.563778],[139.782205,35.563771],[139.782285,35.563773],[139.782353,35.563785],[139.782393,35.56379],[139.78248,35.563813]]}},{"type":"Feature","properties":{"aeroway":"taxiway","surface":"asphalt"},"geometry":{"type":"LineString","coordinates":[[139.78144,35.563319],[139.78151,35.563362],[139.78157,35.563409],[139.781616,35.563458],[139.781656,35.563512],[139.781688,35.563568],[139.781712,35.563626],[139.781732,35.563687],[139.781741,35.563755],[139.781738,35.563815],[139.781724,35.563873],[139.781712,35.563919],[139.781673,35.564008]]}},{"type":"Feature","properties":{"aeroway":"taxiway","surface":"asphalt"},"geometry":{"type":"LineString","coordinates":[[139.780265,35.565482],[139.78035,35.56545],[139.7804,35.565435],[139.780449,35.565423],[139.7805,35.565411],[139.78055,35.565406],[139.780605,35.565403],[139.78066,35.565404],[139.780715,35.565409],[139.780769,35.565418],[139.780821,35.565432],[139.780872,35.565449],[139.780921,35.565469]]}},{"type":"Feature","properties":{"aeroway":"taxiway","surface":"asphalt"},"geometry":{"type":"LineString","coordinates":[[139.779787,35.565751],[139.77984,35.565714],[139.779888,35.565671],[139.77993,35.565625],[139.779965,35.565575],[139.779994,35.565522],[139.780014,35.565468],[139.780028,35.565411],[139.780033,35.565354],[139.780031,35.565296],[139.780021,35.565239],[139.780003,35.565184],[139.779978,35.56513],[139.779945,35.565079],[139.779906,35.565031],[139.779861,35.564987],[139.779809,35.564947],[139.779753,35.564912]]}},{"type":"Feature","properties":{"aeroway":"taxiway","surface":"asphalt"},"geometry":{"type":"LineString","coordinates":[[139.78018,35.565113],[139.780258,35.56514],[139.78034,35.565158],[139.780423,35.565168],[139.780508,35.565168],[139.780592,35.56516],[139.780674,35.565144],[139.780752,35.565119],[139.780826,35.565086],[139.780895,35.565045],[139.780956,35.564998],[139.780994,35.564967]]}},{"type":"Feature","properties":{"aeroway":"taxiway","surface":"asphalt"},"geometry":{"type":"LineString","coordinates":[[139.781018,35.564932],[139.780994,35.564978],[139.780974,35.565027],[139.780961,35.565072],[139.780954,35.565124],[139.780952,35.565173],[139.780952,35.565219],[139.780958,35.565266],[139.780974,35.565315],[139.780994,35.565365],[139.781022,35.565417],[139.781057,35.565467],[139.781092,35.565506],[139.781145,35.565553],[139.781203,35.565593],[139.781217,35.565603]]}},{"type":"Feature","properties":{"aeroway":"taxiway","surface":"asphalt"},"geometry":{"type":"LineString","coordinates":[[139.786942,35.560914],[139.786984,35.560941],[139.787024,35.560972],[139.787068,35.561016],[139.787109,35.561067],[139.787138,35.561115],[139.787163,35.56117],[139.787174,35.561221],[139.787179,35.561265],[139.78718,35.561316],[139.787173,35.561362],[139.787163,35.561398],[139.787151,35.561429],[139.787134,35.561472]]}},{"type":"Feature","properties":{"aeroway":"taxiway","surface":"asphalt"},"geometry":{"type":"LineString","coordinates":[[139.786942,35.560914],[139.78699,35.560929],[139.787036,35.560942],[139.7871,35.560952],[139.787163,35.560957],[139.787236,35.560954],[139.78731,35.560945],[139.787375,35.560929],[139.787434,35.560907],[139.787481,35.560886],[139.78753,35.560855],[139.787569,35.560827],[139.787602,35.560798],[139.787642,35.560757]]}},{"type":"Feature","properties":{"aeroway":"taxiway","surface":"asphalt"},"geometry":{"type":"LineString","coordinates":[[139.787909,35.561375],[139.787857,35.561339],[139.787816,35.561307],[139.787774,35.561267],[139.787732,35.56122],[139.787699,35.561172],[139.787668,35.561116],[139.787646,35.56106],[139.787636,35.561001],[139.787627,35.560939],[139.787629,35.56088],[139.787637,35.560824],[139.787654,35.560769],[139.78767,35.560732],[139.787695,35.56068]]}},{"type":"Feature","properties":{"aeroway":"taxiway","surface":"asphalt"},"geometry":{"type":"LineString","coordinates":[[139.787087,35.561539],[139.787137,35.561497],[139.787181,35.561462],[139.787226,35.561432],[139.78727,35.561406],[139.787327,35.561382],[139.787382,35.561362],[139.78744,35.561345],[139.787498,35.561333],[139.787563,35.561327],[139.787632,35.561326],[139.787699,35.561328],[139.787765,35.561337],[139.787818,35.561349],[139.787866,35.561361],[139.787909,35.561375]]}},{"type":"Feature","properties":{"aeroway":"taxiway","ref":"J","surface":"asphalt"},"geometry":{"type":"LineString","coordinates":[[139.782027,35.562553],[139.782092,35.562583],[139.782537,35.562793],[139.782968,35.562999],[139.783034,35.563028],[139.783788,35.563387],[139.783896,35.56344],[139.784324,35.563635],[139.784708,35.563822],[139.784736,35.563838],[139.784797,35.563867],[139.78485,35.563892],[139.785277,35.564092]]}},{"type":"Feature","properties":{"aeroway":"taxiway","ref":"C13","surface":"asphalt"},"geometry":{"type":"LineString","coordinates":[[139.787492,35.564552],[139.787428,35.564625],[139.787384,35.564662],[139.787309,35.564708],[139.787232,35.564744],[139.787147,35.564771],[139.787081,35.564785],[139.787,35.564794],[139.786914,35.564796],[139.786835,35.56479],[139.786759,35.564778],[139.786681,35.564755],[139.786585,35.564714]]}},{"type":"Feature","properties":{"aeroway":"terminal","name":"\u6771\u4eac\u56fd\u969b\u7a7a\u6e2f\u65b0\u8cb4\u8cd3\u5ba4"},"geometry":{"type":"Polygon","coordinates":[[[139.781706,35.560915],[139.7813,35.561488],[139.781202,35.561442],[139.781181,35.561473],[139.780992,35.561384],[139.781016,35.56135],[139.780955,35.561321],[139.781359,35.560752],[139.781706,35.560915]]]}},{"type":"Feature","properties":{"aeroway":"taxiway","surface":"asphalt"},"geometry":{"type":"LineString","coordinates":[[139.785192,35.560084],[139.785154,35.560048],[139.785096,35.560005],[139.785033,35.559956],[139.784997,35.559907],[139.784955,35.559851],[139.784924,35.559792],[139.784907,35.55973],[139.784892,35.559664],[139.784892,35.559599],[139.784899,35.559545],[139.784918,35.559475],[139.784943,35.55941]]}},{"type":"Feature","properties":{"aeroway":"taxiway","surface":"asphalt"},"geometry":{"type":"LineString","coordinates":[[139.785915,35.560428],[139.785951,35.560439],[139.785997,35.560453],[139.78606,35.560465],[139.786134,35.560472],[139.786213,35.560472],[139.786294,35.560465],[139.786362,35.560454],[139.786436,35.560434],[139.786512,35.560401],[139.786589,35.560358],[139.786638,35.560322],[139.786723,35.560255]]}},{"type":"Feature","properties":{"aeroway":"taxiway","surface":"asphalt"},"geometry":{"type":"LineString","coordinates":[[139.785915,35.560428],[139.785951,35.560439],[139.785985,35.560477],[139.786028,35.560514],[139.786063,35.56055],[139.786092,35.560588],[139.786126,35.56064],[139.786149,35.560688],[139.786171,35.560745],[139.78618,35.560794],[139.786186,35.560847],[139.786185,35.560903],[139.786175,35.560965],[139.786163,35.561012],[139.786142,35.561072]]}},{"type":"Feature","properties":{"aeroway":"taxiway","surface":"asphalt"},"geometry":{"type":"LineString","coordinates":[[139.78436,35.560226],[139.784431,35.56017],[139.784479,35.560138],[139.784527,35.56011],[139.78459,35.560084],[139.784658,35.56006],[139.784731,35.56004],[139.784801,35.560029],[139.784871,35.560024],[139.784946,35.560027],[139.785005,35.560033],[139.785072,35.560047],[139.78513,35.560062],[139.785192,35.560084]]}},{"type":"Feature","properties":{"aeroway":"taxiway","surface":"asphalt"},"geometry":{"type":"LineString","coordinates":[[139.784449,35.565241],[139.784505,35.5652],[139.784582,35.565153],[139.784657,35.565118],[139.784727,35.565093],[139.784787,35.565081],[139.784865,35.565068],[139.784929,35.565063],[139.785011,35.565067],[139.785096,35.565078],[139.785153,35.565091],[139.785231,35.565112]]}},{"type":"Feature","properties":{"aeroway":"taxiway","surface":"asphalt"},"geometry":{"type":"LineString","coordinates":[[139.784287,35.565375],[139.784347,35.565296],[139.784374,35.565248],[139.784394,35.565199],[139.784416,35.565136],[139.78442,35.56509],[139.784422,35.565021],[139.784414,35.564958],[139.7844,35.5649],[139.784376,35.564841],[139.784347,35.564787],[139.784308,35.564736],[139.784268,35.564691],[139.78421,35.564647],[139.784134,35.564594]]}},{"type":"Feature","properties":{"aeroway":"taxiway","ref":"C","surface":"asphalt"},"geometry":{"type":"LineString","coordinates":[[139.784571,35.565083],[139.784722,35.56487],[139.784973,35.564517],[139.785,35.56448]]}},{"type":"Feature","properties":{"aeroway":"taxiway","surface":"asphalt"},"geometry":{"type":"LineString","coordinates":[[139.784973,35.564517],[139.784952,35.564561],[139.784939,35.564596],[139.78493,35.564639],[139.784924,35.564678],[139.784923,35.564732],[139.784927,35.564782],[139.784946,35.564839],[139.784971,35.564894],[139.785002,35.564943],[139.785048,35.564994],[139.785087,35.565028],[139.785139,35.565069]]}},{"type":"Feature","properties":{"aeroway":"taxiway","surface":"asphalt"},"geometry":{"type":"LineString","coordinates":[[139.785018,35.564452],[139.785043,35.564402],[139.785057,35.564355],[139.78507,35.5643],[139.785071,35.564235],[139.785065,35.564185],[139.785051,35.564132],[139.785027,35.564085],[139.785006,35.564042],[139.784973,35.563999],[139.784932,35.563957],[139.784896,35.563926],[139.78485,35.563892]]}},{"type":"Feature","properties":{"aeroway":"taxiway","surface":"asphalt"},"geometry":{"type":"LineString","coordinates":[[139.784276,35.564661],[139.784342,35.564682],[139.784399,35.564695],[139.78447,35.564702],[139.784545,35.564704],[139.784614,35.564701],[139.78468,35.564686],[139.784734,35.564671],[139.784801,35.564643],[139.784852,35.564616],[139.784896,35.564582],[139.784927,35.564559],[139.784973,35.564517]]}},{"type":"Feature","properties":{"aeroway":"taxiway","surface":"asphalt"},"geometry":{"type":"LineString","coordinates":[[139.784736,35.563838],[139.784682,35.563824],[139.784628,35.563814],[139.784573,35.563809],[139.784512,35.563806],[139.784445,35.56381],[139.784388,35.563818],[139.784339,35.563831],[139.784288,35.563847],[139.78423,35.56387],[139.784188,35.563892],[139.784141,35.563927],[139.784101,35.563961],[139.784064,35.563998]]}},{"type":"Feature","properties":{"aeroway":"taxiway","surface":"asphalt"},"geometry":{"type":"LineString","coordinates":[[139.783896,35.56344],[139.783942,35.563476],[139.783984,35.563514],[139.784028,35.563566],[139.784059,35.563605],[139.784086,35.563658],[139.784105,35.563712],[139.784112,35.563772],[139.784111,35.563846],[139.784104,35.5639],[139.784088,35.563947],[139.784064,35.563998]]}},{"type":"Feature","properties":{"aeroway":"taxiway","surface":"asphalt"},"geometry":{"type":"LineString","coordinates":[[139.782278,35.563157],[139.7823,35.563109],[139.782313,35.563075],[139.782324,35.563041],[139.78233,35.562994],[139.782331,35.562941],[139.782328,35.562893],[139.782311,35.56283],[139.782285,35.56277],[139.782248,35.562714],[139.782203,35.562662],[139.782151,35.562621],[139.782092,35.562583]]}},{"type":"Feature","properties":{"aeroway":"taxiway","surface":"asphalt"},"geometry":{"type":"LineString","coordinates":[[139.78224,35.563209],[139.782215,35.563261],[139.782195,35.563314],[139.782186,35.563372],[139.782185,35.563424],[139.782188,35.563477],[139.782204,35.563533],[139.782229,35.56359],[139.78226,35.563642],[139.782304,35.563694],[139.782362,35.563744],[139.782417,35.563782]]}},{"type":"Feature","properties":{"aeroway":"taxiway","ref":"R","surface":"asphalt"},"geometry":{"type":"LineString","coordinates":[[139.780719,35.565223],[139.780797,35.565176],[139.780857,35.56513],[139.780905,35.565078],[139.780994,35.564967],[139.781018,35.564932]]}},{"type":"Feature","properties":{"aeroway":"taxiway","ref":"R","surface":"asphalt"},"geometry":{"type":"LineString","coordinates":[[139.781018,35.564932],[139.781108,35.564797],[139.781464,35.564299],[139.781651,35.56404],[139.781673,35.564008],[139.781984,35.563574],[139.78224,35.563209],[139.782278,35.563157],[139.782537,35.562793],[139.782838,35.56237]]}},{"type":"Feature","properties":{"aeroway":"taxiway","ref":"C","surface":"asphalt"},"geometry":{"type":"LineString","coordinates":[[139.784287,35.565375],[139.784368,35.565305],[139.784449,35.565241],[139.784511,35.565161],[139.784571,35.565083]]}},{"type":"Feature","properties":{"aeroway":"taxiway","surface":"asphalt"},"geometry":{"type":"LineString","coordinates":[[139.786533,35.565189],[139.786265,35.56557]]}},{"type":"Feature","properties":{"aeroway":"taxiway","surface":"asphalt"},"geometry":{"type":"LineString","coordinates":[[139.786361,35.564604],[139.786411,35.56464],[139.786436,35.564661],[139.786482,35.564703],[139.786516,35.564743],[139.786552,35.564795],[139.78657,35.564849],[139.786585,35.564904],[139.786595,35.564964],[139.786594,35.565021],[139.786582,35.565084],[139.786558,35.565138],[139.786533,35.565189]]}},{"type":"Feature","properties":{"aeroway":"taxiway","surface":"asphalt"},"geometry":{"type":"LineString","coordinates":[[139.786184,35.561016],[139.786236,35.560966],[139.786297,35.560922],[139.786365,35.560887],[139.78643,35.560863],[139.786496,35.560845],[139.786559,35.560838],[139.786621,35.560836],[139.786703,35.560839],[139.786771,35.560852],[139.786827,35.560867],[139.786866,35.560879]]}},{"type":"Feature","properties":{"aeroway":"taxiway","surface":"asphalt"},"geometry":{"type":"LineString","coordinates":[[139.786663,35.560337],[139.786643,35.560388],[139.786635,35.560436],[139.786631,35.560492],[139.786629,35.560544],[139.786635,35.560589],[139.786651,35.560633],[139.786671,35.560685],[139.786696,35.560728],[139.786736,35.560778],[139.786781,35.560819],[139.786826,35.560852],[139.786866,35.560879]]}},{"type":"Feature","properties":{"aeroway":"taxiway","ref":"E12","surface":"asphalt"},"geometry":{"type":"LineString","coordinates":[[139.787385,35.561121],[139.786942,35.560914],[139.786895,35.560892],[139.786866,35.560879],[139.786425,35.560673],[139.785951,35.560439],[139.785915,35.560428],[139.785192,35.560084]]}},{"type":"Feature","properties":{"aeroway":"taxiway","ref":"C13","surface":"asphalt"},"geometry":{"type":"LineString","coordinates":[[139.785277,35.564092],[139.785702,35.564297],[139.786306,35.564579],[139.786361,35.564604],[139.786448,35.564646],[139.786585,35.564714]]}},{"type":"Feature","properties":{"aeroway":"taxiway","ref":"C14","surface":"asphalt"},"geometry":{"type":"LineString","coordinates":[[139.78693,35.565338],[139.78687,35.565407],[139.7868,35.565456],[139.786729,35.565502],[139.786646,35.565535],[139.786555,35.565559],[139.786473,35.565572],[139.78637,35.565576],[139.786265,35.56557],[139.786127,35.565531],[139.785893,35.565428],[139.78575,35.56536],[139.785231,35.565112],[139.785139,35.565069],[139.784722,35.56487]]}},{"type":"Feature","properties":{"aeroway":"taxiway","ref":"E","surface":"asphalt"},"geometry":{"type":"LineString","coordinates":[[139.784013,35.564067],[139.784064,35.563998],[139.784324,35.563635],[139.78458,35.563273],[139.784619,35.563218],[139.786142,35.561072]]}},{"type":"Feature","properties":{"aeroway":"taxiway","ref":"R","surface":"asphalt"},"geometry":{"type":"LineString","coordinates":[[139.782838,35.56237],[139.78286,35.562341],[139.783045,35.562091],[139.783118,35.561987],[139.783405,35.56158],[139.783656,35.561226],[139.783701,35.561161],[139.783789,35.561034],[139.78389,35.56089],[139.784037,35.56068],[139.784173,35.560486],[139.784274,35.560345],[139.78436,35.560226],[139.784665,35.559798],[139.784943,35.55941]]}},{"type":"Feature","properties":{"aeroway":"taxiway","ref":"J","surface":"asphalt"},"geometry":{"type":"LineString","coordinates":[[139.778324,35.560794],[139.780588,35.56187],[139.782027,35.562553]]}},{"type":"Feature","properties":{"aeroway":"taxiway","ref":"C","surface":"asphalt"},"geometry":{"type":"LineString","coordinates":[[139.787695,35.56068],[139.787642,35.560757],[139.787385,35.561121],[139.787134,35.561472],[139.787087,35.561539]]}},{"type":"Feature","properties":{"aeroway":"taxiway","ref":"C","surface":"asphalt"},"geometry":{"type":"LineString","coordinates":[[139.787087,35.561539],[139.786329,35.562606],[139.785522,35.563742]]}},{"type":"Feature","properties":{"aeroway":"taxiway","ref":"C","surface":"asphalt"},"geometry":{"type":"LineString","coordinates":[[139.785522,35.563742],[139.785277,35.564092],[139.785018,35.564452],[139.785,35.56448]]}},{"type":"Feature","properties":{"aeroway":"runway","ref":"16L/34R","name":"\u6771\u4eac\u56fd\u969b\u7a7a\u6e2fC\u6ed1\u8d70\u8def","surface":"asphalt"},"geometry":{"type":"LineString","coordinates":[[139.786559,35.565866],[139.78693,35.565338],[139.787186,35.564982],[139.787492,35.564552],[139.788242,35.563502],[139.788676,35.562894]]}},{"type":"Feature","properties":{"aeroway":"terminal","name":"\u30dc\u30fc\u30c7\u30a3\u30f3\u30b0\u30b9\u30c6\u30fc\u30b7\u30e7\u30f3 504"},"geometry":{"type":"Polygon","coordinates":[[[139.785233,35.561275],[139.785156,35.561237],[139.785086,35.561237],[139.785088,35.561277],[139.784954,35.561288],[139.784944,35.561172],[139.78517,35.561158],[139.78528,35.561215],[139.785233,35.561275]]]}},{"type":"Feature","properties":{"aeroway":"terminal","name":"\u30dc\u30fc\u30c7\u30a3\u30f3\u30b0\u30b9\u30c6\u30fc\u30b7\u30e7\u30f3 503"},"geometry":{"type":"Polygon","coordinates":[[[139.784842,35.561822],[139.784765,35.561784],[139.784696,35.561784],[139.784698,35.561824],[139.784564,35.561836],[139.784554,35.56172],[139.78478,35.561705],[139.784889,35.561763],[139.784842,35.561822]]]}}]}