{"type":"FeatureCollection","features":[{"type":"Feature","properties":{"aeroway":"taxiway","ref":"C10","surface":"asphalt"},"geometry":{"type":"LineString","coordinates":[[139.793612,35.555925],[139.793337,35.556258],[139.793148,35.556463],[139.792943,35.556666],[139.79276,35.556836],[139.792642,35.556932],[139.792512,35.557038],[139.792276,35.557215],[139.791962,35.557424],[139.791707,35.557578],[139.791459,35.557713],[139.791277,35.557799],[139.791143,35.557864],[139.791042,35.557913]]}},{"type":"Feature","properties":{"aeroway":"taxiway","surface":"asphalt"},"geometry":{"type":"LineString","coordinates":[[139.792838,35.555092],[139.792723,35.555123],[139.79265,35.555134],[139.792578,35.555136],[139.792503,35.555132],[139.792437,35.555121],[139.792373,35.555102],[139.792304,35.555075],[139.792233,35.555034],[139.792176,35.554991],[139.792128,35.554943],[139.792088,35.554889],[139.792059,35.554831],[139.792041,35.55477],[139.792031,35.554714],[139.792034,35.554648],[139.792045,35.554586],[139.792071,35.554513]]}},{"type":"Feature","properties":{"aeroway":"taxiway","surface":"asphalt"},"geometry":{"type":"LineString","coordinates":[[139.789594,35.558011],[139.78964,35.557964],[139.789696,35.557922],[139.789756,35.557887],[139.789822,35.557857],[139.789891,35.557833],[139.789963,35.557816],[139.790037,35.557807],[139.790112,35.557804],[139.79019,35.557808],[139.790255,35.557816],[139.790328,35.557832],[139.790393,35.557851]]}},{"type":"Feature","properties":{"aeroway":"taxiway","surface":"asphalt"},"geometry":{"type":"LineString","coordinates":[[139.790182,35.557182],[139.790146,35.557261],[139.79013,35.557316],[139.79012,35.557373],[139.79012,35.557435],[139.790128,35.557501],[139.790144,35.557557],[139.790164,35.557603],[139.790184,35.557646],[139.790213,35.557689],[139.790251,35.557735],[139.790292,35.557774],[139.790346,35.557814],[139.790393,35.557851]]}},{"type":"Feature","properties":{"aeroway":"taxiway","surface":"asphalt"},"geometry":{"type":"LineString","coordinates":[[139.789355,35.557362],[139.789287,35.557341],[139.789233,35.557327],[139.789165,35.557322],[139.789087,35.557323],[139.789014,35.557329],[139.788967,35.557339],[139.788905,35.557356],[139.788843,35.557382],[139.788788,35.557416],[139.788744,35.557447],[139.788699,35.557484],[139.788659,35.557526]]}},{"type":"Feature","properties":{"aeroway":"taxiway","surface":"asphalt"},"geometry":{"type":"LineString","coordinates":[[139.789176,35.556794],[139.789153,35.55685],[139.789133,35.556903],[139.789126,35.556951],[139.789124,35.556996],[139.789127,35.557039],[139.789135,35.557087],[139.789157,35.557146],[139.789181,35.557194],[139.789216,35.557243],[139.789254,35.557285],[139.7893,35.557324],[139.789355,35.557362]]}},{"type":"Feature","properties":{"aeroway":"taxiway","surface":"asphalt"},"geometry":{"type":"LineString","coordinates":[[139.791151,35.554848],[139.791128,35.554838],[139.791065,35.554822],[139.791006,35.554811],[139.790941,35.554804],[139.79087,35.554805],[139.790795,35.554814],[139.79072,35.554831],[139.790656,35.554855],[139.790595,35.554886],[139.790547,35.554911],[139.790505,35.554943],[139.790469,35.554977]]}},{"type":"Feature","properties":{"aeroway":"taxiway","surface":"asphalt"},"geometry":{"type":"LineString","coordinates":[[139.791383,35.555491],[139.791433,35.555436],[139.791479,35.555398],[139.791531,35.55536],[139.791597,35.555323],[139.791661,35.555296],[139.791727,35.555275],[139.791799,35.55526],[139.791872,35.555251],[139.791942,35.555251],[139.792008,35.555253],[139.792074,35.555261]]}},{"type":"Feature","properties":{"aeroway":"taxiway","surface":"asphalt"},"geometry":{"type":"LineString","coordinates":[[139.791151,35.554848],[139.791113,35.554819],[139.791075,35.554794],[139.791032,35.554758],[139.790996,35.554711],[139.790962,35.55466],[139.790941,35.554609],[139.790924,35.554546],[139.790918,35.554494],[139.790919,35.554442],[139.790926,35.554392],[139.79094,35.554344],[139.790963,35.554293],[139.790996,35.554229]]}},{"type":"Feature","properties":{"aeroway":"taxiway","surface":"asphalt"},"geometry":{"type":"LineString","coordinates":[[139.788604,35.557604],[139.788631,35.557549],[139.788652,35.557503],[139.788666,35.55746],[139.788676,35.557406],[139.788678,35.557352],[139.788676,35.557293],[139.788662,35.557233],[139.788646,35.557176],[139.788614,35.55712],[139.788576,35.557059],[139.788524,35.557003],[139.788476,35.55696],[139.788429,35.556927],[139.788404,35.556909]]}},{"type":"Feature","properties":{"aeroway":"taxiway","surface":"asphalt"},"geometry":{"type":"LineString","coordinates":[[139.788404,35.556909],[139.788434,35.556919],[139.788487,35.556935],[139.788556,35.556949],[139.788627,35.556955],[139.788693,35.556957],[139.78878,35.556954],[139.788859,35.556943],[139.788926,35.556925],[139.788986,35.556902],[139.78904,35.556872],[139.789089,35.556844],[139.78914,35.556808],[139.789186,35.556769],[139.789229,35.556723]]}},{"type":"Feature","properties":{"aeroway":"taxiway","ref":"E9","surface":"asphalt"},"geometry":{"type":"LineString","coordinates":[[139.791663,35.555087],[139.791231,35.554888],[139.791168,35.554856],[139.791151,35.554848],[139.790709,35.554638],[139.790212,35.554397],[139.790201,35.554394],[139.789934,35.554271],[139.789804,35.554212],[139.789534,35.554081]]}},{"type":"Feature","properties":{"aeroway":"taxiway","surface":"asphalt"},"geometry":{"type":"LineString","coordinates":[[139.79043,35.55503],[139.79045,35.554971],[139.790465,35.554905],[139.790471,35.554842],[139.790466,35.554778],[139.790452,35.554718],[139.790433,35.554657],[139.790404,35.554603],[139.790368,35.554547],[139.790325,35.554494],[139.790279,35.554451],[139.790212,35.554397],[139.790201,35.554394]]}},{"type":"Feature","properties":{"aeroway":"taxiway","surface":"asphalt"},"geometry":{"type":"LineString","coordinates":[[139.790996,35.554229],[139.790944,35.554273],[139.79089,35.554318],[139.790838,35.554346],[139.790783,35.554374],[139.790717,35.5544],[139.790644,35.554421],[139.790574,35.554433],[139.790507,35.554438],[139.790428,35.554439],[139.790356,35.554432],[139.790276,35.554414],[139.790212,35.554397],[139.790201,35.554394]]}},{"type":"Feature","properties":{"aeroway":"taxiway","surface":"asphalt"},"geometry":{"type":"LineString","coordinates":[[139.789534,35.554081],[139.78947,35.554034],[139.789432,35.554],[139.789381,35.553944],[139.789339,35.553886],[139.789308,35.553818],[139.789292,35.553771],[139.789283,35.553728],[139.789275,35.55368],[139.789278,35.553613],[139.789294,35.553542],[139.789322,35.553474],[139.789362,35.553409]]}},{"type":"Feature","properties":{"aeroway":"taxiway","surface":"asphalt"},"geometry":{"type":"LineString","coordinates":[[139.789451,35.557406],[139.789533,35.557428],[139.78961,35.557439],[139.789674,35.557442],[139.789741,35.55744],[139.789816,35.557428],[139.789884,35.55741],[139.78995,35.557383],[139.790001,35.557356],[139.79005,35.557326],[139.79012,35.557268]]}},{"type":"Feature","properties":{"aeroway":"taxiway","surface":"asphalt"},"geometry":{"type":"LineString","coordinates":[[139.789623,35.557964],[139.789641,35.557926],[139.789656,35.557881],[139.789669,35.557822],[139.789674,35.557772],[139.789668,35.557712],[139.789653,35.557651],[139.789631,35.557593],[139.789593,35.557536],[139.789555,35.557498],[139.789513,35.557456],[139.789451,35.557406]]}},{"type":"Feature","properties":{"aeroway":"taxiway","ref":"E10","surface":"asphalt"},"geometry":{"type":"LineString","coordinates":[[139.789875,35.55761],[139.789451,35.557406],[139.789387,35.557376],[139.789355,35.557362],[139.788923,35.557156],[139.788429,35.556927],[139.788404,35.556909],[139.78815,35.556794],[139.788021,35.556729],[139.787609,35.556536]]}},{"type":"Feature","properties":{"aeroway":"taxiway","ref":"C10","surface":"asphalt"},"geometry":{"type":"LineString","coordinates":[[139.788932,35.558944],[139.788985,35.558897],[139.789044,35.558855],[139.789108,35.558817],[139.789174,35.558783],[139.789244,35.558754],[139.790906,35.557978],[139.791042,35.557913]]}},{"type":"Feature","properties":{"aeroway":"taxiway","ref":"C10","surface":"asphalt"},"geometry":{"type":"LineString","coordinates":[[139.791042,35.557913],[139.790962,35.557933],[139.790898,35.557947],[139.790798,35.557951],[139.790722,35.557948],[139.790636,35.557938],[139.790556,35.557918],[139.790462,35.557885],[139.790393,35.557851]]}},{"type":"Feature","properties":{"aeroway":"taxiway","surface":"asphalt"},"geometry":{"type":"LineString","coordinates":[[139.791419,35.555438],[139.791446,35.555374],[139.79146,35.555316],[139.791465,35.555258],[139.791461,35.555199],[139.791447,35.555141],[139.791424,35.555086],[139.791393,35.555033],[139.791353,35.554984],[139.791306,35.554939],[139.79127,35.554913],[139.791231,35.554888]]}},{"type":"Feature","properties":{"aeroway":"taxiway","surface":"asphalt"},"geometry":{"type":"LineString","coordinates":[[139.791912,35.554744],[139.791847,35.5548],[139.791783,35.554844],[139.791715,35.554877],[139.791644,35.554899],[139.791568,35.554916],[139.791489,35.554921],[139.791406,35.554921],[139.79133,35.55491],[139.791282,35.554899],[139.791231,35.554888]]}},{"type":"Feature","properties":{"aeroway":"taxiway","ref":"C9","surface":"asphalt"},"geometry":{"type":"LineString","coordinates":[[139.795795,35.55286],[139.795382,35.553351],[139.795233,35.553517],[139.795075,35.553674],[139.794941,35.5538],[139.794764,35.553952],[139.794611,35.554074],[139.794477,35.554177],[139.794289,35.554313],[139.794127,35.554421],[139.793867,35.554579],[139.79364,35.554708],[139.793412,35.554825],[139.793248,35.554897],[139.793207,35.554915],[139.792892,35.555065],[139.792838,35.555092]]}},{"type":"Feature","properties":{"aeroway":"taxiway","surface":"asphalt"},"geometry":{"type":"LineString","coordinates":[[139.790393,35.557851],[139.789875,35.55761]]}},{"type":"Feature","properties":{"aeroway":"taxiway","ref":"E","surface":"asphalt"},"geometry":{"type":"LineString","coordinates":[[139.79043,35.55503],[139.790469,35.554977],[139.790709,35.554638],[139.790996,35.554229],[139.791739,35.553186]]}},{"type":"Feature","properties":{"aeroway":"taxiway","ref":"E","surface":"asphalt"},"geometry":{"type":"LineString","coordinates":[[139.788604,35.557604],[139.788659,35.557526],[139.788923,35.557156],[139.789176,35.556794],[139.789229,35.556723],[139.789976,35.55567],[139.79043,35.55503]]}},{"type":"Feature","properties":{"aeroway":"taxiway","ref":"C","surface":"asphalt"},"geometry":{"type":"LineString","coordinates":[[139.792739,35.553574],[139.792071,35.554513]]}},{"type":"Feature","properties":{"aeroway":"taxiway","ref":"C","surface":"asphalt"},"geometry":{"type":"LineString","coordinates":[[139.792071,35.554513],[139.791912,35.554744],[139.791663,35.555087],[139.791419,35.555438],[139.791383,35.555491]]}},{"type":"Feature","properties":{"aeroway":"taxiway","ref":"C","surface":"asphalt"},"geometry":{"type":"LineString","coordinates":[[139.791383,35.555491],[139.790935,35.556122],[139.790182,35.557182]]}},{"type":"Feature","properties":{"aeroway":"taxiway","ref":"C","surface":"asphalt"},"geometry":{"type":"LineString","coordinates":[[139.790182,35.557182],[139.79012,35.557268],[139.789875,35.55761],[139.789623,35.557964],[139.789594,35.558011],[139.788932,35.558944]]}},{"type":"Feature","properties":{"aeroway":"taxiway","ref":"C9","surface":"asphalt"},"geometry":{"type":"LineString","coordinates":[[139.792838,35.555092],[139.792632,35.555186],[139.792548,35.555227],[139.792483,35.55525],[139.792403,35.555268],[139.792321,35.555278],[139.792238,35.55528],[139.792156,35.555275],[139.792074,35.555261],[139.79201,35.555246],[139.791967,35.55523],[139.791663,35.555087]]}}]}