{"type":"FeatureCollection","features":[{"type":"Feature","properties":{"aeroway":"taxiway","surface":"asphalt"},"geometry":{"type":"LineString","coordinates":[[139.818014,35.536951],[139.818058,35.537014],[139.818088,35.537083],[139.818108,35.537154],[139.818114,35.537216],[139.818115,35.537269],[139.818108,35.537325],[139.818091,35.537388],[139.818065,35.537452],[139.818036,35.537498],[139.817987,35.537558],[139.817928,35.53762]]}},{"type":"Feature","properties":{"aeroway":"taxiway","surface":"asphalt"},"geometry":{"type":"LineString","coordinates":[[139.818796,35.537644],[139.818629,35.537549],[139.81856,35.537525],[139.818466,35.537507],[139.818362,35.537502],[139.818277,35.537502],[139.818199,35.537514],[139.818131,35.53753],[139.818068,35.537552],[139.818003,35.537578],[139.817928,35.53762]]}},{"type":"Feature","properties":{"aeroway":"taxiway","ref":"D6","surface":"asphalt"},"geometry":{"type":"LineString","coordinates":[[139.817244,35.53814],[139.817197,35.538182],[139.817152,35.538232],[139.817109,35.538283],[139.817074,35.538343],[139.817051,35.538406],[139.817039,35.538459],[139.817034,35.538537],[139.81704,35.538601],[139.817052,35.53866],[139.817077,35.538723],[139.817106,35.538777],[139.817179,35.538871]]}},{"type":"Feature","properties":{"aeroway":"taxiway","ref":"D7","surface":"asphalt"},"geometry":{"type":"LineString","coordinates":[[139.822004,35.540498],[139.821376,35.540962],[139.820841,35.541379]]}},{"type":"Feature","properties":{"aeroway":"taxiway","ref":"D6","surface":"asphalt"},"geometry":{"type":"LineString","coordinates":[[139.817928,35.53762],[139.817764,35.537742],[139.81768,35.537806],[139.817244,35.53814]]}},{"type":"Feature","properties":{"aeroway":"taxiway","ref":"D6","surface":"asphalt"},"geometry":{"type":"LineString","coordinates":[[139.817244,35.53814],[139.817186,35.538175],[139.817119,35.53821],[139.817048,35.538239],[139.816964,35.538265],[139.816883,35.538275],[139.816798,35.538278],[139.816721,35.538275],[139.816652,35.538264],[139.816576,35.538247],[139.816501,35.538221],[139.816428,35.538183],[139.816349,35.538131]]}},{"type":"Feature","properties":{"aeroway":"taxiway","surface":"asphalt"},"geometry":{"type":"LineString","coordinates":[[139.820841,35.541379],[139.820728,35.541441],[139.820619,35.541477],[139.820504,35.541496],[139.820387,35.5415],[139.820271,35.541486],[139.820159,35.541457],[139.820056,35.541412],[139.819963,35.541353],[139.819885,35.541282]]}},{"type":"Feature","properties":{"aeroway":"taxiway","ref":"D","surface":"asphalt"},"geometry":{"type":"LineString","coordinates":[[139.819885,35.541282],[139.817676,35.539314],[139.817179,35.538871],[139.816349,35.538131]]}}]}