{"type":"FeatureCollection","features":[{"type":"Feature","properties":{"aeroway":"taxiway","surface":"asphalt"},"geometry":{"type":"LineString","coordinates":[[139.791283,35.534073],[139.791316,35.534024],[139.791356,35.533979],[139.791403,35.533939],[139.791469,35.533904],[139.791542,35.533873]]}},{"type":"Feature","properties":{"aeroway":"taxiway","ref":"A","surface":"asphalt"},"geometry":{"type":"LineString","coordinates":[[139.791104,35.534123],[139.791188,35.534043],[139.791286,35.533974],[139.791395,35.533917],[139.791542,35.533873],[139.791857,35.533782],[139.792079,35.533713],[139.792158,35.533697],[139.792242,35.533688],[139.792318,35.533688],[139.792402,35.533695],[139.792484,35.533711],[139.792538,35.53373],[139.792617,35.533761]]}},{"type":"Feature","properties":{"aeroway":"taxiway","ref":"A","surface":"asphalt"},"geometry":{"type":"LineString","coordinates":[[139.792617,35.533761],[139.793084,35.533982],[139.795202,35.534983],[139.798429,35.536516],[139.79866,35.536623],[139.798973,35.536774],[139.799194,35.53688],[139.799538,35.537043]]}}]}