{"type":"FeatureCollection","features":[{"type":"Feature","properties":{"aeroway":"hangar","name":"\u7523\u7d4c\u65b0\u805e"},"geometry":{"type":"Polygon","coordinates":[[[139.755457,35.56056],[139.755384,35.560207],[139.75506,35.560251],[139.755118,35.560528],[139.755128,35.560527],[139.755144,35.560603],[139.755457,35.56056]]]}},{"type":"Feature","properties":{"aeroway":"hangar","name":"\u8aad\u58f2\u65b0\u805e"},"geometry":{"type":"Polygon","coordinates":[[[139.755341,35.560015],[139.755285,35.559742],[139.754952,35.559791],[139.754962,35.559835],[139.754921,35.559841],[139.754946,35.559962],[139.754959,35.559962],[139.754972,35.560023],[139.755,35.56002],[139.755026,35.56015],[139.755248,35.56012],[139.755341,35.560015]]]}},{"type":"Feature","properties":{"aeroway":"taxiway","surface":"paved"},"geometry":{"type":"LineString","coordinates":[[139.757882,35.561757],[139.757845,35.561798],[139.757802,35.561835],[139.757731,35.561871],[139.757643,35.561893],[139.757529,35.561895],[139.757418,35.561876],[139.757068,35.56171],[139.756474,35.561428],[139.756425,35.561394],[139.756392,35.561358],[139.75636,35.561316],[139.75634,35.56126],[139.756324,35.561197],[139.756182,35.560524],[139.756166,35.560439],[139.756161,35.560375],[139.756172,35.560318],[139.756202,35.560269],[139.756278,35.560171],[139.756698,35.559689],[139.756726,35.559645],[139.756739,35.559595],[139.756742,35.559547],[139.756742,35.55948],[139.756718,35.55942],[139.756679,35.55937],[139.756627,35.559324],[139.756215,35.559088],[139.756105,35.55905],[139.755873,35.559012],[139.755447,35.558941],[139.755398,35.558924],[139.754744,35.558558],[139.754685,35.558527],[139.754654,35.558496],[139.754628,35.558461],[139.754431,35.557824],[139.754346,35.55756],[139.754323,35.557497]]}},{"type":"Feature","properties":{"aeroway":"apron"},"geometry":{"type":"Polygon","coordinates":[[[139.7597,35.563654],[139.759003,35.563263],[139.758963,35.563309],[139.758196,35.562877],[139.758153,35.562934],[139.757705,35.562692],[139.757689,35.562705],[139.756962,35.562292],[139.7569,35.562347],[139.756456,35.562099],[139.756914,35.561523],[139.757082,35.561615],[139.757143,35.561541],[139.757541,35.56176],[139.760625,35.558075],[139.761059,35.558323],[139.760965,35.558437],[139.761111,35.558516],[139.761059,35.558572],[139.761298,35.558702],[139.76125,35.558755],[139.7614,35.558838],[139.761342,35.558901],[139.76157,35.559023],[139.761512,35.559094],[139.761743,35.559219],[139.761685,35.559281],[139.761832,35.559369],[139.759189,35.562495],[139.759494,35.562674],[139.759532,35.562622],[139.760229,35.563024],[139.7597,35.563654]]]}},{"type":"Feature","properties":{"aeroway":"taxiway","surface":"asphalt"},"geometry":{"type":"LineString","coordinates":[[139.761095,35.557916],[139.760832,35.558274],[139.760392,35.558794],[139.759934,35.559334],[139.759478,35.559873],[139.759026,35.560406],[139.758582,35.560931],[139.75827,35.561298],[139.757961,35.561663],[139.757882,35.561757]]}},{"type":"Feature","properties":{"aeroway":"taxiway","surface":"paved"},"geometry":{"type":"LineString","coordinates":[[139.757845,35.561798],[139.757824,35.561843],[139.757815,35.561894],[139.75782,35.56195],[139.757837,35.562007],[139.757871,35.562055],[139.757909,35.562095],[139.757964,35.562136],[139.758104,35.562202],[139.758458,35.562367],[139.758813,35.562533],[139.759159,35.562694],[139.759501,35.562854],[139.759799,35.562993]]}},{"type":"Feature","properties":{"aeroway":"taxiway","surface":"paved"},"geometry":{"type":"LineString","coordinates":[[139.757964,35.562136],[139.757765,35.562041],[139.757418,35.561876]]}},{"type":"Feature","properties":{"aeroway":"helipad"},"geometry":{"type":"Polygon","coordinates":[[[139.756206,35.559522],[139.756184,35.559504],[139.756182,35.559486],[139.756183,35.559459],[139.756201,35.559444],[139.756225,35.55944],[139.756246,35.559441],[139.756264,35.559448],[139.756281,35.559464],[139.756285,35.559481],[139.756281,35.559496],[139.756271,35.559508],[139.756264,35.559517],[139.756253,35.559519],[139.756242,35.559522],[139.756225,35.559523],[139.756206,35.559522]]]}}]}