{"type":"FeatureCollection","features":[{"type":"Feature","properties":{"aeroway":"apron"},"geometry":{"type":"Polygon","coordinates":[[[139.776026,35.559556],[139.774893,35.559014],[139.774603,35.558882],[139.774236,35.559395],[139.773391,35.558991],[139.774334,35.557682],[139.776204,35.55504],[139.777834,35.552732],[139.779474,35.550432],[139.780176,35.549444],[139.781857,35.547078],[139.782591,35.546035],[139.784639,35.543176],[139.78855,35.545025],[139.78785,35.545994],[139.785267,35.544785],[139.784865,35.545383],[139.785117,35.546186],[139.783993,35.547792],[139.78298,35.548023],[139.782642,35.548506],[139.782907,35.549304],[139.781762,35.550913],[139.780764,35.551153],[139.780345,35.551725],[139.782285,35.552645],[139.781428,35.553786],[139.780437,35.553339],[139.776026,35.559556]]]}},{"type":"Feature","properties":{"aeroway":"taxiway","ref":"A8","surface":"asphalt"},"geometry":{"type":"LineString","coordinates":[[139.780264,35.547796],[139.780203,35.547853],[139.780138,35.547904],[139.780071,35.547945],[139.780003,35.547978],[139.779934,35.548],[139.779846,35.54802],[139.779769,35.548028],[139.779678,35.548029],[139.779607,35.548021],[139.779542,35.548006],[139.779453,35.547985]]}},{"type":"Feature","properties":{"aeroway":"taxiway","ref":"W","surface":"asphalt"},"geometry":{"type":"LineString","coordinates":[[139.780686,35.548997],[139.780915,35.548678],[139.781171,35.548318],[139.781336,35.548091],[139.781863,35.54735],[139.782327,35.546697],[139.78248,35.546479]]}},{"type":"Feature","properties":{"aeroway":"terminal","name":"\u7b2c1\u65c5\u5ba2\u30bf\u30fc\u30df\u30ca\u30eb"},"geometry":{"type":"Polygon","coordinates":[[[139.78219,35.552294],[139.78224,35.552318],[139.78242,35.552066],[139.781962,35.551849],[139.782176,35.551554],[139.782623,35.550936],[139.78265,35.550891],[139.782797,35.550961],[139.78299,35.551055],[139.783145,35.550842],[139.783176,35.5508],[139.783196,35.550772],[139.783225,35.550732],[139.783253,35.550694],[139.783305,35.550622],[139.783349,35.550562],[139.783359,35.550548],[139.783389,35.550508],[139.783505,35.550343],[139.783598,35.550213],[139.783695,35.550078],[139.783727,35.550033],[139.783779,35.549962],[139.783851,35.549863],[139.78391,35.549782],[139.784032,35.54961],[139.784128,35.549478],[139.784289,35.549251],[139.78442,35.54907],[139.784586,35.548852],[139.78478,35.548575],[139.784959,35.548322],[139.784992,35.548275],[139.785038,35.54821],[139.785088,35.548142],[139.785142,35.548068],[139.785168,35.548032],[139.785202,35.547985],[139.785296,35.547854],[139.78539,35.547723],[139.78555,35.5475],[139.785698,35.547295],[139.785723,35.547259],[139.785779,35.547181],[139.785898,35.547016],[139.785708,35.546925],[139.785597,35.546871],[139.785528,35.546839],[139.785934,35.546266],[139.785986,35.546194],[139.786214,35.545874],[139.786671,35.546089],[139.786849,35.545838],[139.786798,35.545815],[139.787116,35.545795],[139.78713,35.545801],[139.787146,35.545803],[139.787162,35.5458],[139.787176,35.545793],[139.787185,35.545782],[139.787189,35.545769],[139.787187,35.545756],[139.78718,35.545744],[139.787168,35.545736],[139.787153,35.545731],[139.787136,35.545731],[139.787121,35.545736],[139.787109,35.545745],[139.787102,35.545757],[139.786731,35.54578],[139.786312,35.545581],[139.786552,35.545533],[139.786566,35.545542],[139.786582,35.545546],[139.7866,35.545545],[139.786615,35.545539],[139.786626,35.545528],[139.786631,35.545514],[139.78663,35.5455],[139.786622,35.545488],[139.786608,35.545479],[139.786592,35.545474],[139.786575,35.545476],[139.786559,35.545482],[139.786548,35.545493],[139.786547,35.545499],[139.786261,35.545556],[139.786141,35.545497],[139.78605,35.545214],[139.786058,35.545203],[139.78606,35.54519],[139.786057,35.545177],[139.786048,35.545167],[139.786035,35.545159],[139.786019,35.545156],[139.786003,35.545157],[139.785989,35.545163],[139.785978,35.545173],[139.785972,35.545185],[139.785972,35.545198],[139.785978,35.54521],[139.785988,35.54522],[139.786002,35.545226],[139.786084,35.545475],[139.785462,35.54518],[139.785442,35.544941],[139.785453,35.54493],[139.785458,35.544916],[139.785456,35.544902],[139.785448,35.54489],[139.785435,35.544881],[139.785418,35.544876],[139.785401,35.544878],[139.785386,35.544884],[139.785374,35.544895],[139.785369,35.544908],[139.785371,35.544923],[139.785379,35.544935],[139.785392,35.544944],[139.785413,35.545158],[139.785396,35.545152],[139.785389,35.545164],[139.78526,35.544988],[139.785266,35.544974],[139.785264,35.54496],[139.785256,35.544948],[139.785243,35.544939],[139.785226,35.544934],[139.785209,35.544936],[139.785194,35.544942],[139.785182,35.544953],[139.785177,35.544966],[139.785179,35.544981],[139.785187,35.544993],[139.7852,35.545002],[139.785217,35.545006],[139.785357,35.545201],[139.785269,35.545326],[139.785071,35.545234],[139.785066,35.545221],[139.785056,35.545211],[139.785042,35.545204],[139.785026,35.545202],[139.78501,35.545205],[139.784997,35.545212],[139.784987,35.545222],[139.784983,35.545235],[139.784984,35.545248],[139.784991,35.54526],[139.785003,35.545269],[139.785018,35.545274],[139.785034,35.545274],[139.785049,35.54527],[139.785244,35.545362],[139.785219,35.545398],[139.78532,35.545711],[139.785066,35.545657],[139.785065,35.545653],[139.785058,35.545642],[139.785048,35.545634],[139.785034,35.545629],[139.785019,35.545628],[139.785005,35.545631],[139.784993,35.545638],[139.784984,35.545648],[139.784981,35.54566],[139.784982,35.545672],[139.784989,35.545683],[139.785,35.545692],[139.785013,35.545697],[139.785028,35.545698],[139.785043,35.545694],[139.785055,35.545687],[139.785337,35.545746],[139.785373,35.545851],[139.785649,35.545982],[139.785418,35.546304],[139.785223,35.546213],[139.785218,35.546201],[139.785208,35.546191],[139.785194,35.546184],[139.785178,35.546182],[139.785162,35.546184],[139.785149,35.546191],[139.785139,35.546202],[139.785135,35.546215],[139.785136,35.546228],[139.785143,35.54624],[139.785155,35.546249],[139.78517,35.546254],[139.785186,35.546254],[139.785202,35.546249],[139.785393,35.54634],[139.78535,35.546395],[139.785129,35.546712],[139.785081,35.54678],[139.785045,35.546829],[139.784961,35.546943],[139.784913,35.547008],[139.784718,35.546917],[139.784713,35.546904],[139.784703,35.546894],[139.784689,35.546887],[139.784673,35.546885],[139.784657,35.546888],[139.784643,35.546895],[139.784634,35.546905],[139.784629,35.546918],[139.784631,35.546931],[139.784638,35.546943],[139.78465,35.546952],[139.784664,35.546957],[139.784681,35.546957],[139.784696,35.546953],[139.784887,35.547043],[139.784847,35.547098],[139.784742,35.547247],[139.784637,35.547396],[139.784581,35.547473],[139.784522,35.547556],[139.784412,35.547709],[139.78422,35.54762],[139.784215,35.547607],[139.784204,35.547597],[139.78419,35.54759],[139.784175,35.547588],[139.784159,35.547591],[139.784145,35.547598],[139.784135,35.547608],[139.784131,35.547621],[139.784132,35.547634],[139.78414,35.547646],[139.784151,35.547655],[139.784166,35.54766],[139.784182,35.54766],[139.784198,35.547656],[139.784386,35.547745],[139.784329,35.547824],[139.784095,35.548151],[139.784019,35.548258],[139.78375,35.54813],[139.783448,35.548193],[139.783251,35.54803],[139.783251,35.548018],[139.783246,35.548007],[139.783237,35.547998],[139.783225,35.547992],[139.783212,35.547989],[139.783198,35.54799],[139.783185,35.547995],[139.783174,35.548003],[139.783168,35.548013],[139.783165,35.548024],[139.783168,35.548036],[139.783174,35.548046],[139.783185,35.548054],[139.783198,35.548058],[139.783212,35.548059],[139.783389,35.548206],[139.783195,35.548244],[139.783123,35.548348],[139.782931,35.548259],[139.782926,35.548246],[139.782916,35.548236],[139.782902,35.548229],[139.782886,35.548227],[139.78287,35.54823],[139.782856,35.548237],[139.782847,35.548247],[139.782842,35.54826],[139.782844,35.548273],[139.782851,35.548285],[139.782862,35.548294],[139.782878,35.548299],[139.782894,35.548299],[139.782909,35.548295],[139.783098,35.548385],[139.782988,35.548544],[139.783038,35.548699],[139.782805,35.548648],[139.782796,35.548637],[139.782783,35.548629],[139.782768,35.548625],[139.782751,35.548626],[139.782737,35.548632],[139.782729,35.548639],[139.782726,35.548642],[139.78272,35.548654],[139.78272,35.548667],[139.782725,35.54868],[139.782736,35.54869],[139.78275,35.548696],[139.782766,35.548698],[139.782782,35.548694],[139.782795,35.548687],[139.783053,35.548744],[139.783114,35.548934],[139.782907,35.548981],[139.782892,35.548975],[139.782876,35.548974],[139.78286,35.548977],[139.782847,35.548985],[139.782838,35.548996],[139.782835,35.549008],[139.782837,35.549022],[139.782845,35.549033],[139.782858,35.549041],[139.782873,35.549046],[139.782889,35.549045],[139.782904,35.54904],[139.782916,35.549031],[139.782923,35.549019],[139.783127,35.548974],[139.783133,35.548992],[139.783412,35.549121],[139.783046,35.549639],[139.782985,35.549725],[139.782924,35.549811],[139.782867,35.549892],[139.782751,35.550054],[139.782562,35.549967],[139.782557,35.549954],[139.782547,35.549944],[139.782533,35.549937],[139.782517,35.549935],[139.782501,35.549938],[139.782488,35.549945],[139.782478,35.549955],[139.782474,35.549968],[139.782475,35.549981],[139.782482,35.549993],[139.782494,35.550002],[139.782509,35.550007],[139.782525,35.550007],[139.78254,35.550003],[139.782725,35.55009],[139.782318,35.550665],[139.782126,35.550575],[139.782121,35.550562],[139.78211,35.550552],[139.782097,35.550546],[139.782081,35.550543],[139.782065,35.550546],[139.782051,35.550553],[139.782042,35.550564],[139.782037,35.550576],[139.782038,35.550589],[139.782046,35.550601],[139.782057,35.55061],[139.782072,35.550615],[139.782088,35.550615],[139.782104,35.550611],[139.782293,35.550701],[139.782261,35.550745],[139.782202,35.550829],[139.782191,35.550846],[139.781965,35.551162],[139.781804,35.55139],[139.781529,35.551261],[139.781218,35.551327],[139.781152,35.55114],[139.781159,35.551129],[139.781161,35.551116],[139.781157,35.551103],[139.781147,35.551092],[139.781133,35.551085],[139.781118,35.551082],[139.781102,35.551084],[139.781088,35.551091],[139.781077,35.551101],[139.781072,35.551114],[139.781073,35.551127],[139.78108,35.551139],[139.781091,35.551148],[139.781106,35.551154],[139.781168,35.551337],[139.781142,35.551343],[139.780818,35.551215],[139.780813,35.551202],[139.780802,35.551192],[139.780788,35.551186],[139.780772,35.551185],[139.780756,35.551188],[139.780743,35.551196],[139.780734,35.551207],[139.78073,35.551219],[139.780732,35.551232],[139.78074,35.551244],[139.780752,35.551252],[139.780768,35.551257],[139.780784,35.551256],[139.780799,35.551251],[139.781066,35.551359],[139.780968,35.551379],[139.780845,35.551553],[139.78055,35.551609],[139.780552,35.5516],[139.780549,35.551588],[139.780545,35.551581],[139.780538,35.551576],[139.780529,35.55157],[139.78052,35.551568],[139.780511,35.551568],[139.780492,35.55157],[139.78048,35.551576],[139.780427,35.551645],[139.780424,35.551652],[139.780423,35.551664],[139.780424,35.551671],[139.780429,35.551679],[139.780443,35.551689],[139.780457,35.551693],[139.780468,35.551693],[139.78048,35.551691],[139.780493,35.551685],[139.780502,35.551677],[139.780795,35.551623],[139.780788,35.551633],[139.780828,35.551652],[139.78062,35.551751],[139.780604,35.551748],[139.780588,35.55175],[139.780574,35.551756],[139.780563,35.551766],[139.780558,35.551779],[139.780558,35.551792],[139.780564,35.551804],[139.780575,35.551814],[139.78059,35.55182],[139.780606,35.551821],[139.780622,35.551817],[139.780635,35.551809],[139.780643,35.551798],[139.780646,35.551785],[139.780878,35.551676],[139.781434,35.551938],[139.781195,35.552027],[139.78118,35.552023],[139.781164,35.552023],[139.781149,35.552028],[139.781137,35.552038],[139.78113,35.55205],[139.781129,35.552063],[139.781134,35.552075],[139.781144,35.552086],[139.781157,35.552093],[139.781173,35.552095],[139.781189,35.552093],[139.781203,35.552086],[139.781213,35.552076],[139.781218,35.552063],[139.781487,35.551963],[139.781666,35.552047],[139.781664,35.552279],[139.781653,35.552289],[139.781647,35.552301],[139.781646,35.552314],[139.781652,35.552326],[139.781662,35.552336],[139.781677,35.552342],[139.781693,35.552344],[139.781708,35.552341],[139.781722,35.552334],[139.781731,35.552323],[139.781735,35.55231],[139.781733,35.552297],[139.781725,35.552285],[139.781713,35.552277],[139.781712,35.552069],[139.782132,35.552267],[139.78219,35.552294]]]}},{"type":"Feature","properties":{"aeroway":"taxiway","surface":"asphalt"},"geometry":{"type":"LineString","coordinates":[[139.780108,35.549824],[139.780167,35.54971],[139.780195,35.549598],[139.780193,35.54949],[139.780176,35.549444],[139.780144,35.549372],[139.780112,35.549318],[139.780048,35.549256],[139.780016,35.549236],[139.779888,35.549154]]}},{"type":"Feature","properties":{"aeroway":"taxiway","surface":"asphalt"},"geometry":{"type":"LineString","coordinates":[[139.780686,35.548997],[139.780599,35.549097],[139.780497,35.549165],[139.780375,35.549213],[139.78025,35.549228],[139.780147,35.54923],[139.780057,35.549213],[139.780037,35.549207],[139.779982,35.549191],[139.779888,35.549154]]}},{"type":"Feature","properties":{"aeroway":"taxiway","ref":"W9","surface":"asphalt"},"geometry":{"type":"LineString","coordinates":[[139.779888,35.549154],[139.780023,35.549227],[139.780391,35.549425]]}}]}