{"type":"FeatureCollection","features":[{"type":"Feature","properties":{"aeroway":"terminal","name":"\u7b2c3\u65c5\u5ba2\u30bf\u30fc\u30df\u30ca\u30eb"},"geometry":{"type":"Polygon","coordinates":[[[139.76576,35.547673],[139.765942,35.547567],[139.765934,35.547577],[139.766506,35.547844],[139.766403,35.547995],[139.766378,35.54803],[139.766407,35.548043],[139.76642,35.548025],[139.766447,35.548037],[139.766468,35.548006],[139.766445,35.547996],[139.766538,35.547859],[139.767128,35.548134],[139.767027,35.548281],[139.767,35.54832],[139.767029,35.548333],[139.767042,35.548315],[139.767069,35.548327],[139.76709,35.548296],[139.767067,35.548285],[139.76716,35.548148],[139.767977,35.548529],[139.767866,35.548691],[139.767845,35.548722],[139.767874,35.548735],[139.767887,35.548716],[139.767914,35.548729],[139.767935,35.548698],[139.767912,35.548687],[139.768009,35.548544],[139.768714,35.548873],[139.768601,35.549039],[139.768579,35.549071],[139.768607,35.549084],[139.76862,35.549065],[139.768648,35.549078],[139.768669,35.549047],[139.768645,35.549036],[139.768746,35.548888],[139.769432,35.549208],[139.769321,35.54937],[139.769298,35.549405],[139.769326,35.549418],[139.769339,35.549399],[139.769366,35.549412],[139.769388,35.549381],[139.769364,35.54937],[139.769465,35.549222],[139.770182,35.549557],[139.770072,35.549718],[139.770043,35.54976],[139.770072,35.549772],[139.770085,35.549754],[139.770112,35.549766],[139.770133,35.549735],[139.77011,35.549725],[139.770214,35.549572],[139.770761,35.549827],[139.77078,35.549801],[139.7708,35.550033],[139.770785,35.550056],[139.770774,35.550074],[139.770803,35.550087],[139.770816,35.550068],[139.770843,35.55008],[139.770864,35.55005],[139.770841,35.550039],[139.770816,35.549752],[139.770935,35.549572],[139.770493,35.549365],[139.770392,35.549316],[139.767932,35.548161],[139.767936,35.548117],[139.76794,35.548065],[139.767947,35.547977],[139.767961,35.547805],[139.768037,35.547694],[139.76811,35.547588],[139.768166,35.547506],[139.768208,35.547445],[139.768397,35.54719],[139.768452,35.547116],[139.76872,35.547237],[139.768735,35.547218],[139.768752,35.547192],[139.768488,35.547065],[139.76885,35.546557],[139.769114,35.546682],[139.769133,35.546661],[139.769152,35.54664],[139.768887,35.546506],[139.769156,35.546123],[139.76925,35.545998],[139.769515,35.546117],[139.769535,35.546094],[139.769548,35.546076],[139.769278,35.545951],[139.769546,35.545558],[139.769798,35.545521],[139.769852,35.545516],[139.769975,35.545364],[139.769949,35.54531],[139.769857,35.545118],[139.769843,35.545088],[139.770068,35.544784],[139.77034,35.544906],[139.770359,35.544879],[139.770379,35.544851],[139.770108,35.544729],[139.770478,35.54423],[139.77077,35.544364],[139.770799,35.544322],[139.770816,35.544298],[139.770522,35.544167],[139.770883,35.543665],[139.771155,35.543786],[139.771196,35.543728],[139.77123,35.543678],[139.770964,35.543559],[139.771205,35.543226],[139.77124,35.543164],[139.771254,35.543109],[139.771258,35.543078],[139.771564,35.543088],[139.771627,35.543118],[139.77169,35.543035],[139.771729,35.542982],[139.771266,35.542961],[139.771277,35.542778],[139.771294,35.542708],[139.771324,35.542646],[139.771659,35.542187],[139.771913,35.542306],[139.771936,35.542274],[139.771993,35.542199],[139.771739,35.542078],[139.771857,35.541916],[139.771785,35.541888],[139.771734,35.541863],[139.771987,35.541517],[139.77232,35.541676],[139.772333,35.541658],[139.772344,35.541642],[139.771951,35.541454],[139.771684,35.541837],[139.771648,35.541822],[139.771341,35.542256],[139.771271,35.542223],[139.770962,35.542656],[139.77103,35.542688],[139.771004,35.543066],[139.770928,35.543034],[139.770749,35.543291],[139.770817,35.543318],[139.770564,35.543676],[139.770462,35.543622],[139.770439,35.543646],[139.770046,35.54419],[139.769583,35.543971],[139.769525,35.54405],[139.769482,35.54403],[139.769397,35.544151],[139.769011,35.54405],[139.768897,35.544],[139.768977,35.543891],[139.76908,35.543743],[139.768967,35.543688],[139.768605,35.544187],[139.768449,35.544422],[139.768422,35.544413],[139.768396,35.544401],[139.768381,35.54442],[139.768245,35.544358],[139.768206,35.54441],[139.768182,35.544442],[139.768158,35.544475],[139.768071,35.54444],[139.767954,35.544523],[139.76785,35.544668],[139.767821,35.544709],[139.767732,35.544834],[139.76773,35.544836],[139.76744,35.545242],[139.767395,35.545303],[139.767586,35.545386],[139.767624,35.545325],[139.767676,35.545349],[139.767954,35.54495],[139.768072,35.544873],[139.76815,35.544754],[139.768188,35.544769],[139.768205,35.544779],[139.768164,35.544837],[139.767642,35.545571],[139.767848,35.54567],[139.768646,35.545999],[139.768707,35.54602],[139.76872,35.546026],[139.768798,35.54607],[139.767728,35.547464],[139.767459,35.547339],[139.767378,35.54745],[139.767287,35.547575],[139.767486,35.547672],[139.767432,35.547744],[139.767388,35.547807],[139.767356,35.547854],[139.767336,35.547882],[139.766095,35.547289],[139.766072,35.547323],[139.766024,35.547392],[139.76594,35.547518],[139.765734,35.547633],[139.765722,35.547655],[139.765709,35.547673],[139.765689,35.547702],[139.765717,35.547715],[139.765728,35.547699],[139.765758,35.547713],[139.76578,35.547682],[139.76576,35.547673]]]}},{"type":"Feature","properties":{"aeroway":"taxiway","surface":"asphalt"},"geometry":{"type":"LineString","coordinates":[[139.771131,35.5474],[139.771064,35.54736],[139.771005,35.547312],[139.770954,35.547259],[139.770912,35.547201],[139.770879,35.547139],[139.770856,35.547074],[139.770845,35.547007],[139.770844,35.546939],[139.770854,35.546872],[139.770874,35.546806],[139.770905,35.546744]]}},{"type":"Feature","properties":{"aeroway":"taxiway","ref":"V","surface":"asphalt"},"geometry":{"type":"LineString","coordinates":[[139.771604,35.545754],[139.771492,35.545916],[139.77144,35.545989],[139.771204,35.54632],[139.771161,35.546382],[139.77111,35.54645],[139.77095,35.546679],[139.770905,35.546744],[139.770748,35.546964],[139.77036,35.547508],[139.770344,35.547529],[139.769949,35.54808]]}},{"type":"Feature","properties":{"aeroway":"taxiway","surface":"asphalt"},"geometry":{"type":"LineString","coordinates":[[139.771131,35.5474],[139.771061,35.547377],[139.770988,35.54736],[139.770913,35.54735],[139.770838,35.547347],[139.770762,35.547351],[139.770687,35.547361],[139.770615,35.547378],[139.770545,35.547402],[139.770478,35.547432],[139.770416,35.547467],[139.77036,35.547508]]}},{"type":"Feature","properties":{"aeroway":"terminal","name":"\u30d3\u30b8\u30cd\u30b9\u30b8\u30a7\u30c3\u30c8\u5c02\u7528\u30b2\u30fc\u30c8"},"geometry":{"type":"Polygon","coordinates":[[[139.766024,35.547392],[139.76595,35.547355],[139.765822,35.54754],[139.765209,35.547263],[139.765168,35.54724],[139.765112,35.547244],[139.765057,35.547232],[139.765008,35.547204],[139.76497,35.547174],[139.764994,35.547136],[139.765029,35.547171],[139.765077,35.547196],[139.765132,35.547207],[139.765188,35.547203],[139.765244,35.547184],[139.765289,35.54715],[139.765317,35.547106],[139.765389,35.54699],[139.766009,35.547271],[139.765997,35.547289],[139.766072,35.547323],[139.766024,35.547392]]]}}]}