{"type":"FeatureCollection","features":[{"type":"Feature","properties":{"aeroway":"taxiway","ref":"W","surface":"asphalt"},"geometry":{"type":"LineString","coordinates":[[139.78484,35.543147],[139.784896,35.543062],[139.785138,35.542732],[139.78542,35.54234],[139.785451,35.542287],[139.785688,35.541947],[139.78594,35.541594],[139.785991,35.541522]]}},{"type":"Feature","properties":{"aeroway":"taxiway","surface":"asphalt"},"geometry":{"type":"LineString","coordinates":[[139.781245,35.545424],[139.781311,35.545445],[139.781368,35.54546],[139.781428,35.545468],[139.781495,35.545474],[139.781569,35.545474],[139.781642,35.545468],[139.781704,35.545457],[139.781767,35.54544],[139.781824,35.545421],[139.781881,35.545395],[139.781928,35.545368],[139.781985,35.545328],[139.782032,35.545287],[139.782073,35.545248]]}},{"type":"Feature","properties":{"aeroway":"taxiway","surface":"asphalt"},"geometry":{"type":"LineString","coordinates":[[139.781525,35.546015],[139.78157,35.545976],[139.781619,35.54594],[139.78167,35.545909],[139.781731,35.545881],[139.781783,35.545862],[139.781853,35.545847],[139.781915,35.545837],[139.781976,35.545836],[139.782042,35.545839],[139.782114,35.54585],[139.782159,35.545861],[139.782204,35.545876]]}},{"type":"Feature","properties":{"aeroway":"taxiway","surface":"asphalt"},"geometry":{"type":"LineString","coordinates":[[139.779572,35.545182],[139.779605,35.545149],[139.779632,35.545124],[139.77966,35.545099],[139.779733,35.545062],[139.779795,35.545032],[139.77986,35.545007],[139.779928,35.544988],[139.779998,35.544976],[139.78007,35.544969],[139.780142,35.544968],[139.780214,35.544974],[139.780278,35.544984],[139.780346,35.545004],[139.780396,35.545021]]}},{"type":"Feature","properties":{"aeroway":"taxiway","surface":"asphalt"},"geometry":{"type":"LineString","coordinates":[[139.782022,35.545323],[139.782003,35.545374],[139.78199,35.545418],[139.78198,35.545459],[139.781978,35.545495],[139.781979,35.545548],[139.781984,35.545587],[139.781996,35.545628],[139.782014,35.545671],[139.782035,35.545711],[139.782064,35.545753],[139.782099,35.545792],[139.782137,35.545824],[139.782171,35.545851],[139.782204,35.545876]]}},{"type":"Feature","properties":{"aeroway":"taxiway","surface":"asphalt"},"geometry":{"type":"LineString","coordinates":[[139.780186,35.544317],[139.780158,35.544369],[139.780137,35.544424],[139.780123,35.54448],[139.780112,35.544542],[139.780113,35.544594],[139.780115,35.544644],[139.780123,35.54469],[139.780139,35.544736],[139.780162,35.544783],[139.78019,35.544835],[139.780226,35.544881],[139.780265,35.544923],[139.780308,35.544958],[139.78035,35.544988],[139.780396,35.545021]]}},{"type":"Feature","properties":{"aeroway":"taxiway","surface":"asphalt"},"geometry":{"type":"LineString","coordinates":[[139.781468,35.546096],[139.78149,35.546042],[139.781504,35.546009],[139.781518,35.545965],[139.781524,35.545921],[139.781528,35.545858],[139.781523,35.545809],[139.781512,35.545757],[139.7815,35.545716],[139.781478,35.545664],[139.781453,35.545618],[139.781423,35.545577],[139.781387,35.545536],[139.781342,35.545496],[139.781298,35.545459],[139.781245,35.545424]]}},{"type":"Feature","properties":{"aeroway":"taxiway","ref":"G","surface":"asphalt"},"geometry":{"type":"LineString","coordinates":[[139.784738,35.541496],[139.785157,35.541698],[139.785268,35.54175],[139.785315,35.541772],[139.785688,35.541947],[139.786199,35.542188]]}},{"type":"Feature","properties":{"aeroway":"taxiway","surface":"asphalt"},"geometry":{"type":"LineString","coordinates":[[139.779331,35.544515],[139.779411,35.544541],[139.779466,35.544555],[139.779522,35.544564],[139.77959,35.54457],[139.779674,35.544571],[139.779746,35.544564],[139.77982,35.544547],[139.779891,35.544527],[139.779946,35.544503],[139.780001,35.544475],[139.780052,35.544445],[139.780091,35.544419],[139.780136,35.544385]]}},{"type":"Feature","properties":{"aeroway":"taxiway","ref":"A6","surface":"asphalt"},"geometry":{"type":"LineString","coordinates":[[139.779868,35.544764],[139.780396,35.545021],[139.78059,35.54511],[139.780704,35.545165],[139.78112,35.545365],[139.781245,35.545424],[139.781771,35.545669]]}},{"type":"Feature","properties":{"aeroway":"taxiway","ref":"A4","surface":"asphalt"},"geometry":{"type":"LineString","coordinates":[[139.783566,35.541984],[139.78347,35.541951],[139.783368,35.541932],[139.783264,35.541927],[139.783161,35.541937],[139.783074,35.541955],[139.782951,35.542]]}},{"type":"Feature","properties":{"aeroway":"taxiway","surface":"asphalt"},"geometry":{"type":"LineString","coordinates":[[139.78594,35.541594],[139.78587,35.54166],[139.785815,35.541697],[139.785755,35.541729],[139.785685,35.541758],[139.785597,35.541775],[139.785524,35.541783],[139.785452,35.541784],[139.785387,35.541777],[139.78533,35.541766],[139.785321,35.541764],[139.785268,35.54175]]}},{"type":"Feature","properties":{"aeroway":"taxiway","surface":"asphalt"},"geometry":{"type":"LineString","coordinates":[[139.786199,35.542188],[139.786127,35.542132],[139.786075,35.542086],[139.786037,35.542042],[139.786004,35.542001],[139.785972,35.541945],[139.785951,35.541896],[139.78594,35.541847],[139.785932,35.541806],[139.785929,35.541759],[139.785933,35.541701],[139.785944,35.541643],[139.785963,35.541582],[139.785991,35.541522]]}},{"type":"Feature","properties":{"aeroway":"taxiway","surface":"asphalt"},"geometry":{"type":"LineString","coordinates":[[139.785268,35.54175],[139.785309,35.541781],[139.785345,35.541808],[139.78538,35.541847],[139.785424,35.5419],[139.785456,35.541957],[139.785473,35.542001],[139.785483,35.542049],[139.785486,35.542106],[139.785485,35.542154],[139.78548,35.542195],[139.785451,35.542287]]}},{"type":"Feature","properties":{"aeroway":"taxiway","surface":"asphalt"},"geometry":{"type":"LineString","coordinates":[[139.78542,35.54234],[139.785462,35.542309],[139.785516,35.542267],[139.78556,35.542238],[139.785628,35.542206],[139.785701,35.54218],[139.785779,35.54216],[139.785861,35.542148],[139.785944,35.542146],[139.786036,35.542151],[139.78612,35.542168],[139.786199,35.542188]]}},{"type":"Feature","properties":{"aeroway":"taxiway","surface":"asphalt"},"geometry":{"type":"LineString","coordinates":[[139.785675,35.542984],[139.785603,35.542938],[139.785558,35.542906],[139.785519,35.542864],[139.785474,35.542815],[139.785444,35.542767],[139.785414,35.542709],[139.785392,35.542644],[139.785382,35.542589],[139.785375,35.542519],[139.78538,35.542466],[139.785396,35.542414],[139.78542,35.54234]]}},{"type":"Feature","properties":{"aeroway":"taxiway","surface":"asphalt"},"geometry":{"type":"LineString","coordinates":[[139.78542,35.54234],[139.785358,35.542404],[139.785308,35.54245],[139.78526,35.542482],[139.785201,35.54251],[139.785142,35.542535],[139.785077,35.542551],[139.785025,35.542561],[139.78496,35.542565],[139.784899,35.542565],[139.784844,35.542559],[139.784804,35.542554],[139.784768,35.542544],[139.784692,35.542518]]}},{"type":"Feature","properties":{"aeroway":"taxiway","surface":"asphalt"},"geometry":{"type":"LineString","coordinates":[[139.78484,35.543147],[139.784901,35.543091],[139.784959,35.54305],[139.785017,35.543015],[139.785075,35.542985],[139.785139,35.542962],[139.785211,35.542946],[139.785279,35.542932],[139.785365,35.542928],[139.785488,35.542933],[139.785579,35.542952],[139.785675,35.542984]]}},{"type":"Feature","properties":{"aeroway":"taxiway","surface":"asphalt"},"geometry":{"type":"LineString","coordinates":[[139.784896,35.543062],[139.784921,35.54299],[139.784933,35.542931],[139.784933,35.542869],[139.784921,35.542796],[139.784898,35.542731],[139.784859,35.542667],[139.784811,35.54261],[139.784755,35.542562],[139.784692,35.542518]]}},{"type":"Feature","properties":{"aeroway":"taxiway","surface":"asphalt"},"geometry":{"type":"LineString","coordinates":[[139.784424,35.541932],[139.784375,35.541977],[139.784331,35.54201],[139.784273,35.542045],[139.7842,35.542073],[139.78412,35.542094],[139.78404,35.542109],[139.783964,35.542111],[139.783896,35.542105],[139.783837,35.542095],[139.783766,35.542077]]}},{"type":"Feature","properties":{"aeroway":"taxiway","surface":"asphalt"},"geometry":{"type":"LineString","coordinates":[[139.784607,35.542478],[139.784549,35.542434],[139.784515,35.542408],[139.78447,35.542363],[139.784434,35.542305],[139.784409,35.542252],[139.78439,35.542194],[139.784384,35.542141],[139.784384,35.542079],[139.784391,35.542032],[139.784408,35.541981],[139.784424,35.541932]]}},{"type":"Feature","properties":{"aeroway":"taxiway","ref":"W6","surface":"asphalt"},"geometry":{"type":"LineString","coordinates":[[139.782292,35.545918],[139.782334,35.545946],[139.782346,35.545956],[139.782368,35.545974],[139.7824,35.546002],[139.782431,35.546036],[139.782461,35.546079],[139.782484,35.546118],[139.7825,35.546154],[139.782522,35.546224],[139.782528,35.546285],[139.782523,35.546351],[139.782506,35.546408],[139.78248,35.546479]]}},{"type":"Feature","properties":{"aeroway":"taxiway","ref":"W6","surface":"asphalt"},"geometry":{"type":"LineString","coordinates":[[139.782292,35.545918],[139.782338,35.545931],[139.78236,35.545936],[139.782394,35.545945],[139.782445,35.545952],[139.782491,35.545956],[139.782548,35.545956],[139.782608,35.545952],[139.782652,35.545945],[139.782705,35.545935],[139.782757,35.545916],[139.782801,35.545897],[139.782844,35.545875],[139.782891,35.545847],[139.782931,35.545816],[139.782978,35.545774]]}},{"type":"Feature","properties":{"aeroway":"taxiway","ref":"A6","surface":"asphalt"},"geometry":{"type":"LineString","coordinates":[[139.78112,35.545365],[139.781048,35.545347],[139.78098,35.545335],[139.780905,35.545329],[139.780832,35.545329],[139.780766,35.545334],[139.780705,35.545345],[139.780633,35.545361],[139.780539,35.545398]]}},{"type":"Feature","properties":{"aeroway":"taxiway","surface":"asphalt"},"geometry":{"type":"LineString","coordinates":[[139.783941,35.542617],[139.78401,35.542562],[139.784062,35.542526],[139.784102,35.542504],[139.78415,35.542483],[139.784202,35.542469],[139.784257,35.542454],[139.784323,35.542446],[139.784383,35.542444],[139.784452,35.542447],[139.784519,35.542456],[139.784607,35.542478]]}},{"type":"Feature","properties":{"aeroway":"taxiway","surface":"asphalt"},"geometry":{"type":"LineString","coordinates":[[139.784314,35.541299],[139.784386,35.541349],[139.784394,35.541358],[139.784442,35.541409],[139.78448,35.541466],[139.78451,35.541532],[139.784527,35.541601],[139.784531,35.541671],[139.784522,35.54174],[139.7845,35.541808],[139.784484,35.541846]]}},{"type":"Feature","properties":{"aeroway":"taxiway","surface":"asphalt"},"geometry":{"type":"LineString","coordinates":[[139.784484,35.541846],[139.784523,35.541813],[139.784561,35.541784],[139.784604,35.541756],[139.784671,35.541718],[139.784738,35.541691],[139.784817,35.541672],[139.784895,35.541662],[139.784967,35.541662],[139.785035,35.541669],[139.785089,35.541681],[139.785157,35.541698]]}},{"type":"Feature","properties":{"aeroway":"taxiway","ref":"A5","surface":"asphalt"},"geometry":{"type":"LineString","coordinates":[[139.782951,35.542],[139.782618,35.542164],[139.782391,35.542284],[139.782075,35.542476],[139.781676,35.542747],[139.781455,35.542914],[139.781426,35.54294],[139.781257,35.543084],[139.78093,35.543384],[139.780603,35.543729]]}},{"type":"Feature","properties":{"aeroway":"taxiway","surface":"asphalt"},"geometry":{"type":"LineString","coordinates":[[139.783872,35.542714],[139.78391,35.542627],[139.783925,35.542581],[139.783935,35.542534],[139.783936,35.542477],[139.783935,35.542438],[139.783929,35.54239],[139.783915,35.542336],[139.783896,35.542283],[139.783874,35.542241],[139.783847,35.542198],[139.783817,35.54216],[139.783781,35.542121],[139.783723,35.542071],[139.78366,35.542029]]}},{"type":"Feature","properties":{"aeroway":"taxiway","surface":"asphalt"},"geometry":{"type":"LineString","coordinates":[[139.782005,35.541753],[139.782066,35.541703],[139.782118,35.541672],[139.782162,35.541651],[139.78225,35.541618],[139.782318,35.541596],[139.78239,35.54158],[139.782461,35.541572],[139.782526,35.54157],[139.78258,35.541572],[139.782646,35.54158],[139.782716,35.541596],[139.782791,35.541619]]}},{"type":"Feature","properties":{"aeroway":"taxiway","ref":"A4","surface":"asphalt"},"geometry":{"type":"LineString","coordinates":[[139.782276,35.541372],[139.782791,35.541619],[139.782997,35.541717],[139.783112,35.541771],[139.783271,35.541846],[139.783566,35.541984],[139.78366,35.542029],[139.783766,35.542077],[139.784179,35.542275]]}},{"type":"Feature","properties":{"aeroway":"taxiway","ref":"W6","surface":"asphalt"},"geometry":{"type":"LineString","coordinates":[[139.781771,35.545669],[139.782204,35.545876],[139.782292,35.545918]]}},{"type":"Feature","properties":{"aeroway":"taxiway","ref":"G","surface":"asphalt"},"geometry":{"type":"LineString","coordinates":[[139.786199,35.542188],[139.788595,35.543328],[139.789438,35.543728]]}},{"type":"Feature","properties":{"aeroway":"taxiway","ref":"H","surface":"asphalt"},"geometry":{"type":"LineString","coordinates":[[139.784179,35.542275],[139.784607,35.542478],[139.784692,35.542518],[139.784762,35.542552],[139.785138,35.542732],[139.785443,35.542872],[139.785675,35.542984],[139.786642,35.543444],[139.78735,35.543777],[139.788018,35.544094],[139.788057,35.544111]]}},{"type":"Feature","properties":{"aeroway":"taxiway","ref":"W","surface":"asphalt"},"geometry":{"type":"LineString","coordinates":[[139.78248,35.546479],[139.782655,35.54623],[139.782918,35.545863],[139.782978,35.545774],[139.783455,35.545106],[139.783899,35.544482],[139.784097,35.544188],[139.784115,35.544161],[139.784435,35.543721],[139.784568,35.543538],[139.784665,35.543402],[139.78484,35.543147]]}},{"type":"Feature","properties":{"aeroway":"taxiway","ref":"A","surface":"asphalt"},"geometry":{"type":"LineString","coordinates":[[139.780264,35.547796],[139.781043,35.546696],[139.781468,35.546096],[139.781525,35.546015],[139.781771,35.545669],[139.782022,35.545323],[139.782073,35.545248]]}},{"type":"Feature","properties":{"aeroway":"taxiway","ref":"A","surface":"asphalt"},"geometry":{"type":"LineString","coordinates":[[139.782073,35.545248],[139.783146,35.543737],[139.783872,35.542714]]}},{"type":"Feature","properties":{"aeroway":"taxiway","ref":"A","surface":"asphalt"},"geometry":{"type":"LineString","coordinates":[[139.783872,35.542714],[139.783941,35.542617],[139.784179,35.542275],[139.784424,35.541932],[139.784484,35.541846],[139.784738,35.541496],[139.784979,35.541152],[139.78502,35.54109]]}},{"type":"Feature","properties":{"aeroway":"taxiway","ref":"L5","surface":"asphalt"},"geometry":{"type":"LineString","coordinates":[[139.780834,35.541796],[139.780834,35.541863],[139.780839,35.542266],[139.780802,35.542648],[139.780779,35.542755],[139.780718,35.543045],[139.780595,35.543445],[139.780394,35.543942],[139.780186,35.544317]]}},{"type":"Feature","properties":{"aeroway":"taxiway","surface":"asphalt"},"geometry":{"type":"LineString","coordinates":[[139.782951,35.542],[139.783271,35.541846],[139.784094,35.541451]]}}]}