{"type":"FeatureCollection","features":[{"type":"Feature","properties":{"aeroway":"runway","ref":"05/23","name":"\u6771\u4eac\u56fd\u969b\u7a7a\u6e2fD\u6ed1\u8d70\u8def","surface":"asphalt"},"geometry":{"type":"LineString","coordinates":[[139.803471,35.523996],[139.803614,35.524122],[139.804077,35.524553],[139.804712,35.525113],[139.80535,35.525679],[139.80634,35.526564],[139.807227,35.527358],[139.80808,35.52811],[139.808464,35.528447],[139.808583,35.528553],[139.80939,35.529274],[139.810337,35.530125],[139.81064,35.530403],[139.810833,35.530562],[139.813046,35.532543],[139.815293,35.53453],[139.817535,35.536524],[139.818014,35.536951],[139.818708,35.537565],[139.818796,35.537644],[139.819308,35.538098],[139.819785,35.538521],[139.822004,35.540498],[139.822018,35.540508],[139.82205,35.540536]]}},{"type":"Feature","properties":{"aeroway":"taxiway","ref":"D","surface":"asphalt"},"geometry":{"type":"LineString","coordinates":[[139.816349,35.538131],[139.81591,35.53774],[139.813672,35.535749],[139.811436,35.53376],[139.808716,35.53134],[139.80776,35.530489],[139.807389,35.530163],[139.806942,35.52976],[139.80656,35.529419],[139.806477,35.52935]]}},{"type":"Feature","properties":{"aeroway":"taxiway","ref":"R","surface":"asphalt"},"geometry":{"type":"LineString","coordinates":[[139.804917,35.530481],[139.804968,35.530407],[139.805086,35.530241],[139.805238,35.530035],[139.805434,35.529749],[139.805615,35.529503],[139.805679,35.529414],[139.805786,35.529259],[139.805832,35.529194],[139.805852,35.529163],[139.806012,35.528937]]}},{"type":"Feature","properties":{"aeroway":"taxiway","surface":"asphalt"},"geometry":{"type":"LineString","coordinates":[[139.805086,35.530241],[139.805155,35.530183],[139.805205,35.530149],[139.805269,35.530115],[139.805334,35.530092],[139.805407,35.53007],[139.805486,35.530062],[139.80558,35.53006],[139.805667,35.53007],[139.805739,35.530088],[139.805805,35.530121],[139.805898,35.530164],[139.805942,35.530209],[139.80599,35.530253],[139.806022,35.530304],[139.806053,35.530352],[139.806071,35.530407],[139.80608,35.530467],[139.806087,35.530518],[139.806079,35.530579],[139.806069,35.530625],[139.806047,35.530686]]}},{"type":"Feature","properties":{"aeroway":"taxiway","surface":"asphalt"},"geometry":{"type":"LineString","coordinates":[[139.806343,35.530267],[139.806395,35.530213],[139.806454,35.530158],[139.806512,35.530118],[139.806575,35.530084],[139.806642,35.530055],[139.806713,35.530033],[139.806786,35.530017],[139.806861,35.530007],[139.806937,35.530004],[139.807012,35.530008],[139.807075,35.530019],[139.80714,35.530036],[139.807202,35.530058],[139.807264,35.530086],[139.807314,35.530116],[139.807389,35.530163]]}},{"type":"Feature","properties":{"aeroway":"taxiway","surface":"asphalt"},"geometry":{"type":"LineString","coordinates":[[139.805741,35.530027],[139.80579,35.530057],[139.805836,35.530083],[139.805892,35.530107],[139.805948,35.530124],[139.806002,35.530137],[139.806062,35.530143],[139.806128,35.530143],[139.806189,35.53014],[139.806252,35.530131],[139.806313,35.530115],[139.806372,35.530092],[139.806425,35.530064],[139.806469,35.530038],[139.806513,35.530005],[139.806571,35.52995]]}},{"type":"Feature","properties":{"aeroway":"taxiway","surface":"asphalt"},"geometry":{"type":"LineString","coordinates":[[139.805142,35.529493],[139.80519,35.529548],[139.805218,35.529593],[139.805235,35.529636],[139.805252,35.529687],[139.805266,35.52975],[139.805275,35.529819],[139.805275,35.529882],[139.805269,35.529952],[139.805238,35.530035]]}},{"type":"Feature","properties":{"aeroway":"taxiway","ref":"E","surface":"asphalt"},"geometry":{"type":"LineString","coordinates":[[139.806571,35.52995],[139.806343,35.530267],[139.806047,35.530686],[139.805915,35.530874],[139.805873,35.530932]]}},{"type":"Feature","properties":{"aeroway":"taxiway","ref":"D5","surface":"asphalt"},"geometry":{"type":"LineString","coordinates":[[139.81064,35.530403],[139.810288,35.530161],[139.810063,35.530007],[139.809684,35.52979],[139.809391,35.529653],[139.809057,35.529509],[139.808454,35.529306],[139.807867,35.529103],[139.807156,35.528866]]}}]}