{"type":"FeatureCollection","features":[{"type":"Feature","properties":{"aeroway":"taxiway","ref":"P4","surface":"asphalt"},"geometry":{"type":"LineString","coordinates":[[139.77915,35.540392],[139.779205,35.540331],[139.779272,35.540279],[139.779349,35.540237],[139.779434,35.540206],[139.779523,35.540187],[139.779616,35.54018],[139.779708,35.540187],[139.779798,35.540206],[139.77989,35.540241]]}},{"type":"Feature","properties":{"aeroway":"taxiway","ref":"P4","surface":"asphalt"},"geometry":{"type":"LineString","coordinates":[[139.77989,35.540241],[139.779822,35.540201],[139.779789,35.540182],[139.779746,35.540144],[139.7797,35.540099],[139.779664,35.540043],[139.779637,35.539983],[139.779617,35.539917],[139.779612,35.539853],[139.779616,35.539802],[139.779629,35.539749],[139.779644,35.539704],[139.779671,35.539648]]}}]}