{"type":"FeatureCollection","features":[{"type":"Feature","properties":{"aeroway":"taxiway","ref":"T2","surface":"asphalt"},"geometry":{"type":"LineString","coordinates":[[139.761584,35.550207],[139.761654,35.550184],[139.761717,35.550168],[139.761778,35.550156],[139.761841,35.55015],[139.761908,35.550149],[139.761974,35.550152],[139.76204,35.550158],[139.762115,35.55017],[139.762183,35.550192],[139.762251,35.550226],[139.762302,35.550261],[139.762358,35.550298],[139.762416,35.550344]]}},{"type":"Feature","properties":{"aeroway":"taxiway","ref":"B2","surface":"asphalt"},"geometry":{"type":"LineString","coordinates":[[139.761773,35.549603],[139.761794,35.54962],[139.761817,35.549638],[139.761866,35.549671],[139.76192,35.5497],[139.761982,35.549724],[139.762041,35.549739],[139.762112,35.549752],[139.762186,35.549757],[139.762256,35.549754],[139.762324,35.549743],[139.762395,35.549724],[139.762452,35.549704],[139.762514,35.549675],[139.762577,35.549642]]}},{"type":"Feature","properties":{"aeroway":"taxiway","ref":"T2","surface":"asphalt"},"geometry":{"type":"LineString","coordinates":[[139.76009,35.551063],[139.76003,35.551116],[139.759992,35.551152],[139.759961,35.551195],[139.759929,35.551249],[139.759902,35.551304],[139.759888,35.551363],[139.759878,35.551423],[139.759879,35.551506],[139.759891,35.551577],[139.759912,35.551629],[139.759918,35.551646],[139.759951,35.551718]]}},{"type":"Feature","properties":{"aeroway":"taxiway","ref":"T3","surface":"asphalt"},"geometry":{"type":"LineString","coordinates":[[139.76085,35.550623],[139.760964,35.550586],[139.761053,35.55057],[139.761135,35.550562],[139.76122,35.550562],[139.761306,35.55057],[139.761373,35.550585],[139.761426,35.550599]]}},{"type":"Feature","properties":{"aeroway":"taxiway","ref":"T4","surface":"asphalt"},"geometry":{"type":"LineString","coordinates":[[139.7605,35.552357],[139.760472,35.552303],[139.76044,35.552236],[139.760424,35.55217],[139.760419,35.552124],[139.760416,35.552061],[139.760432,35.551976],[139.760455,35.551908],[139.760492,35.551838],[139.76054,35.551774],[139.760598,35.551716],[139.760656,35.551672]]}},{"type":"Feature","properties":{"aeroway":"taxiway","surface":"asphalt"},"geometry":{"type":"LineString","coordinates":[[139.759226,35.550873],[139.759174,35.550827],[139.759126,35.550791],[139.759061,35.550756],[139.75899,35.550729],[139.758914,35.550709],[139.758845,35.550701],[139.758776,35.5507],[139.758714,35.550704],[139.758652,35.550715],[139.758594,35.550732],[139.758524,35.550755]]}},{"type":"Feature","properties":{"aeroway":"taxiway","ref":"T3","surface":"asphalt"},"geometry":{"type":"LineString","coordinates":[[139.761426,35.550599],[139.762244,35.550982],[139.762552,35.551134],[139.762753,35.551246],[139.763102,35.55146],[139.763391,35.551666],[139.76372,35.551941],[139.764039,35.552234]]}},{"type":"Feature","properties":{"aeroway":"taxiway","ref":"B2","surface":"asphalt"},"geometry":{"type":"LineString","coordinates":[[139.762416,35.550344],[139.762382,35.550291],[139.762356,35.550235],[139.762336,35.550177],[139.762325,35.550117],[139.762322,35.550057],[139.762327,35.549997],[139.762335,35.549944],[139.762355,35.549884],[139.76239,35.549825],[139.762426,35.549773],[139.76247,35.549724],[139.762519,35.549679],[139.762577,35.549642]]}},{"type":"Feature","properties":{"aeroway":"taxiway","ref":"T2","surface":"asphalt"},"geometry":{"type":"LineString","coordinates":[[139.761584,35.550207],[139.761671,35.55015],[139.761713,35.550113],[139.76175,35.55007],[139.761787,35.550022],[139.761811,35.549971],[139.76183,35.549918],[139.76184,35.549854],[139.761838,35.549787],[139.761829,35.549744],[139.761817,35.549696],[139.761793,35.549642],[139.761773,35.549603]]}},{"type":"Feature","properties":{"aeroway":"taxiway","ref":"T2","surface":"asphalt"},"geometry":{"type":"LineString","coordinates":[[139.759331,35.550997],[139.759384,35.551036],[139.759432,35.55107],[139.759486,35.551098],[139.759544,35.55112],[139.759599,35.551134],[139.759658,35.551146],[139.759717,35.551151],[139.759789,35.55115],[139.759852,35.551144],[139.75991,35.551135],[139.759971,35.551116],[139.760018,35.551098],[139.76009,35.551063]]}},{"type":"Feature","properties":{"aeroway":"taxiway","surface":"asphalt"},"geometry":{"type":"LineString","coordinates":[[139.759321,35.550294],[139.759259,35.550352],[139.759214,35.550405],[139.759184,35.550457],[139.759165,35.5505],[139.759147,35.550553],[139.759141,35.550598],[139.759139,35.550657],[139.759147,35.550716],[139.759168,35.550775],[139.759189,35.550819],[139.759226,35.550873]]}},{"type":"Feature","properties":{"aeroway":"taxiway","ref":"T1","surface":"asphalt"},"geometry":{"type":"LineString","coordinates":[[139.756913,35.55168],[139.758524,35.550755],[139.759321,35.550294]]}},{"type":"Feature","properties":{"aeroway":"taxiway","ref":"N","surface":"asphalt"},"geometry":{"type":"LineString","coordinates":[[139.756804,35.552382],[139.756753,35.552304],[139.756724,35.552253],[139.756708,35.552204],[139.756699,35.552153],[139.756695,35.552102],[139.756697,35.552051],[139.756705,35.552],[139.756719,35.551951],[139.756738,35.551902],[139.756763,35.551855],[139.756793,35.55181],[139.756829,35.551768],[139.756869,35.551729],[139.756913,35.55168]]}},{"type":"Feature","properties":{"aeroway":"taxiway","ref":"B2","surface":"asphalt"},"geometry":{"type":"LineString","coordinates":[[139.762577,35.549642],[139.762745,35.54954],[139.762863,35.549473],[139.763253,35.549252],[139.763377,35.549181]]}},{"type":"Feature","properties":{"aeroway":"taxiway","ref":"T2","surface":"asphalt"},"geometry":{"type":"LineString","coordinates":[[139.76009,35.551063],[139.76085,35.550623],[139.761371,35.55033],[139.761584,35.550207]]}},{"type":"Feature","properties":{"aeroway":"taxiway","ref":"B1","surface":"asphalt"},"geometry":{"type":"LineString","coordinates":[[139.761792,35.548878],[139.762053,35.548734],[139.762166,35.548668],[139.762684,35.548367]]}},{"type":"Feature","properties":{"aeroway":"taxiway","ref":"T1","surface":"asphalt"},"geometry":{"type":"LineString","coordinates":[[139.759321,35.550294],[139.760155,35.549817],[139.760669,35.549523],[139.760947,35.549362]]}},{"type":"Feature","properties":{"aeroway":"taxiway","ref":"T","surface":"asphalt"},"geometry":{"type":"LineString","coordinates":[[139.759226,35.550873],[139.759331,35.550997],[139.759616,35.551321],[139.759674,35.551395],[139.759786,35.551525],[139.759951,35.551718],[139.760069,35.551861],[139.7605,35.552357]]}},{"type":"Feature","properties":{"aeroway":"taxiway","surface":"asphalt"},"geometry":{"type":"LineString","coordinates":[[139.756312,35.551812],[139.756741,35.552317],[139.756804,35.552382]]}},{"type":"Feature","properties":{"aeroway":"taxiway","surface":"asphalt"},"geometry":{"type":"LineString","coordinates":[[139.760947,35.549362],[139.761019,35.549336],[139.761107,35.549313],[139.761212,35.54931],[139.761277,35.549314],[139.761344,35.54932],[139.761419,35.549332],[139.761486,35.549354],[139.761554,35.549388],[139.761606,35.549422],[139.761651,35.549452],[139.761662,35.54946]]}},{"type":"Feature","properties":{"aeroway":"taxiway","surface":"asphalt"},"geometry":{"type":"LineString","coordinates":[[139.761662,35.54946],[139.761646,35.549412],[139.761626,35.549354],[139.761615,35.549294],[139.761612,35.549234],[139.761617,35.549174],[139.761625,35.54912],[139.761645,35.549061],[139.761682,35.548986],[139.761728,35.54893],[139.761792,35.548878]]}},{"type":"Feature","properties":{"aeroway":"taxiway","ref":"T6","surface":"asphalt"},"geometry":{"type":"LineString","coordinates":[[139.763022,35.553545],[139.7629,35.553514],[139.762773,35.553503],[139.762646,35.553511],[139.762522,35.55354],[139.762408,35.553587],[139.762307,35.553651]]}},{"type":"Feature","properties":{"aeroway":"taxiway","surface":"asphalt"},"geometry":{"type":"LineString","coordinates":[[139.762307,35.553651],[139.762136,35.553697],[139.761954,35.553702],[139.76176,35.553667],[139.761594,35.55359],[139.76145,35.553464]]}},{"type":"Feature","properties":{"aeroway":"taxiway","surface":"asphalt"},"geometry":{"type":"LineString","coordinates":[[139.756913,35.55168],[139.756882,35.551692],[139.756753,35.55173],[139.756625,35.551742],[139.756507,35.551738],[139.756444,35.55173]]}},{"type":"Feature","properties":{"aeroway":"taxiway","ref":"T4","surface":"asphalt"},"geometry":{"type":"LineString","coordinates":[[139.760656,35.551672],[139.760726,35.55163],[139.7608,35.551598],[139.760875,35.551574],[139.760944,35.551559],[139.761032,35.551551],[139.761102,35.551549],[139.761175,35.551554],[139.761253,35.551562],[139.761359,35.551597],[139.761469,35.551646]]}},{"type":"Feature","properties":{"aeroway":"taxiway","surface":"asphalt"},"geometry":{"type":"LineString","coordinates":[[139.759786,35.551525],[139.759879,35.551609],[139.759912,35.551629],[139.75997,35.551666],[139.760091,35.551716],[139.760228,35.551743],[139.760363,35.551751],[139.760485,35.551734],[139.760588,35.551704],[139.760656,35.551672]]}}]}