{"type":"FeatureCollection","features":[{"type":"Feature","properties":{"aeroway":"taxiway","ref":"C11","surface":"asphalt"},"geometry":{"type":"LineString","coordinates":[[139.788623,35.561391],[139.788551,35.561422],[139.788474,35.561444],[139.788382,35.561465],[139.788296,35.561472],[139.788213,35.561468],[139.788141,35.561456],[139.788067,35.561436],[139.787982,35.56141]]}},{"type":"Feature","properties":{"aeroway":"taxiway","ref":"C12","surface":"asphalt"},"geometry":{"type":"LineString","coordinates":[[139.788773,35.561782],[139.788549,35.561676],[139.788467,35.561636],[139.78842,35.561614],[139.787982,35.56141],[139.787909,35.561375],[139.787511,35.561182],[139.787385,35.561121]]}},{"type":"Feature","properties":{"aeroway":"taxiway","ref":"C11","surface":"asphalt"},"geometry":{"type":"LineString","coordinates":[[139.791081,35.559506],[139.790641,35.559994],[139.790418,35.560209],[139.79039,35.560236],[139.79013,35.560467],[139.789951,35.560605],[139.789664,35.560811],[139.789389,35.56099],[139.789159,35.561121],[139.788827,35.5613],[139.788649,35.561379],[139.788623,35.561391]]}},{"type":"Feature","properties":{"aeroway":"taxiway","ref":"C12","surface":"asphalt"},"geometry":{"type":"LineString","coordinates":[[139.789575,35.561622],[139.789508,35.561681],[139.78944,35.561726],[139.789366,35.561765],[139.789286,35.561795],[139.789202,35.561816],[139.789116,35.561828],[139.789028,35.56183],[139.788941,35.561824],[139.788855,35.561807],[139.788773,35.561782]]}},{"type":"Feature","properties":{"aeroway":"taxiway","ref":"C","surface":"asphalt"},"geometry":{"type":"LineString","coordinates":[[139.788932,35.558944],[139.788638,35.559356],[139.787695,35.56068]]}}]}