{"type":"FeatureCollection","features":[{"type":"Feature","properties":{"aeroway":"taxiway","ref":"W1","surface":"asphalt"},"geometry":{"type":"LineString","coordinates":[[139.788748,35.537645],[139.78866,35.537721],[139.7886,35.537761],[139.788546,35.537791],[139.788505,35.537812],[139.788454,35.537831],[139.788392,35.537849],[139.788318,35.537865],[139.788245,35.537872],[139.78816,35.537872],[139.788073,35.53786],[139.788008,35.537847],[139.787942,35.537829]]}},{"type":"Feature","properties":{"aeroway":"apron"},"geometry":{"type":"Polygon","coordinates":[[[139.787388,35.542092],[139.785902,35.541387],[139.790044,35.535534],[139.789972,35.535498],[139.791187,35.533804],[139.791248,35.533831],[139.79129,35.533766],[139.792648,35.534407],[139.791843,35.535544],[139.791982,35.535618],[139.787388,35.542092]]]}},{"type":"Feature","properties":{"aeroway":"taxiway","ref":"W1","surface":"asphalt"},"geometry":{"type":"LineString","coordinates":[[139.787942,35.537829],[139.788006,35.537863],[139.788052,35.537891],[139.788099,35.537929],[139.788145,35.537975],[139.788184,35.538029],[139.78821,35.538077],[139.788231,35.538133],[139.788242,35.538183],[139.788245,35.538237],[139.788239,35.538298],[139.788221,35.538363],[139.788192,35.538427]]}},{"type":"Feature","properties":{"aeroway":"taxiway","ref":"A","surface":"asphalt"},"geometry":{"type":"LineString","coordinates":[[139.787488,35.537614],[139.787803,35.537317],[139.788357,35.536781],[139.791104,35.534123]]}},{"type":"Feature","properties":{"aeroway":"taxiway","ref":"W","surface":"asphalt"},"geometry":{"type":"LineString","coordinates":[[139.788192,35.538427],[139.788234,35.538365],[139.788624,35.537819],[139.788748,35.537645],[139.789012,35.537271],[139.7894,35.536727],[139.789782,35.536181],[139.790175,35.535633],[139.790566,35.535087],[139.790956,35.534546],[139.791283,35.534073]]}},{"type":"Feature","properties":{"aeroway":"apron"},"geometry":{"type":"Polygon","coordinates":[[[139.798135,35.538882],[139.798041,35.538841],[139.797327,35.539852],[139.797424,35.5399],[139.796796,35.540786],[139.796763,35.540773],[139.79672,35.540831],[139.796746,35.540844],[139.794093,35.544578],[139.793287,35.544191],[139.795935,35.540472],[139.795476,35.540247],[139.795602,35.540075],[139.795503,35.540029],[139.797816,35.536792],[139.799067,35.537386],[139.799055,35.537405],[139.799149,35.537449],[139.798135,35.538882]]]}}]}