{"type":"FeatureCollection","features":[{"type":"Feature","properties":{"aeroway":"taxiway","ref":"S","surface":"asphalt"},"geometry":{"type":"LineString","coordinates":[[139.805898,35.530164],[139.805741,35.530027],[139.805676,35.52996],[139.805434,35.529749],[139.805142,35.529493],[139.80497,35.529339],[139.803912,35.528398],[139.803352,35.527899]]}},{"type":"Feature","properties":{"aeroway":"taxiway","ref":"R","surface":"asphalt"},"geometry":{"type":"LineString","coordinates":[[139.801474,35.535343],[139.80473,35.530743],[139.804917,35.530481]]}},{"type":"Feature","properties":{"aeroway":"taxiway","ref":"E","surface":"asphalt"},"geometry":{"type":"LineString","coordinates":[[139.805873,35.530932],[139.805686,35.531192],[139.802424,35.535799]]}}]}