{"type":"FeatureCollection","features":[{"type":"Feature","properties":{"aeroway":"taxiway","surface":"asphalt"},"geometry":{"type":"LineString","coordinates":[[139.779099,35.566651],[139.779021,35.5666],[139.778951,35.566566],[139.778868,35.566542],[139.778807,35.566529],[139.778695,35.566515],[139.778615,35.566514],[139.778524,35.566527],[139.778442,35.566545],[139.778351,35.566578]]}},{"type":"Feature","properties":{"aeroway":"taxiway","ref":"B14","surface":"asphalt"},"geometry":{"type":"LineString","coordinates":[[139.776677,35.566955],[139.776739,35.567007],[139.776809,35.567052],[139.776886,35.567089],[139.776968,35.567116],[139.777055,35.567134],[139.777144,35.567142],[139.777233,35.56714],[139.777321,35.567127],[139.77735,35.56712],[139.777406,35.567105],[139.777486,35.567074],[139.77756,35.567033],[139.777698,35.566954],[139.77782,35.566884],[139.778351,35.566578],[139.778688,35.566386],[139.77881,35.566315],[139.779207,35.566085],[139.779348,35.566004]]}},{"type":"Feature","properties":{"aeroway":"taxiway","surface":"asphalt"},"geometry":{"type":"LineString","coordinates":[[139.779348,35.566004],[139.779279,35.566072],[139.779218,35.566143],[139.779171,35.566221],[139.779141,35.566304],[139.779127,35.56639],[139.77913,35.566476],[139.77915,35.566561],[139.779187,35.566642],[139.779239,35.566718],[139.779305,35.566786]]}},{"type":"Feature","properties":{"aeroway":"apron"},"geometry":{"type":"Polygon","coordinates":[[[139.76978,35.565394],[139.771718,35.564276],[139.77479,35.567801],[139.774184,35.568131],[139.771921,35.567859],[139.76978,35.565394]]]}},{"type":"Feature","properties":{"aeroway":"taxiway","ref":"Q1","surface":"asphalt"},"geometry":{"type":"LineString","coordinates":[[139.770773,35.56432],[139.77084,35.564294],[139.7709,35.564272],[139.770964,35.564256],[139.771033,35.564246],[139.771102,35.564241],[139.771168,35.564241],[139.771243,35.564249],[139.771304,35.564259],[139.771369,35.564274],[139.771425,35.564295],[139.771479,35.564321],[139.77154,35.564357],[139.771583,35.564384],[139.771633,35.564425],[139.771688,35.564488],[139.771816,35.564642],[139.77225,35.565195],[139.772679,35.565702],[139.773136,35.566235],[139.773414,35.56653],[139.774505,35.56776],[139.774724,35.568026]]}},{"type":"Feature","properties":{"aeroway":"taxiway","surface":"asphalt"},"geometry":{"type":"LineString","coordinates":[[139.774724,35.568026],[139.774797,35.568093],[139.774846,35.568125],[139.774899,35.568154],[139.774954,35.568178],[139.775012,35.568199],[139.775072,35.568215],[139.775134,35.568226],[139.775197,35.568233],[139.77526,35.568235],[139.775323,35.568232],[139.775386,35.568225],[139.775447,35.568213],[139.775507,35.568196],[139.775565,35.568175],[139.775621,35.568151]]}},{"type":"Feature","properties":{"aeroway":"taxiway","surface":"asphalt"},"geometry":{"type":"LineString","coordinates":[[139.773861,35.568566],[139.77397,35.568568],[139.774057,35.56856],[139.774128,35.568542],[139.774204,35.568516],[139.774277,35.568484],[139.774348,35.568445],[139.774404,35.568401],[139.774453,35.568351],[139.774496,35.568298],[139.774531,35.56824],[139.774558,35.56818],[139.774576,35.568118],[139.774585,35.568055],[139.774586,35.568004],[139.774574,35.567928],[139.774558,35.567874],[139.774531,35.567809],[139.774505,35.56776]]}},{"type":"Feature","properties":{"aeroway":"taxiway","ref":"Q2","surface":"asphalt"},"geometry":{"type":"LineString","coordinates":[[139.769316,35.565213],[139.769284,35.565267],[139.769257,35.565323],[139.769239,35.565379],[139.76923,35.565422],[139.769226,35.565471],[139.769227,35.565533],[139.769233,35.565576],[139.769246,35.565627],[139.769273,35.56569],[139.769306,35.565744],[139.769341,35.565799],[139.769376,35.565848],[139.7694,35.565877],[139.769567,35.56608],[139.77008,35.566659],[139.77055,35.5672],[139.771007,35.567727],[139.771326,35.568094],[139.771362,35.568141],[139.771405,35.568184],[139.771452,35.568223],[139.771505,35.568258],[139.771562,35.568288],[139.771622,35.568313],[139.771686,35.568332],[139.771751,35.568346],[139.77221,35.568395],[139.773252,35.568488],[139.773861,35.568566],[139.774354,35.56862],[139.77443,35.568628],[139.774507,35.568631],[139.774584,35.568629],[139.77466,35.568621],[139.774736,35.568608],[139.774809,35.56859],[139.774881,35.568567],[139.77495,35.568539],[139.775015,35.568506]]}},{"type":"Feature","properties":{"aeroway":"taxiway","ref":"T14","surface":"asphalt"},"geometry":{"type":"LineString","coordinates":[[139.775015,35.568506],[139.775621,35.568151],[139.776323,35.567743],[139.776475,35.567657],[139.776552,35.567601],[139.776608,35.567554],[139.776658,35.567487],[139.77669,35.567432],[139.776711,35.56738],[139.776732,35.56732],[139.776745,35.567258],[139.776748,35.567196],[139.776743,35.567133],[139.77673,35.567072],[139.776708,35.567012],[139.776677,35.566955]]}},{"type":"Feature","properties":{"aeroway":"taxiway","surface":"asphalt"},"geometry":{"type":"LineString","coordinates":[[139.777133,35.566174],[139.777073,35.566223],[139.777024,35.566285],[139.776978,35.566368],[139.776957,35.566462],[139.776951,35.566549],[139.776966,35.566624],[139.777,35.566705],[139.777061,35.566786],[139.77735,35.56712]]}},{"type":"Feature","properties":{"aeroway":"taxiway","surface":"asphalt"},"geometry":{"type":"LineString","coordinates":[[139.778351,35.566578],[139.778502,35.566462],[139.778558,35.566378],[139.778581,35.566312],[139.77859,35.566275],[139.778597,35.566189],[139.778587,35.566117],[139.778573,35.566079],[139.7785,35.565952]]}},{"type":"Feature","properties":{"aeroway":"taxiway","surface":"asphalt"},"geometry":{"type":"LineString","coordinates":[[139.779207,35.566085],[139.77911,35.566118],[139.779002,35.566136],[139.778889,35.566134],[139.77879,35.566117],[139.778709,35.566092],[139.778629,35.566053],[139.7785,35.565952]]}}]}