{"type":"FeatureCollection","features":[{"type":"Feature","properties":{"aeroway":"runway","ref":"16R/34L","name":"\u6771\u4eac\u56fd\u969b\u7a7a\u6e2fA\u6ed1\u8d70\u8def","surface":"asphalt"},"geometry":{"type":"LineString","coordinates":[[139.785642,35.536629],[139.785573,35.536726],[139.785327,35.537073],[139.785221,35.537222],[139.783159,35.540128],[139.783113,35.540192],[139.78283,35.540591],[139.78256,35.540971],[139.782276,35.541372],[139.782005,35.541753],[139.781226,35.542851],[139.781164,35.542938],[139.780603,35.543729],[139.780186,35.544317],[139.780136,35.544385],[139.779868,35.544764],[139.779756,35.544923],[139.77959,35.545157],[139.779572,35.545182],[139.779136,35.545797],[139.778477,35.546725],[139.778149,35.547186],[139.777858,35.547583],[139.77754,35.548045],[139.777176,35.548558],[139.776919,35.54892],[139.776752,35.549155],[139.775826,35.550459],[139.775474,35.550958],[139.774939,35.55171],[139.77491,35.55175],[139.774628,35.552147],[139.774492,35.552337],[139.774343,35.552548],[139.774291,35.552616],[139.773844,35.553251],[139.772872,35.554621],[139.772284,35.555454],[139.772198,35.555575],[139.771933,35.555944],[139.77178,35.55616],[139.771632,35.556368],[139.771538,35.556498],[139.771445,35.556637],[139.771212,35.556959],[139.771017,35.557235],[139.770499,35.557959],[139.770336,35.558189],[139.76983,35.558903],[139.769798,35.558948],[139.769772,35.558985],[139.769181,35.55982],[139.769068,35.55998]]}},{"type":"Feature","properties":{"aeroway":"taxiway","ref":"A10","surface":"asphalt"},"geometry":{"type":"LineString","coordinates":[[139.776296,35.551404],[139.776297,35.551357],[139.776299,35.551105],[139.776315,35.550889],[139.776325,35.550737],[139.776362,35.55052],[139.776408,35.550297],[139.776444,35.55014],[139.776486,35.549983],[139.776533,35.549828],[139.776585,35.549673],[139.776643,35.54952],[139.776705,35.549368],[139.776773,35.549218],[139.776794,35.549176],[139.776846,35.549069],[139.776919,35.54892]]}},{"type":"Feature","properties":{"aeroway":"taxiway","ref":"W10","surface":"asphalt"},"geometry":{"type":"LineString","coordinates":[[139.77765,35.552337],[139.777198,35.552118]]}},{"type":"Feature","properties":{"aeroway":"taxiway","ref":"W10","surface":"asphalt"},"geometry":{"type":"LineString","coordinates":[[139.778394,35.55223],[139.778335,35.552277],[139.778293,35.552309],[139.778232,35.552346],[139.778173,35.552373],[139.778121,35.552389],[139.778063,35.552403],[139.778,35.552408],[139.777923,35.552409],[139.777858,35.552405],[139.777792,35.552392],[139.777778,35.552387],[139.777722,35.552368],[139.77765,35.552337]]}},{"type":"Feature","properties":{"aeroway":"taxiway","ref":"W10","surface":"asphalt"},"geometry":{"type":"LineString","coordinates":[[139.777901,35.552926],[139.777926,35.552864],[139.77794,35.552811],[139.777944,35.552751],[139.777945,35.552705],[139.777937,35.552652],[139.77792,35.552602],[139.777909,35.552573],[139.777879,35.552522],[139.777849,35.552482],[139.777806,35.552438],[139.777766,35.552405],[139.777721,35.552375],[139.77765,35.552337]]}},{"type":"Feature","properties":{"aeroway":"taxiway","ref":"A10","surface":"asphalt"},"geometry":{"type":"LineString","coordinates":[[139.777493,35.551703],[139.777426,35.551761],[139.777374,35.5518],[139.77732,35.551834],[139.77726,35.551863],[139.777196,35.551888],[139.777122,35.551908],[139.777046,35.551917],[139.776966,35.551922],[139.776892,35.551921],[139.776817,35.551912],[139.776748,35.551896],[139.776682,35.551876],[139.776601,35.551841],[139.77655,35.55181],[139.7765,35.551773],[139.776448,35.551726],[139.776404,35.551676],[139.77636,35.551615],[139.776329,35.551553],[139.776308,35.551481],[139.776296,35.551404]]}},{"type":"Feature","properties":{"aeroway":"taxiway","surface":"asphalt"},"geometry":{"type":"LineString","coordinates":[[139.777731,35.553164],[139.777674,35.553222],[139.777617,35.553256],[139.777555,35.553284],[139.777481,35.553316],[139.777412,35.553332],[139.77735,35.553342],[139.777274,35.553343],[139.777202,35.553338],[139.777134,35.553329],[139.777114,35.553324],[139.77706,35.553309]]}},{"type":"Feature","properties":{"aeroway":"taxiway","ref":"L11","surface":"asphalt"},"geometry":{"type":"LineString","coordinates":[[139.773248,35.551502],[139.773801,35.551762],[139.773892,35.551805],[139.774092,35.551902],[139.774397,35.552042],[139.774628,35.552147]]}},{"type":"Feature","properties":{"aeroway":"taxiway","surface":"asphalt"},"geometry":{"type":"LineString","coordinates":[[139.776278,35.553416],[139.776339,35.55336],[139.776396,35.553318],[139.776447,35.553288],[139.776504,35.553261],[139.776574,35.55324],[139.776647,35.553227],[139.776722,35.553222],[139.776797,35.553225],[139.77687,35.553236],[139.776948,35.553254]]}},{"type":"Feature","properties":{"aeroway":"taxiway","surface":"asphalt"},"geometry":{"type":"LineString","coordinates":[[139.776233,35.553477],[139.776261,35.553412],[139.776281,35.553357],[139.77629,35.553302],[139.776292,35.553231],[139.776286,35.553175],[139.776276,35.553137],[139.776256,35.55308],[139.776227,35.553025],[139.776192,35.552972],[139.776149,35.552924],[139.7761,35.552879],[139.776046,35.552839],[139.776008,35.552812]]}},{"type":"Feature","properties":{"aeroway":"taxiway","surface":"asphalt"},"geometry":{"type":"LineString","coordinates":[[139.77491,35.55175],[139.774894,35.551798],[139.774879,35.551862],[139.774866,35.551941],[139.77487,35.552024],[139.774886,35.552085],[139.774914,35.552147],[139.774938,35.552195],[139.774981,35.552257],[139.775029,35.552309],[139.775082,35.552356],[139.77515,35.552403]]}},{"type":"Feature","properties":{"aeroway":"taxiway","surface":"asphalt"},"geometry":{"type":"LineString","coordinates":[[139.77684,35.552625],[139.776792,35.552673],[139.77674,35.552719],[139.776684,35.552756],[139.77662,35.55279],[139.776555,35.552816],[139.77649,35.552837],[139.77642,35.552853],[139.776351,35.55286],[139.776325,35.552861],[139.776294,35.552862],[139.776223,35.552859],[139.776163,35.552853],[139.776109,35.552842],[139.776055,35.552828],[139.776008,35.552812]]}},{"type":"Feature","properties":{"aeroway":"taxiway","surface":"asphalt"},"geometry":{"type":"LineString","coordinates":[[139.774343,35.552548],[139.774381,35.552517],[139.774431,35.552485],[139.774484,35.552451],[139.774572,35.55241],[139.774639,35.552383],[139.774712,35.552364],[139.774769,35.552355],[139.774856,35.552352],[139.77494,35.552355],[139.774999,35.552362],[139.775064,35.552376],[139.77515,35.552403]]}},{"type":"Feature","properties":{"aeroway":"taxiway","surface":"asphalt"},"geometry":{"type":"LineString","coordinates":[[139.776561,35.553068],[139.776536,35.553051],[139.77648,35.553009],[139.776442,35.552977],[139.776406,35.552936],[139.776375,35.552894],[139.776351,35.55286],[139.776325,35.552802],[139.77631,35.552751],[139.776293,35.552665]]}},{"type":"Feature","properties":{"aeroway":"taxiway","surface":"asphalt"},"geometry":{"type":"LineString","coordinates":[[139.774092,35.551902],[139.774147,35.551919],[139.774201,35.551935],[139.774256,35.551946],[139.774327,35.551954],[139.774387,35.551958],[139.774452,35.551953],[139.774522,35.551945],[139.774591,35.551928],[139.774661,35.551904],[139.774732,35.551871],[139.774799,35.551829],[139.774856,35.551787],[139.774903,35.551742],[139.774939,35.55171]]}},{"type":"Feature","properties":{"aeroway":"taxiway","surface":"asphalt"},"geometry":{"type":"LineString","coordinates":[[139.774092,35.551902],[139.774141,35.551935],[139.774189,35.551971],[139.774232,35.55201],[139.774275,35.552058],[139.77431,35.55211],[139.774341,35.552166],[139.774364,35.552226],[139.774375,35.552271],[139.774376,35.552334],[139.774374,35.552393],[139.774364,35.552452],[139.774342,35.552513],[139.774291,35.552616]]}},{"type":"Feature","properties":{"aeroway":"taxiway","ref":"L11","surface":"asphalt"},"geometry":{"type":"LineString","coordinates":[[139.772424,35.551659],[139.772477,35.551611],[139.772535,35.551566],[139.7726,35.55153],[139.772672,35.551498],[139.772746,35.551472],[139.772824,35.551458],[139.772902,35.551448],[139.772984,35.551447],[139.773061,35.551453],[139.77314,35.551468],[139.773213,35.551488],[139.773248,35.551502]]}},{"type":"Feature","properties":{"aeroway":"taxiway","ref":"L11","surface":"asphalt"},"geometry":{"type":"LineString","coordinates":[[139.773014,35.550828],[139.772983,35.55091],[139.772968,35.550962],[139.77296,35.551016],[139.772959,35.551063],[139.772961,35.551109],[139.772972,35.551163],[139.772993,35.551225],[139.773026,35.551289],[139.77306,35.55134],[139.773104,35.551392],[139.773159,35.551439],[139.77321,35.551476],[139.773248,35.551502]]}},{"type":"Feature","properties":{"aeroway":"taxiway","ref":"L10","surface":"asphalt"},"geometry":{"type":"LineString","coordinates":[[139.774663,35.548505],[139.774622,35.548602],[139.774607,35.548664],[139.774602,35.54872],[139.774603,35.548783],[139.774618,35.548854],[139.774636,35.548909],[139.77467,35.548978],[139.774702,35.54903],[139.774749,35.549084],[139.77481,35.549135],[139.774871,35.549179],[139.774927,35.549205],[139.774996,35.549233],[139.77508,35.549259],[139.775182,35.549273],[139.775283,35.549278],[139.775376,35.549271],[139.775497,35.549248]]}},{"type":"Feature","properties":{"aeroway":"taxiway","surface":"asphalt"},"geometry":{"type":"LineString","coordinates":[[139.774106,35.549289],[139.774133,35.549237],[139.77415,35.549177],[139.774157,35.549116],[139.774154,35.549054],[139.774142,35.548993],[139.774119,35.548934],[139.774087,35.548878],[139.774046,35.548826],[139.773998,35.548779],[139.773966,35.548753],[139.773924,35.548725]]}},{"type":"Feature","properties":{"aeroway":"taxiway","ref":"L10","surface":"asphalt"},"geometry":{"type":"LineString","coordinates":[[139.775583,35.549212],[139.775646,35.54918],[139.775791,35.549106],[139.775987,35.549008],[139.776228,35.548876],[139.776395,35.548776],[139.7766,35.548649],[139.776848,35.548474],[139.777149,35.548239],[139.777275,35.548127],[139.777335,35.548074],[139.777494,35.547927],[139.777662,35.547754]]}},{"type":"Feature","properties":{"aeroway":"taxiway","ref":"L12","surface":"asphalt"},"geometry":{"type":"LineString","coordinates":[[139.775474,35.550958],[139.775255,35.551207],[139.775078,35.551414],[139.774955,35.551543],[139.774804,35.551688],[139.774601,35.551877],[139.774522,35.551945],[139.774397,35.552042],[139.77431,35.55211],[139.774115,35.552256],[139.773936,35.552383],[139.773772,35.55249],[139.773548,35.552612],[139.773258,35.552766],[139.772985,35.552901],[139.772932,35.552927]]}},{"type":"Feature","properties":{"aeroway":"taxiway","ref":"L12","surface":"asphalt"},"geometry":{"type":"LineString","coordinates":[[139.771244,35.553474],[139.771301,35.553492],[139.771357,35.553506],[139.771423,35.553514],[139.771485,35.553518],[139.771546,35.553517],[139.771609,35.553512],[139.771667,35.553503],[139.771787,35.553468]]}},{"type":"Feature","properties":{"aeroway":"taxiway","ref":"L12","surface":"asphalt"},"geometry":{"type":"LineString","coordinates":[[139.772932,35.552927],[139.772869,35.552954],[139.771787,35.553468],[139.771117,35.553782],[139.770952,35.553863],[139.770876,35.553902],[139.770813,35.553951],[139.770747,35.554011]]}},{"type":"Feature","properties":{"aeroway":"taxiway","ref":"L12","surface":"asphalt"},"geometry":{"type":"LineString","coordinates":[[139.771969,35.55236],[139.771963,35.552432],[139.771966,35.5525],[139.771976,35.552566],[139.771998,35.552633],[139.772029,35.552694],[139.772066,35.552747],[139.772121,35.552807],[139.772181,35.552856],[139.772248,35.552899],[139.772316,35.552934],[139.772396,35.552962],[139.772471,35.552981],[139.772551,35.552992],[139.772633,35.552995],[139.772734,35.552989],[139.772869,35.552954]]}},{"type":"Feature","properties":{"aeroway":"taxiway","ref":"P10","surface":"asphalt"},"geometry":{"type":"LineString","coordinates":[[139.774871,35.549179],[139.774357,35.548933],[139.773924,35.548725],[139.773839,35.548684],[139.773404,35.548479],[139.772892,35.548236]]}},{"type":"Feature","properties":{"aeroway":"taxiway","ref":"R1","surface":"asphalt"},"geometry":{"type":"LineString","coordinates":[[139.778736,35.553669],[139.778808,35.553567],[139.779088,35.553178],[139.77924,35.552964]]}},{"type":"Feature","properties":{"aeroway":"taxiway","ref":"R1","surface":"asphalt"},"geometry":{"type":"LineString","coordinates":[[139.77924,35.552964],[139.77932,35.552883],[139.779379,35.552841],[139.779442,35.552809],[139.779504,35.552785],[139.779564,35.552767],[139.779628,35.552756],[139.779707,35.552752],[139.779778,35.552755],[139.779837,35.552764],[139.779922,35.552786]]}},{"type":"Feature","properties":{"aeroway":"taxiway","surface":"asphalt"},"geometry":{"type":"LineString","coordinates":[[139.778228,35.552466],[139.778281,35.552412],[139.778322,35.552378],[139.778363,35.552352],[139.77841,35.552324],[139.778482,35.552294],[139.778546,35.552276],[139.77861,35.552269],[139.778693,35.552262],[139.778758,35.552266],[139.778828,35.552278],[139.778935,35.552312]]}},{"type":"Feature","properties":{"aeroway":"taxiway","surface":"asphalt"},"geometry":{"type":"LineString","coordinates":[[139.778935,35.552312],[139.778872,35.552274],[139.778815,35.552234],[139.778773,35.552185],[139.778746,35.552139],[139.778715,35.552082],[139.778698,35.552035],[139.77869,35.551999],[139.778685,35.551953],[139.778687,35.551894],[139.7787,35.55184],[139.778724,35.551763]]}},{"type":"Feature","properties":{"aeroway":"taxiway","surface":"asphalt"},"geometry":{"type":"LineString","coordinates":[[139.777924,35.553716],[139.77786,35.553674],[139.777823,35.553644],[139.777778,35.553593],[139.777749,35.553554],[139.777718,35.553495],[139.777698,35.553431],[139.777689,35.553365],[139.777693,35.553298],[139.777703,35.553243],[139.777731,35.553164]]}},{"type":"Feature","properties":{"aeroway":"taxiway","surface":"asphalt"},"geometry":{"type":"LineString","coordinates":[[139.77765,35.552337],[139.777584,35.552311],[139.777523,35.552296],[139.777464,35.552287],[139.777398,35.552284],[139.777336,35.552287],[139.777279,35.552295],[139.777219,35.552307],[139.777161,35.552329],[139.777107,35.552352],[139.777063,35.552377],[139.777022,35.552404],[139.776987,35.552434],[139.776939,35.552484]]}},{"type":"Feature","properties":{"aeroway":"taxiway","surface":"asphalt"},"geometry":{"type":"LineString","coordinates":[[139.77765,35.552337],[139.777574,35.55229],[139.777545,35.552266],[139.777508,35.552227],[139.77747,35.552178],[139.777438,35.552128],[139.777415,35.552066],[139.7774,35.552013],[139.777399,35.551958],[139.777401,35.551908],[139.777411,35.55186],[139.777424,35.551819],[139.777444,35.551768]]}},{"type":"Feature","properties":{"aeroway":"taxiway","surface":"asphalt"},"geometry":{"type":"LineString","coordinates":[[139.776948,35.553254],[139.776886,35.553207],[139.77684,35.55316],[139.776802,35.553109],[139.776771,35.553055],[139.776745,35.552989],[139.776735,35.55293],[139.776737,35.55287],[139.776744,35.552815],[139.776755,35.552767],[139.776781,35.552708]]}},{"type":"Feature","properties":{"aeroway":"taxiway","surface":"asphalt"},"geometry":{"type":"LineString","coordinates":[[139.777256,35.553841],[139.77728,35.55377],[139.777285,35.553708],[139.777285,35.553638],[139.777271,35.553577],[139.77725,35.553512],[139.777221,35.553463],[139.77718,35.553408],[139.777126,35.553357],[139.777102,35.55334],[139.77706,35.553309]]}},{"type":"Feature","properties":{"aeroway":"taxiway","ref":"R1","surface":"asphalt"},"geometry":{"type":"LineString","coordinates":[[139.77924,35.552964],[139.779285,35.552878],[139.779298,35.552834],[139.779305,35.552774],[139.779302,35.552727],[139.779296,35.552679],[139.779283,35.552623],[139.779256,35.552569],[139.779224,35.552518],[139.779187,35.552473],[139.779139,35.552429],[139.77909,35.552388]]}},{"type":"Feature","properties":{"aeroway":"taxiway","ref":"W11","surface":"asphalt"},"geometry":{"type":"LineString","coordinates":[[139.776534,35.553055],[139.776561,35.553068],[139.776948,35.553254],[139.77706,35.553309],[139.777108,35.553332],[139.777485,35.553509],[139.777924,35.553716],[139.778036,35.553773]]}},{"type":"Feature","properties":{"aeroway":"taxiway","ref":"M1","surface":"asphalt"},"geometry":{"type":"LineString","coordinates":[[139.780252,35.552939],[139.779922,35.552786],[139.779735,35.552695],[139.77909,35.552388],[139.778935,35.552312]]}},{"type":"Feature","properties":{"aeroway":"taxiway","ref":"A10","surface":"asphalt"},"geometry":{"type":"LineString","coordinates":[[139.776292,35.553231],[139.776293,35.552945],[139.776294,35.552862],[139.776293,35.552665],[139.776296,35.551404]]}},{"type":"Feature","properties":{"aeroway":"taxiway","ref":"L10","surface":"asphalt"},"geometry":{"type":"LineString","coordinates":[[139.773399,35.550283],[139.773476,35.550216],[139.773533,35.550178],[139.773666,35.550112],[139.774365,35.549782],[139.775497,35.549248],[139.775583,35.549212]]}},{"type":"Feature","properties":{"aeroway":"taxiway","surface":"asphalt"},"geometry":{"type":"LineString","coordinates":[[139.772892,35.548236],[139.772967,35.548291],[139.773021,35.548337],[139.773065,35.548387],[139.773101,35.548444],[139.773136,35.548511],[139.773151,35.548572],[139.773164,35.548633],[139.773163,35.548691],[139.773156,35.548751],[139.773135,35.548823],[139.773108,35.548899]]}},{"type":"Feature","properties":{"aeroway":"taxiway","surface":"asphalt"},"geometry":{"type":"LineString","coordinates":[[139.773162,35.548828],[139.773209,35.548785],[139.773256,35.548748],[139.77331,35.548712],[139.773369,35.548687],[139.773418,35.54867],[139.77347,35.548656],[139.773531,35.548649],[139.773591,35.548647],[139.773658,35.548647],[139.773714,35.548652],[139.773773,35.548666],[139.773839,35.548684]]}},{"type":"Feature","properties":{"aeroway":"taxiway","surface":"asphalt"},"geometry":{"type":"LineString","coordinates":[[139.773643,35.548154],[139.773627,35.548199],[139.773619,35.548231],[139.773611,35.548285],[139.773609,35.548343],[139.773615,35.54839],[139.773634,35.548451],[139.773661,35.548509],[139.773696,35.54856],[139.773735,35.548602],[139.773781,35.548644],[139.773839,35.548684]]}},{"type":"Feature","properties":{"aeroway":"taxiway","surface":"asphalt"},"geometry":{"type":"LineString","coordinates":[[139.773708,35.54806],[139.773639,35.54812],[139.773587,35.54816],[139.773531,35.548194],[139.773481,35.548219],[139.773425,35.548241],[139.773364,35.548258],[139.773315,35.548269],[139.773249,35.54828],[139.773186,35.548286],[139.773116,35.548283],[139.773044,35.548275],[139.772981,35.548262],[139.772892,35.548236]]}},{"type":"Feature","properties":{"aeroway":"taxiway","surface":"asphalt"},"geometry":{"type":"LineString","coordinates":[[139.773924,35.548725],[139.773979,35.548741],[139.774029,35.548752],[139.774099,35.548761],[139.774176,35.548764],[139.774253,35.548758],[139.774328,35.548744],[139.7744,35.548721],[139.774467,35.548689],[139.774528,35.548651],[139.774582,35.548606],[139.774625,35.548559]]}},{"type":"Feature","properties":{"aeroway":"taxiway","surface":"asphalt"},"geometry":{"type":"LineString","coordinates":[[139.777198,35.552118],[139.776682,35.551876]]}},{"type":"Feature","properties":{"aeroway":"taxiway","ref":"P10","surface":"asphalt"},"geometry":{"type":"LineString","coordinates":[[139.772892,35.548236],[139.772808,35.548196],[139.772075,35.547847],[139.771434,35.547544],[139.771131,35.5474]]}},{"type":"Feature","properties":{"aeroway":"taxiway","ref":"W","surface":"asphalt"},"geometry":{"type":"LineString","coordinates":[[139.778724,35.551763],[139.779201,35.55111],[139.779693,35.550409],[139.780108,35.549824],[139.780317,35.549529],[139.780391,35.549425],[139.780524,35.549236],[139.780686,35.548997]]}},{"type":"Feature","properties":{"aeroway":"taxiway","ref":"W","surface":"asphalt"},"geometry":{"type":"LineString","coordinates":[[139.777731,35.553164],[139.777901,35.552926],[139.778228,35.552466],[139.778394,35.55223],[139.778724,35.551763]]}},{"type":"Feature","properties":{"aeroway":"taxiway","ref":"A11","surface":"asphalt"},"geometry":{"type":"LineString","coordinates":[[139.776534,35.553055],[139.776293,35.552945],[139.776008,35.552812],[139.775483,35.55256],[139.775353,35.552498],[139.77515,35.552403],[139.774628,35.552147]]}},{"type":"Feature","properties":{"aeroway":"taxiway","ref":"A","surface":"asphalt"},"geometry":{"type":"LineString","coordinates":[[139.776233,35.553477],[139.776278,35.553416],[139.776534,35.553055],[139.776536,35.553051],[139.776781,35.552708],[139.77684,35.552625],[139.776939,35.552484],[139.777198,35.552118],[139.777444,35.551768],[139.777493,35.551703]]}},{"type":"Feature","properties":{"aeroway":"taxiway","ref":"A","surface":"asphalt"},"geometry":{"type":"LineString","coordinates":[[139.777493,35.551703],[139.778663,35.550053],[139.778992,35.549589]]}},{"type":"Feature","properties":{"aeroway":"taxiway","ref":"A","surface":"asphalt"},"geometry":{"type":"LineString","coordinates":[[139.778992,35.549589],[139.779144,35.549375],[139.779449,35.548945],[139.779697,35.548596],[139.77978,35.548479],[139.779961,35.548223],[139.780227,35.547848],[139.780264,35.547796]]}},{"type":"Feature","properties":{"aeroway":"taxiway","ref":"L","surface":"asphalt"},"geometry":{"type":"LineString","coordinates":[[139.774625,35.548559],[139.774357,35.548933],[139.774106,35.549289],[139.77391,35.549564],[139.773399,35.550283],[139.773014,35.550828]]}},{"type":"Feature","properties":{"aeroway":"taxiway","ref":"L","surface":"asphalt"},"geometry":{"type":"LineString","coordinates":[[139.773014,35.550828],[139.772424,35.551659],[139.772011,35.552238],[139.771975,35.552288],[139.771922,35.552364],[139.77147,35.553],[139.771161,35.553439],[139.770859,35.553863],[139.770747,35.554011]]}},{"type":"Feature","properties":{"aeroway":"taxiway","ref":"A9","surface":"asphalt"},"geometry":{"type":"LineString","coordinates":[[139.778094,35.548304],[139.778268,35.548385],[139.778375,35.548436],[139.778822,35.548648]]}},{"type":"Feature","properties":{"aeroway":"taxiway","surface":"asphalt"},"geometry":{"type":"LineString","coordinates":[[139.771478,35.551189],[139.771449,35.551262],[139.771435,35.551318],[139.771431,35.551362],[139.771433,35.551414],[139.771439,35.551464],[139.771456,35.551516],[139.771478,35.551561],[139.771502,35.551601],[139.771537,35.551648],[139.771584,35.551691],[139.771654,35.551745]]}},{"type":"Feature","properties":{"aeroway":"taxiway","surface":"asphalt"},"geometry":{"type":"LineString","coordinates":[[139.771742,35.551786],[139.771801,35.551803],[139.771859,35.551817],[139.771915,35.551826],[139.771975,35.551829],[139.772037,35.551826],[139.772098,35.55182],[139.772166,35.551805],[139.772232,35.551785],[139.77229,35.551756],[139.772336,35.551728],[139.772424,35.551659]]}},{"type":"Feature","properties":{"aeroway":"taxiway","ref":"L12","surface":"asphalt"},"geometry":{"type":"LineString","coordinates":[[139.772011,35.552238],[139.771989,35.5523],[139.771969,35.55236]]}},{"type":"Feature","properties":{"aeroway":"taxiway","surface":"asphalt"},"geometry":{"type":"LineString","coordinates":[[139.771976,35.55224],[139.771952,35.5523],[139.771922,35.552364]]}},{"type":"Feature","properties":{"aeroway":"taxiway","surface":"asphalt"},"geometry":{"type":"LineString","coordinates":[[139.771976,35.55224],[139.771975,35.552288],[139.771969,35.55236]]}},{"type":"Feature","properties":{"aeroway":"taxiway","surface":"asphalt"},"geometry":{"type":"LineString","coordinates":[[139.771742,35.551786],[139.771791,35.551818],[139.771839,35.551852],[139.771876,35.551889],[139.771909,35.55193],[139.771933,35.551971],[139.771954,35.552016],[139.771968,35.552056],[139.771978,35.5521],[139.771982,35.552152],[139.77198,35.552208],[139.771976,35.55224]]}},{"type":"Feature","properties":{"aeroway":"taxiway","ref":"A8","surface":"asphalt"},"geometry":{"type":"LineString","coordinates":[[139.779453,35.547985],[139.779378,35.547952],[139.779333,35.547929],[139.779289,35.547897],[139.779242,35.547861],[139.779197,35.547817],[139.779154,35.547764],[139.779123,35.547729],[139.779094,35.547666],[139.779072,35.547612],[139.779057,35.547547]]}},{"type":"Feature","properties":{"aeroway":"taxiway","ref":"P","surface":"asphalt"},"geometry":{"type":"LineString","coordinates":[[139.773643,35.548154],[139.773404,35.548479],[139.773162,35.548828],[139.773108,35.548899],[139.772342,35.549968]]}},{"type":"Feature","properties":{"aeroway":"taxiway","ref":"P","surface":"asphalt"},"geometry":{"type":"LineString","coordinates":[[139.772342,35.549968],[139.772083,35.550339]]}},{"type":"Feature","properties":{"aeroway":"taxiway","surface":"asphalt"},"geometry":{"type":"LineString","coordinates":[[139.77978,35.548479],[139.779687,35.548572],[139.779561,35.548662],[139.779403,35.548722],[139.779267,35.548745],[139.779161,35.548742],[139.779109,35.54874],[139.779058,35.54873],[139.779004,35.548718],[139.778822,35.548648]]}},{"type":"Feature","properties":{"aeroway":"taxiway","surface":"asphalt"},"geometry":{"type":"LineString","coordinates":[[139.779367,35.548906],[139.779232,35.548814],[139.779161,35.548742],[139.779151,35.548732],[139.779094,35.548646],[139.779058,35.54854]]}},{"type":"Feature","properties":{"aeroway":"taxiway","surface":"asphalt"},"geometry":{"type":"LineString","coordinates":[[139.779697,35.548596],[139.779652,35.548698],[139.779644,35.548801],[139.779666,35.5489],[139.779692,35.548968],[139.779751,35.549048],[139.7798,35.549093],[139.779888,35.549154]]}},{"type":"Feature","properties":{"aeroway":"taxiway","surface":"asphalt"},"geometry":{"type":"LineString","coordinates":[[139.779888,35.549154],[139.779785,35.549122],[139.77965,35.549107],[139.779537,35.549118],[139.779391,35.549157],[139.779282,35.549219],[139.779144,35.549375]]}},{"type":"Feature","properties":{"aeroway":"taxiway","surface":"asphalt"},"geometry":{"type":"LineString","coordinates":[[139.779144,35.549375],[139.779192,35.549207],[139.779195,35.549062],[139.779152,35.548938],[139.779093,35.54884],[139.779057,35.548807],[139.778998,35.548753],[139.778822,35.548648]]}},{"type":"Feature","properties":{"aeroway":"taxiway","surface":"asphalt"},"geometry":{"type":"LineString","coordinates":[[139.778822,35.548648],[139.779057,35.548759],[139.779367,35.548906],[139.779449,35.548945],[139.779888,35.549154]]}},{"type":"Feature","properties":{"aeroway":"taxiway","ref":"L10","surface":"asphalt"},"geometry":{"type":"LineString","coordinates":[[139.777662,35.547754],[139.777858,35.547583]]}},{"type":"Feature","properties":{"aeroway":"taxiway","surface":"asphalt"},"geometry":{"type":"LineString","coordinates":[[139.777858,35.547583],[139.777787,35.547746],[139.777779,35.547882],[139.777803,35.547999],[139.777882,35.548128],[139.777961,35.548213],[139.778094,35.548304]]}},{"type":"Feature","properties":{"aeroway":"taxiway","surface":"asphalt"},"geometry":{"type":"LineString","coordinates":[[139.777176,35.548558],[139.77727,35.548398],[139.777293,35.548292],[139.777284,35.548156],[139.777275,35.548127],[139.77725,35.548041],[139.777191,35.54794],[139.7771,35.547852],[139.776987,35.547777]]}},{"type":"Feature","properties":{"aeroway":"taxiway","surface":"asphalt"},"geometry":{"type":"LineString","coordinates":[[139.778094,35.548304],[139.778012,35.548271],[139.777895,35.548246],[139.777728,35.548237],[139.777557,35.548262],[139.777414,35.548317],[139.777301,35.548408],[139.777176,35.548558]]}},{"type":"Feature","properties":{"aeroway":"taxiway","surface":"asphalt"},"geometry":{"type":"LineString","coordinates":[[139.777662,35.547754],[139.77757,35.547794],[139.77746,35.547826],[139.777351,35.547836],[139.777237,35.547836],[139.777122,35.547824],[139.776987,35.547777]]}}]}