{"type":"FeatureCollection","features":[{"type":"Feature","properties":{"aeroway":"taxiway","ref":"E","surface":"asphalt"},"geometry":{"type":"LineString","coordinates":[[139.799362,35.542432],[139.799642,35.542038],[139.799913,35.541659],[139.799927,35.541639],[139.800347,35.541049],[139.800444,35.540912],[139.800763,35.540464],[139.801151,35.539918],[139.801942,35.538807]]}},{"type":"Feature","properties":{"aeroway":"taxiway","surface":"asphalt"},"geometry":{"type":"LineString","coordinates":[[139.802846,35.539328],[139.802886,35.539265],[139.802917,35.539214],[139.802936,35.539153],[139.802945,35.539089],[139.80294,35.539026],[139.802933,35.538976],[139.80291,35.53892],[139.802876,35.538861],[139.802832,35.538804],[139.80278,35.538753],[139.802716,35.538703]]}},{"type":"Feature","properties":{"aeroway":"taxiway","surface":"asphalt"},"geometry":{"type":"LineString","coordinates":[[139.799538,35.537043],[139.799605,35.537082],[139.799654,35.53712],[139.799704,35.537166],[139.799746,35.537218],[139.799785,35.53728],[139.799809,35.537334],[139.799827,35.537393],[139.799835,35.537454],[139.799836,35.537516],[139.799831,35.537576],[139.799815,35.537638],[139.799794,35.537686],[139.799764,35.537743]]}},{"type":"Feature","properties":{"aeroway":"taxiway","ref":"RU3","surface":"asphalt"},"geometry":{"type":"LineString","coordinates":[[139.800322,35.536962],[139.800297,35.53704],[139.800288,35.537089],[139.800284,35.537142],[139.800288,35.5372],[139.800307,35.53726],[139.800331,35.53732],[139.800365,35.537371],[139.800406,35.537416],[139.800445,35.53745],[139.800504,35.537496]]}},{"type":"Feature","properties":{"aeroway":"taxiway","ref":"RU3","surface":"asphalt"},"geometry":{"type":"LineString","coordinates":[[139.799538,35.537043],[139.799613,35.537069],[139.799698,35.537089],[139.799768,35.537098],[139.79984,35.537099],[139.799908,35.537098],[139.799986,35.537089],[139.800057,35.537071],[139.800127,35.537048],[139.800185,35.537022],[139.800246,35.536989],[139.800286,35.536961],[139.800328,35.536926],[139.800371,35.536888]]}},{"type":"Feature","properties":{"aeroway":"taxiway","ref":"E2","surface":"asphalt"},"geometry":{"type":"LineString","coordinates":[[139.800444,35.540912],[139.800413,35.540976],[139.8004,35.541044],[139.800399,35.541114],[139.800411,35.541182],[139.800434,35.541249],[139.80047,35.541312],[139.800516,35.541371],[139.800572,35.541423],[139.800633,35.541466],[139.80066,35.541484],[139.800683,35.541494]]}},{"type":"Feature","properties":{"aeroway":"taxiway","surface":"asphalt"},"geometry":{"type":"LineString","coordinates":[[139.797151,35.541416],[139.797223,35.541353],[139.797284,35.541312],[139.797362,35.541267],[139.797445,35.541232],[139.797517,35.541212],[139.797598,35.541203],[139.797702,35.541199],[139.797796,35.541203],[139.797887,35.541223],[139.797955,35.541233],[139.797969,35.541243]]}},{"type":"Feature","properties":{"aeroway":"taxiway","surface":"asphalt"},"geometry":{"type":"LineString","coordinates":[[139.797748,35.540578],[139.797725,35.54064],[139.797706,35.540708],[139.797693,35.540767],[139.797688,35.540846],[139.797697,35.540902],[139.797716,35.54097],[139.797739,35.541026],[139.797771,35.541074],[139.797817,35.541126],[139.797868,35.541172],[139.797919,35.541209],[139.797955,35.541233],[139.797969,35.541243]]}},{"type":"Feature","properties":{"aeroway":"taxiway","surface":"asphalt"},"geometry":{"type":"LineString","coordinates":[[139.802846,35.539328],[139.802902,35.539277],[139.80295,35.539239],[139.803033,35.539188],[139.803111,35.539154],[139.803172,35.539135],[139.803244,35.539117],[139.803346,35.539107],[139.803438,35.539108],[139.803522,35.539119],[139.803592,35.539134],[139.803687,35.539163]]}},{"type":"Feature","properties":{"aeroway":"taxiway","ref":"E","surface":"asphalt"},"geometry":{"type":"LineString","coordinates":[[139.802424,35.535799],[139.801998,35.536385]]}},{"type":"Feature","properties":{"aeroway":"taxiway","ref":"R","surface":"asphalt"},"geometry":{"type":"LineString","coordinates":[[139.80008,35.537299],[139.800322,35.536962],[139.800371,35.536888],[139.801474,35.535343]]}},{"type":"Feature","properties":{"aeroway":"taxiway","ref":"A","surface":"asphalt"},"geometry":{"type":"LineString","coordinates":[[139.799538,35.537043],[139.80008,35.537299],[139.800504,35.537496],[139.800613,35.537549],[139.801581,35.538011],[139.80165,35.538051],[139.801712,35.538091],[139.801754,35.538127],[139.801812,35.538186],[139.801888,35.53828]]}},{"type":"Feature","properties":{"aeroway":"taxiway","surface":"asphalt"},"geometry":{"type":"LineString","coordinates":[[139.800613,35.537549],[139.800523,35.53752],[139.800451,35.537505],[139.800385,35.537499],[139.800306,35.537496],[139.800231,35.5375],[139.800161,35.537512],[139.80008,35.537531],[139.800001,35.53756],[139.79994,35.537593],[139.799891,35.537624],[139.799847,35.537658],[139.79981,35.537692],[139.799764,35.537743]]}},{"type":"Feature","properties":{"aeroway":"taxiway","surface":"asphalt"},"geometry":{"type":"LineString","coordinates":[[139.801942,35.538807],[139.801964,35.538759],[139.801982,35.53871],[139.801993,35.53866],[139.801999,35.53861],[139.801999,35.538559],[139.801993,35.538508],[139.801982,35.538458],[139.801965,35.538409],[139.801943,35.538362],[139.801918,35.538321],[139.801888,35.53828]]}},{"type":"Feature","properties":{"aeroway":"taxiway","surface":"asphalt"},"geometry":{"type":"LineString","coordinates":[[139.801942,35.538807],[139.80197,35.538775],[139.802,35.538751],[139.80203,35.538728],[139.802071,35.538704],[139.802106,35.538686],[139.802155,35.538664],[139.802214,35.538644],[139.802266,35.538632],[139.802315,35.538624],[139.802371,35.538621],[139.802443,35.538623],[139.802501,35.538628],[139.802556,35.53864],[139.802619,35.538658]]}},{"type":"Feature","properties":{"aeroway":"taxiway","surface":"asphalt"},"geometry":{"type":"LineString","coordinates":[[139.804759,35.540219],[139.804782,35.54016],[139.804798,35.540099],[139.804807,35.540034],[139.804808,35.539963],[139.804796,35.539902],[139.804779,35.539842],[139.804752,35.539781],[139.804714,35.539724],[139.804671,35.53968],[139.804626,35.539636],[139.804574,35.539597],[139.804515,35.539558]]}},{"type":"Feature","properties":{"aeroway":"taxiway","ref":"E","surface":"asphalt"},"geometry":{"type":"LineString","coordinates":[[139.801812,35.538186],[139.801778,35.538125],[139.80176,35.538079],[139.801745,35.538038],[139.801737,35.537985],[139.801736,35.53791],[139.801742,35.537839],[139.801933,35.536582],[139.801943,35.536532],[139.801954,35.536492],[139.801967,35.536449],[139.801998,35.536385]]}},{"type":"Feature","properties":{"aeroway":"taxiway","ref":"E1","surface":"asphalt"},"geometry":{"type":"LineString","coordinates":[[139.801888,35.53828],[139.801931,35.538314],[139.801966,35.538344],[139.802022,35.538376],[139.802619,35.538658],[139.802669,35.538681],[139.802716,35.538703]]}},{"type":"Feature","properties":{"aeroway":"taxiway","ref":"E2","surface":"asphalt"},"geometry":{"type":"LineString","coordinates":[[139.800683,35.541494],[139.80066,35.541484],[139.800632,35.541472],[139.800577,35.54145],[139.80051,35.541437],[139.80044,35.541431],[139.800361,35.541429],[139.800294,35.541435],[139.80022,35.541452],[139.800152,35.541474],[139.800093,35.541504],[139.800048,35.541531],[139.800006,35.541564],[139.799967,35.541598],[139.799927,35.541639]]}},{"type":"Feature","properties":{"aeroway":"taxiway","surface":"asphalt"},"geometry":{"type":"LineString","coordinates":[[139.800683,35.541494],[139.80074,35.541514],[139.800799,35.541532],[139.800861,35.541544],[139.800935,35.541552],[139.801011,35.541547],[139.80109,35.541537],[139.801164,35.541516],[139.801226,35.541491],[139.801289,35.541458],[139.801343,35.541417],[139.801392,35.541372]]}},{"type":"Feature","properties":{"aeroway":"taxiway","ref":"C1","surface":"asphalt"},"geometry":{"type":"LineString","coordinates":[[139.802716,35.538703],[139.803687,35.539163],[139.803828,35.53923],[139.804183,35.539399],[139.804324,35.539467],[139.804515,35.539558]]}},{"type":"Feature","properties":{"aeroway":"taxiway","ref":"R","surface":"asphalt"},"geometry":{"type":"LineString","coordinates":[[139.80008,35.537299],[139.799764,35.537743],[139.799557,35.538018],[139.799152,35.538587],[139.798757,35.539147],[139.798419,35.539624],[139.79837,35.539692],[139.798333,35.539744],[139.797946,35.540289],[139.797748,35.540578],[139.797151,35.541416]]}},{"type":"Feature","properties":{"aeroway":"taxiway","ref":"E","surface":"asphalt"},"geometry":{"type":"LineString","coordinates":[[139.801998,35.536385],[139.80131,35.537363],[139.801262,35.537419],[139.801201,35.537468],[139.801135,35.53751],[139.801059,35.537545],[139.800994,35.537564],[139.800917,35.537582],[139.800842,35.537585],[139.800768,35.537582],[139.800688,35.537571],[139.800613,35.537549]]}},{"type":"Feature","properties":{"aeroway":"taxiway","ref":"C","surface":"asphalt"},"geometry":{"type":"LineString","coordinates":[[139.802846,35.539328],[139.801869,35.540706],[139.801446,35.541301]]}},{"type":"Feature","properties":{"aeroway":"runway","ref":"16L/34R","name":"\u6771\u4eac\u56fd\u969b\u7a7a\u6e2fC\u6ed1\u8d70\u8def","surface":"asphalt"},"geometry":{"type":"LineString","coordinates":[[139.805119,35.539712],[139.805043,35.539819],[139.804759,35.540219],[139.803143,35.542511]]}}]}