{"type":"FeatureCollection","features":[{"type":"Feature","properties":{"aeroway":"taxiway","ref":"P3","surface":"asphalt"},"geometry":{"type":"LineString","coordinates":[[139.779671,35.539648],[139.779747,35.539553],[139.779784,35.539524],[139.779836,35.539492],[139.779874,35.539469],[139.779936,35.539442],[139.779999,35.539419],[139.780061,35.539407],[139.78014,35.5394],[139.780216,35.539402],[139.780276,35.53941],[139.780342,35.539422],[139.78041,35.539447]]}},{"type":"Feature","properties":{"aeroway":"taxiway","surface":"asphalt"},"geometry":{"type":"LineString","coordinates":[[139.786951,35.537366],[139.787022,35.537408],[139.787068,35.537444],[139.787114,35.537488],[139.787155,35.537539],[139.78719,35.537594],[139.787207,35.537631],[139.787213,35.537644],[139.787235,35.53771],[139.787242,35.537743],[139.787247,35.53782],[139.787242,35.53788],[139.787226,35.537953],[139.787195,35.53803]]}},{"type":"Feature","properties":{"aeroway":"taxiway","surface":"asphalt"},"geometry":{"type":"LineString","coordinates":[[139.787224,35.537988],[139.787262,35.537947],[139.787316,35.537904],[139.787373,35.537865],[139.787434,35.537835],[139.787505,35.537807],[139.787591,35.537786],[139.787682,35.537781],[139.787765,35.537784],[139.787845,35.537799],[139.787942,35.537829]]}},{"type":"Feature","properties":{"aeroway":"taxiway","surface":"asphalt"},"geometry":{"type":"LineString","coordinates":[[139.783113,35.540192],[139.783049,35.540246],[139.78298,35.540295],[139.782903,35.540335],[139.78282,35.540366],[139.782732,35.540386],[139.782641,35.540396],[139.78255,35.540395],[139.78246,35.540384],[139.782382,35.540368],[139.782302,35.540344]]}},{"type":"Feature","properties":{"aeroway":"taxiway","surface":"asphalt"},"geometry":{"type":"LineString","coordinates":[[139.782302,35.540344],[139.782352,35.540377],[139.782394,35.54041],[139.78244,35.540452],[139.782486,35.540498],[139.78252,35.540548],[139.782549,35.540605],[139.78257,35.540661],[139.782584,35.540716],[139.782592,35.540771],[139.782596,35.540827],[139.782585,35.540907],[139.78256,35.540971]]}},{"type":"Feature","properties":{"aeroway":"taxiway","ref":"A1","surface":"asphalt"},"geometry":{"type":"LineString","coordinates":[[139.787488,35.537614],[139.78735,35.537549],[139.787078,35.53742],[139.786951,35.537366],[139.786311,35.537059],[139.786125,35.53697]]}},{"type":"Feature","properties":{"aeroway":"taxiway","surface":"asphalt"},"geometry":{"type":"LineString","coordinates":[[139.780883,35.540714],[139.78084,35.540702],[139.7808,35.54069],[139.780731,35.540676],[139.780666,35.54067],[139.780586,35.540668],[139.780513,35.540673],[139.780442,35.540684],[139.780379,35.5407],[139.780306,35.540728],[139.780242,35.540758],[139.780182,35.540794],[139.78013,35.540837],[139.780071,35.540891]]}},{"type":"Feature","properties":{"aeroway":"taxiway","surface":"asphalt"},"geometry":{"type":"LineString","coordinates":[[139.780613,35.540119],[139.780594,35.540167],[139.780581,35.540209],[139.780571,35.54025],[139.780565,35.5403],[139.78057,35.540355],[139.78058,35.540401],[139.780594,35.540443],[139.780613,35.540489],[139.780643,35.540534],[139.780678,35.540574],[139.78072,35.540614],[139.780756,35.540644],[139.780798,35.540672]]}},{"type":"Feature","properties":{"aeroway":"taxiway","surface":"asphalt"},"geometry":{"type":"LineString","coordinates":[[139.779946,35.540268],[139.780033,35.54029],[139.780091,35.5403],[139.780162,35.540304],[139.780223,35.540302],[139.780275,35.540294],[139.780331,35.540284],[139.780374,35.540268],[139.780421,35.540252],[139.780462,35.540232],[139.780512,35.540204],[139.780565,35.540162],[139.780613,35.540119]]}},{"type":"Feature","properties":{"aeroway":"taxiway","surface":"asphalt"},"geometry":{"type":"LineString","coordinates":[[139.780105,35.540844],[139.780134,35.540784],[139.780155,35.540724],[139.780164,35.540676],[139.780163,35.540596],[139.780158,35.540563],[139.780147,35.540516],[139.780132,35.540476],[139.780112,35.540438],[139.780091,35.540407],[139.780063,35.54037],[139.780031,35.540336],[139.779992,35.540302],[139.779946,35.540268]]}},{"type":"Feature","properties":{"aeroway":"taxiway","surface":"asphalt"},"geometry":{"type":"LineString","coordinates":[[139.785157,35.541698],[139.785104,35.541658],[139.785057,35.541616],[139.785021,35.541576],[139.784984,35.541518],[139.784961,35.541464],[139.784942,35.541405],[139.784937,35.541348],[139.784938,35.541302],[139.784947,35.541252],[139.78496,35.541204],[139.784979,35.541152]]}},{"type":"Feature","properties":{"aeroway":"taxiway","surface":"asphalt"},"geometry":{"type":"LineString","coordinates":[[139.78502,35.54109],[139.784964,35.541139],[139.784901,35.541186],[139.784826,35.541227],[139.784752,35.541256],[139.784693,35.541275],[139.78463,35.541288],[139.784553,35.541298],[139.784487,35.541299],[139.784412,35.541295],[139.784331,35.541283],[139.784218,35.541255]]}},{"type":"Feature","properties":{"aeroway":"taxiway","surface":"asphalt"},"geometry":{"type":"LineString","coordinates":[[139.787078,35.53742],[139.787173,35.537445],[139.787238,35.537456],[139.787304,35.537462],[139.78737,35.537462],[139.787415,35.537459],[139.787436,35.537456],[139.7875,35.537446],[139.787564,35.53743],[139.787625,35.537409],[139.787683,35.537383],[139.787737,35.537353],[139.787803,35.537317]]}},{"type":"Feature","properties":{"aeroway":"taxiway","surface":"asphalt"},"geometry":{"type":"LineString","coordinates":[[139.780834,35.541796],[139.78084,35.540702],[139.78084,35.540693],[139.780844,35.539992],[139.780839,35.539918],[139.780836,35.53988],[139.780806,35.539782],[139.780744,35.539671],[139.780626,35.539559],[139.780471,35.539476]]}},{"type":"Feature","properties":{"aeroway":"taxiway","surface":"asphalt"},"geometry":{"type":"LineString","coordinates":[[139.780659,35.540055],[139.78074,35.539976],[139.780802,35.539936],[139.780839,35.539918],[139.780862,35.539906],[139.780924,35.539886],[139.780985,35.539868],[139.78105,35.539856],[139.781136,35.539852],[139.781192,35.539858],[139.781266,35.539868],[139.781347,35.539891]]}},{"type":"Feature","properties":{"aeroway":"taxiway","surface":"asphalt"},"geometry":{"type":"LineString","coordinates":[[139.783113,35.540192],[139.78309,35.540242],[139.783076,35.540296],[139.783068,35.54035],[139.783068,35.540404],[139.783073,35.540459],[139.783086,35.540512],[139.783104,35.540564],[139.783129,35.540615],[139.783159,35.540664],[139.783196,35.540709],[139.783237,35.540752],[139.783284,35.540791],[139.783333,35.540829]]}},{"type":"Feature","properties":{"aeroway":"taxiway","surface":"asphalt"},"geometry":{"type":"LineString","coordinates":[[139.78256,35.540971],[139.782541,35.541023],[139.782527,35.541076],[139.78252,35.541131],[139.782518,35.541185],[139.782524,35.54124],[139.782536,35.541293],[139.782554,35.541346],[139.782578,35.541397],[139.782608,35.541446],[139.782643,35.541492],[139.782684,35.541535],[139.78273,35.541575],[139.782791,35.541619]]}},{"type":"Feature","properties":{"aeroway":"taxiway","surface":"asphalt"},"geometry":{"type":"LineString","coordinates":[[139.781735,35.541116],[139.781806,35.54116],[139.781869,35.541211],[139.781924,35.541268],[139.781968,35.541331],[139.781999,35.541389],[139.782014,35.541444],[139.782028,35.541505],[139.782035,35.541579],[139.782033,35.541639],[139.782028,35.541683],[139.782005,35.541753]]}},{"type":"Feature","properties":{"aeroway":"taxiway","surface":"asphalt"},"geometry":{"type":"LineString","coordinates":[[139.78256,35.540971],[139.782503,35.54103],[139.782444,35.541072],[139.782371,35.541106],[139.78228,35.541133],[139.782181,35.541158],[139.7821,35.541169],[139.782026,35.541174],[139.781968,35.54117],[139.781892,35.54116],[139.781799,35.541147]]}},{"type":"Feature","properties":{"aeroway":"taxiway","surface":"asphalt"},"geometry":{"type":"LineString","coordinates":[[139.78256,35.540971],[139.782623,35.540925],[139.782684,35.540886],[139.782749,35.540858],[139.782847,35.540822],[139.782941,35.540803],[139.783037,35.540795],[139.783122,35.540796],[139.783217,35.540806],[139.783302,35.54083],[139.783412,35.54087]]}},{"type":"Feature","properties":{"aeroway":"taxiway","ref":"W1","surface":"asphalt"},"geometry":{"type":"LineString","coordinates":[[139.787942,35.537829],[139.78764,35.537686],[139.787488,35.537614]]}},{"type":"Feature","properties":{"aeroway":"taxiway","ref":"L4","surface":"asphalt"},"geometry":{"type":"LineString","coordinates":[[139.780366,35.540471],[139.780798,35.540672],[139.78084,35.540693],[139.780883,35.540714],[139.781451,35.540984],[139.781542,35.541027],[139.781735,35.541116],[139.781799,35.541147],[139.782276,35.541372]]}},{"type":"Feature","properties":{"aeroway":"taxiway","ref":"L3","surface":"asphalt"},"geometry":{"type":"LineString","coordinates":[[139.78041,35.539447],[139.780433,35.539458],[139.780471,35.539476],[139.781347,35.539891],[139.782002,35.540198],[139.782092,35.540241],[139.782302,35.540344],[139.78283,35.540591]]}},{"type":"Feature","properties":{"aeroway":"taxiway","surface":"asphalt"},"geometry":{"type":"LineString","coordinates":[[139.786125,35.53697],[139.786071,35.53695],[139.786012,35.536934],[139.785932,35.536918],[139.785853,35.536915],[139.785776,35.536917],[139.785692,35.536928],[139.785622,35.536941],[139.78554,35.536964],[139.785469,35.536992],[139.785411,35.537019],[139.785327,35.537073]]}},{"type":"Feature","properties":{"aeroway":"taxiway","ref":"W","surface":"asphalt"},"geometry":{"type":"LineString","coordinates":[[139.785991,35.541522],[139.786216,35.54122],[139.786404,35.540952],[139.7866,35.540672],[139.786988,35.540127],[139.787466,35.539454],[139.787855,35.538906],[139.788192,35.538427]]}},{"type":"Feature","properties":{"aeroway":"taxiway","ref":"A","surface":"asphalt"},"geometry":{"type":"LineString","coordinates":[[139.78502,35.54109],[139.785432,35.54051],[139.786388,35.539165],[139.787195,35.53803],[139.787224,35.537988],[139.787471,35.537638],[139.787488,35.537614]]}},{"type":"Feature","properties":{"aeroway":"taxiway","ref":"A3","surface":"asphalt"},"geometry":{"type":"LineString","coordinates":[[139.78283,35.540591],[139.783333,35.540829],[139.783412,35.54087],[139.783556,35.540937],[139.783662,35.540988],[139.784218,35.541255],[139.784314,35.541299],[139.784423,35.54135],[139.784738,35.541496]]}},{"type":"Feature","properties":{"aeroway":"taxiway","ref":"P4","surface":"asphalt"},"geometry":{"type":"LineString","coordinates":[[139.77989,35.540241],[139.779946,35.540268],[139.780366,35.540471]]}},{"type":"Feature","properties":{"aeroway":"taxiway","surface":"asphalt"},"geometry":{"type":"LineString","coordinates":[[139.779657,35.541475],[139.779764,35.541381],[139.779906,35.541309],[139.780034,35.541276],[139.780101,35.541266],[139.780242,35.541264],[139.78041,35.541297],[139.78056,35.54136],[139.780678,35.541446],[139.780761,35.541542],[139.780808,35.541641],[139.780825,35.541696],[139.780834,35.541796]]}},{"type":"Feature","properties":{"aeroway":"taxiway","surface":"asphalt"},"geometry":{"type":"LineString","coordinates":[[139.780471,35.539476],[139.780551,35.539531],[139.780604,35.539575],[139.780637,35.53962],[139.780673,35.539679],[139.780702,35.539735],[139.780714,35.539781],[139.780716,35.539839],[139.780716,35.539897],[139.780704,35.53996],[139.780659,35.540055]]}},{"type":"Feature","properties":{"aeroway":"taxiway","surface":"asphalt"},"geometry":{"type":"LineString","coordinates":[[139.784094,35.541451],[139.784262,35.541408],[139.784376,35.541406],[139.784442,35.541409],[139.784486,35.541411],[139.784601,35.541439],[139.784738,35.541496]]}},{"type":"Feature","properties":{"aeroway":"taxiway","surface":"asphalt"},"geometry":{"type":"LineString","coordinates":[[139.78463,35.541288],[139.784423,35.54135],[139.784394,35.541358],[139.784342,35.541374],[139.784094,35.541451]]}},{"type":"Feature","properties":{"aeroway":"taxiway","surface":"asphalt"},"geometry":{"type":"LineString","coordinates":[[139.786388,35.539165],[139.786462,35.539025],[139.786493,35.538907],[139.786488,35.538787],[139.78645,35.538663],[139.786368,35.538546],[139.786265,35.538453],[139.786204,35.53842],[139.786139,35.538386],[139.785978,35.538338],[139.785825,35.538324],[139.785672,35.53834],[139.78552,35.538392]]}},{"type":"Feature","properties":{"aeroway":"taxiway","surface":"asphalt"},"geometry":{"type":"LineString","coordinates":[[139.78764,35.537686],[139.787563,35.537659],[139.787491,35.53764],[139.787471,35.537638],[139.787401,35.537627],[139.787299,35.537623],[139.787207,35.537631],[139.787171,35.537634],[139.787041,35.537673],[139.786897,35.537743],[139.786577,35.537894],[139.78552,35.538392]]}},{"type":"Feature","properties":{"aeroway":"taxiway","surface":"asphalt"},"geometry":{"type":"LineString","coordinates":[[139.783159,35.540128],[139.783113,35.540192]]}},{"type":"Feature","properties":{"aeroway":"taxiway","ref":"A2","surface":"asphalt"},"geometry":{"type":"LineString","coordinates":[[139.78552,35.538392],[139.785085,35.538597],[139.784562,35.538886],[139.78406,35.539237],[139.783666,35.539582],[139.783159,35.540128]]}}]}