{"type":"FeatureCollection","features":[{"type":"Feature","properties":{"aeroway":"taxiway","surface":"asphalt"},"geometry":{"type":"LineString","coordinates":[[139.786829,35.556737],[139.786867,35.5567],[139.786897,35.556672],[139.786939,35.556642],[139.786985,35.556614],[139.787031,35.556586],[139.787084,35.556562],[139.787139,35.556543],[139.787202,35.55653],[139.787266,35.55652],[139.787337,35.556512],[139.787406,35.556509],[139.787468,35.556512],[139.787535,35.55652],[139.787609,35.556536]]}},{"type":"Feature","properties":{"aeroway":"apron"},"geometry":{"type":"Polygon","coordinates":[[[139.784814,35.563214],[139.783342,35.562521],[139.782392,35.562084],[139.781604,35.561686],[139.784869,35.557083],[139.785236,35.556822],[139.786515,35.555016],[139.786973,35.554918],[139.789073,35.555902],[139.789458,35.555365],[139.78829,35.554824],[139.787571,35.554492],[139.787384,35.553907],[139.790881,35.548957],[139.791638,35.548787],[139.793507,35.549651],[139.793446,35.549733],[139.793997,35.549995],[139.79384,35.55021],[139.79399,35.550283],[139.792171,35.552843],[139.784814,35.563214]]]}},{"type":"Feature","properties":{"aeroway":"taxiway","ref":"E10","surface":"asphalt"},"geometry":{"type":"LineString","coordinates":[[139.787609,35.556536],[139.787575,35.55652],[139.787451,35.556458],[139.786898,35.556196]]}},{"type":"Feature","properties":{"aeroway":"taxiway","ref":"E","surface":"asphalt"},"geometry":{"type":"LineString","coordinates":[[139.786142,35.561072],[139.786184,35.561016],[139.786425,35.560673],[139.786663,35.560337],[139.786723,35.560255],[139.787684,35.558901],[139.788604,35.557604]]}},{"type":"Feature","properties":{"aeroway":"taxiway","ref":"R","surface":"asphalt"},"geometry":{"type":"LineString","coordinates":[[139.784943,35.55941],[139.784957,35.559391],[139.785104,35.559185],[139.785151,35.55912],[139.7855,35.558639],[139.785516,35.558616],[139.785879,35.558086],[139.785895,35.558062],[139.786281,35.557521],[139.786364,35.557402],[139.786666,35.556973],[139.786823,35.556746],[139.786829,35.556737]]}},{"type":"Feature","properties":{"aeroway":"terminal","name":"\u30dc\u30fc\u30c7\u30a3\u30f3\u30b0\u30b9\u30c6\u30fc\u30b7\u30e7\u30f3 506"},"geometry":{"type":"Polygon","coordinates":[[[139.786543,35.559422],[139.786466,35.559384],[139.786396,35.559384],[139.786398,35.559424],[139.786264,35.559435],[139.786254,35.55932],[139.78648,35.559305],[139.78659,35.559362],[139.786543,35.559422]]]}}]}