{"type":"FeatureCollection","features":[{"type":"Feature","properties":{"aeroway":"taxiway","ref":"C","surface":"asphalt"},"geometry":{"type":"LineString","coordinates":[[139.801446,35.541301],[139.801392,35.541372],[139.801149,35.541718],[139.800896,35.542071],[139.800846,35.54214],[139.800601,35.542496],[139.800531,35.542594],[139.800352,35.542845],[139.800304,35.542914]]}},{"type":"Feature","properties":{"aeroway":"taxiway","ref":"C5","surface":"asphalt"},"geometry":{"type":"LineString","coordinates":[[139.798394,35.545612],[139.798912,35.545863],[139.798992,35.5459],[139.79927,35.546031],[139.799424,35.546104],[139.799467,35.546124],[139.799558,35.546167],[139.799782,35.546273]]}},{"type":"Feature","properties":{"aeroway":"apron"},"geometry":{"type":"Polygon","coordinates":[[[139.79956,35.537674],[139.801071,35.538398],[139.800509,35.539182],[139.801328,35.539567],[139.801247,35.539686],[139.801317,35.539718],[139.801192,35.539893],[139.801253,35.539919],[139.80117,35.540023],[139.801234,35.540066],[139.798212,35.54433],[139.796607,35.546593],[139.794134,35.54542],[139.799527,35.537805],[139.799479,35.53778],[139.79956,35.537674]]]}},{"type":"Feature","properties":{"aeroway":"taxiway","surface":"asphalt"},"geometry":{"type":"LineString","coordinates":[[139.798665,35.545229],[139.798614,35.545287],[139.798567,35.545327],[139.798502,35.545365],[139.79845,35.545393],[139.79839,35.545415],[139.798317,35.545435],[139.798249,35.545446],[139.798185,35.545449],[139.798113,35.545448],[139.798052,35.545437],[139.797994,35.54542],[139.797906,35.545385],[139.797861,35.545363],[139.797827,35.545339],[139.797782,35.545306],[139.797743,35.545269],[139.797702,35.545214],[139.797667,35.545154],[139.797648,35.545099],[139.79764,35.545056],[139.797635,35.545005],[139.79764,35.544945],[139.797648,35.544893],[139.797673,35.544825]]}},{"type":"Feature","properties":{"aeroway":"taxiway","surface":"asphalt"},"geometry":{"type":"LineString","coordinates":[[139.800352,35.542845],[139.800383,35.542769],[139.800394,35.542718],[139.800401,35.542665],[139.800395,35.542608],[139.800384,35.542553],[139.800366,35.542507],[139.800341,35.542457],[139.800309,35.542414],[139.80027,35.542368],[139.800229,35.542337],[139.800198,35.542312],[139.800155,35.542285]]}},{"type":"Feature","properties":{"aeroway":"taxiway","ref":"C2","surface":"asphalt"},"geometry":{"type":"LineString","coordinates":[[139.801149,35.541718],[139.801578,35.541922],[139.801719,35.541988],[139.802183,35.542203],[139.80223,35.542225],[139.802324,35.542271],[139.802494,35.542352],[139.802589,35.542404],[139.802662,35.542466],[139.802716,35.542527],[139.802933,35.542803]]}},{"type":"Feature","properties":{"aeroway":"taxiway","surface":"asphalt"},"geometry":{"type":"LineString","coordinates":[[139.799913,35.541659],[139.799874,35.541745],[139.799857,35.541796],[139.799851,35.541844],[139.79985,35.541898],[139.799857,35.541962],[139.799875,35.542014],[139.7999,35.542066],[139.799928,35.54211],[139.799963,35.542153],[139.800006,35.542193],[139.800045,35.542222],[139.800084,35.542248]]}},{"type":"Feature","properties":{"aeroway":"taxiway","surface":"asphalt"},"geometry":{"type":"LineString","coordinates":[[139.801676,35.543004],[139.80173,35.543023],[139.801778,35.543034],[139.801829,35.543046],[139.801898,35.543051],[139.801964,35.543052],[139.802038,35.543044],[139.802116,35.543026],[139.802178,35.543004],[139.802233,35.542975],[139.802279,35.542949],[139.802322,35.542914],[139.802359,35.542875],[139.802426,35.542798],[139.802662,35.542466]]}},{"type":"Feature","properties":{"aeroway":"taxiway","ref":"C3","surface":"asphalt"},"geometry":{"type":"LineString","coordinates":[[139.802186,35.543849],[139.802232,35.543753],[139.802256,35.543686],[139.802264,35.543625],[139.802262,35.543556],[139.802249,35.543488],[139.802226,35.543422],[139.802193,35.543358],[139.802151,35.543298],[139.802102,35.543242],[139.802044,35.543192],[139.80198,35.543147],[139.80177,35.543048],[139.801676,35.543004],[139.801657,35.542995],[139.801635,35.542984],[139.801134,35.54275],[139.80101,35.542688],[139.800601,35.542496]]}},{"type":"Feature","properties":{"aeroway":"taxiway","surface":"asphalt"},"geometry":{"type":"LineString","coordinates":[[139.801578,35.541922],[139.801504,35.541897],[139.801427,35.541882],[139.801347,35.541877],[139.801267,35.541882],[139.80119,35.541897],[139.801116,35.541921],[139.801047,35.541955],[139.800986,35.541996],[139.800935,35.542034],[139.800896,35.542071]]}},{"type":"Feature","properties":{"aeroway":"taxiway","surface":"asphalt"},"geometry":{"type":"LineString","coordinates":[[139.800304,35.542914],[139.80034,35.542881],[139.800391,35.542838],[139.800447,35.5428],[139.800508,35.542768],[139.800583,35.542738],[139.800642,35.542719],[139.800713,35.542704],[139.800785,35.542696],[139.800858,35.542694],[139.800932,35.542698],[139.801003,35.54271],[139.801065,35.542726],[139.801134,35.54275]]}},{"type":"Feature","properties":{"aeroway":"taxiway","surface":"asphalt"},"geometry":{"type":"LineString","coordinates":[[139.798089,35.546028],[139.79815,35.545974],[139.798211,35.545927],[139.798269,35.545896],[139.798336,35.545864],[139.798406,35.54584],[139.798481,35.545823],[139.798567,35.545812],[139.798655,35.545812],[139.798731,35.545816],[139.798809,35.545831],[139.798862,35.545847],[139.798912,35.545863]]}},{"type":"Feature","properties":{"aeroway":"taxiway","surface":"asphalt"},"geometry":{"type":"LineString","coordinates":[[139.797372,35.547036],[139.797345,35.547085],[139.797325,35.547137],[139.797306,35.547195],[139.797296,35.54726],[139.797294,35.547313],[139.797299,35.547369],[139.797313,35.547426],[139.797329,35.547474],[139.797366,35.547545]]}},{"type":"Feature","properties":{"aeroway":"taxiway","surface":"asphalt"},"geometry":{"type":"LineString","coordinates":[[139.796436,35.546569],[139.79641,35.546626],[139.796393,35.546685],[139.796386,35.546745],[139.796389,35.546806],[139.796399,35.546862],[139.796415,35.546919],[139.796445,35.546973],[139.796482,35.547021],[139.796531,35.54707],[139.79657,35.547099],[139.79661,35.547131]]}},{"type":"Feature","properties":{"aeroway":"taxiway","surface":"asphalt"},"geometry":{"type":"LineString","coordinates":[[139.798704,35.545178],[139.798671,35.54524],[139.798651,35.545286],[139.798634,35.545335],[139.798631,35.54539],[139.798628,35.545454],[139.798639,35.545521],[139.79866,35.545584],[139.798687,35.545642],[139.798722,35.545696],[139.798758,35.54574],[139.798804,35.545783],[139.79885,35.545822],[139.798912,35.545863]]}},{"type":"Feature","properties":{"aeroway":"taxiway","surface":"asphalt"},"geometry":{"type":"LineString","coordinates":[[139.798131,35.545969],[139.798164,35.545879],[139.798178,35.545824],[139.798181,35.545732],[139.798166,35.545666],[139.798138,35.545595],[139.798096,35.545533],[139.798044,35.545481],[139.797991,35.545436],[139.797906,35.545385],[139.797859,35.545366],[139.797819,35.545352],[139.797762,35.545338],[139.797688,35.54533],[139.797621,35.545327],[139.797548,35.545332],[139.797478,35.545344],[139.797412,35.545362],[139.797345,35.545387],[139.797283,35.545419],[139.797224,35.545456]]}},{"type":"Feature","properties":{"aeroway":"taxiway","surface":"asphalt"},"geometry":{"type":"LineString","coordinates":[[139.799782,35.546273],[139.79987,35.546337],[139.799943,35.546412],[139.799999,35.546497],[139.800035,35.546589],[139.800051,35.546684],[139.800046,35.54678],[139.800021,35.546874],[139.799975,35.546962]]}},{"type":"Feature","properties":{"aeroway":"taxiway","surface":"asphalt"},"geometry":{"type":"LineString","coordinates":[[139.800084,35.542248],[139.800031,35.542232],[139.799973,35.542217],[139.799918,35.542211],[139.799862,35.542207],[139.799801,35.542207],[139.799743,35.542214],[139.799705,35.542221],[139.799622,35.542244],[139.799544,35.542278],[139.799473,35.542321],[139.799412,35.542379],[139.799362,35.542432]]}},{"type":"Feature","properties":{"aeroway":"taxiway","surface":"asphalt"},"geometry":{"type":"LineString","coordinates":[[139.800155,35.542285],[139.800215,35.542306],[139.80027,35.542318],[139.800331,35.542328],[139.800405,35.542331],[139.800476,35.542327],[139.800549,35.542314],[139.80062,35.542294],[139.800677,35.542266],[139.800738,35.542233],[139.800792,35.542194],[139.800846,35.54214]]}},{"type":"Feature","properties":{"aeroway":"taxiway","surface":"asphalt"},"geometry":{"type":"LineString","coordinates":[[139.800896,35.542071],[139.800922,35.542016],[139.800936,35.541973],[139.800942,35.541933],[139.800947,35.541895],[139.800946,35.541843],[139.800936,35.541782],[139.800915,35.54172],[139.800885,35.541669],[139.800854,35.541627],[139.80082,35.54159],[139.800767,35.541546],[139.800728,35.541521],[139.800683,35.541494]]}},{"type":"Feature","properties":{"aeroway":"taxiway","surface":"asphalt"},"geometry":{"type":"LineString","coordinates":[[139.800846,35.54214],[139.800819,35.542216],[139.800805,35.542264],[139.800803,35.542315],[139.800803,35.542376],[139.800812,35.542429],[139.800833,35.542484],[139.800864,35.542541],[139.800901,35.542595],[139.800956,35.542646],[139.80101,35.542688]]}},{"type":"Feature","properties":{"aeroway":"taxiway","surface":"asphalt"},"geometry":{"type":"LineString","coordinates":[[139.801446,35.541301],[139.801426,35.541355],[139.801412,35.541398],[139.801398,35.541482],[139.801394,35.541533],[139.801402,35.541593],[139.801412,35.541646],[139.801428,35.541688],[139.801454,35.541739],[139.801487,35.541796],[139.801526,35.541847],[139.801581,35.541898],[139.801644,35.541942],[139.801719,35.541988]]}},{"type":"Feature","properties":{"aeroway":"taxiway","surface":"asphalt"},"geometry":{"type":"LineString","coordinates":[[139.796704,35.547176],[139.796792,35.547198],[139.796868,35.547211],[139.796942,35.547214],[139.797014,35.547211],[139.797089,35.547196],[139.797152,35.547178],[139.797221,35.547146],[139.797276,35.547119],[139.797326,35.547078],[139.797372,35.547036]]}},{"type":"Feature","properties":{"aeroway":"taxiway","ref":"C6","surface":"asphalt"},"geometry":{"type":"LineString","coordinates":[[139.798992,35.5459],[139.799015,35.545917],[139.799078,35.545961],[139.799136,35.54601],[139.799177,35.546054],[139.799212,35.546107],[139.799242,35.546166],[139.799268,35.54623],[139.799278,35.546295],[139.799282,35.546384],[139.799282,35.546396],[139.799279,35.546618],[139.799268,35.546866],[139.79923,35.547147],[139.799175,35.547424],[139.799117,35.547661],[139.798998,35.548028],[139.798856,35.548392],[139.798681,35.548785]]}},{"type":"Feature","properties":{"aeroway":"taxiway","surface":"asphalt"},"geometry":{"type":"LineString","coordinates":[[139.796882,35.547733],[139.796909,35.547671],[139.796924,35.547626],[139.796931,35.547578],[139.796933,35.547515],[139.796925,35.547461],[139.79691,35.547405],[139.796882,35.547354],[139.796852,35.547307],[139.796816,35.547264],[139.796765,35.547219],[139.796704,35.547176]]}},{"type":"Feature","properties":{"aeroway":"taxiway","ref":"E2","surface":"asphalt"},"geometry":{"type":"LineString","coordinates":[[139.800683,35.541494],[139.801149,35.541718]]}},{"type":"Feature","properties":{"aeroway":"taxiway","ref":"E3","surface":"asphalt"},"geometry":{"type":"LineString","coordinates":[[139.800601,35.542496],[139.800291,35.542349],[139.800155,35.542285],[139.800117,35.542266],[139.800084,35.542248],[139.799642,35.542038],[139.79915,35.541808],[139.797969,35.541243]]}},{"type":"Feature","properties":{"aeroway":"taxiway","ref":"E5","surface":"asphalt"},"geometry":{"type":"LineString","coordinates":[[139.797906,35.545385],[139.798394,35.545612]]}},{"type":"Feature","properties":{"aeroway":"taxiway","ref":"E","surface":"asphalt"},"geometry":{"type":"LineString","coordinates":[[139.797224,35.545456],[139.79724,35.545434],[139.797623,35.544894],[139.797673,35.544825],[139.797744,35.544734],[139.797996,35.544369],[139.798024,35.544329],[139.798239,35.544035],[139.798403,35.543796],[139.79882,35.543206],[139.799185,35.542686],[139.799362,35.542432]]}},{"type":"Feature","properties":{"aeroway":"taxiway","ref":"C","surface":"asphalt"},"geometry":{"type":"LineString","coordinates":[[139.800304,35.542914],[139.7995,35.544055],[139.799398,35.5442],[139.799191,35.544486],[139.799162,35.544532],[139.798946,35.544831],[139.798704,35.545178]]}},{"type":"Feature","properties":{"aeroway":"taxiway","ref":"C","surface":"asphalt"},"geometry":{"type":"LineString","coordinates":[[139.798704,35.545178],[139.798665,35.545229],[139.798394,35.545612],[139.798131,35.545969],[139.798089,35.546028],[139.797481,35.546884],[139.797372,35.547036]]}},{"type":"Feature","properties":{"aeroway":"taxiway","surface":"asphalt"},"geometry":{"type":"LineString","coordinates":[[139.79915,35.541808],[139.799254,35.541832],[139.79933,35.541843],[139.79939,35.541847],[139.799467,35.541842],[139.799562,35.54183],[139.799639,35.54181],[139.799709,35.541787],[139.799774,35.541754],[139.799857,35.541704],[139.799913,35.541659]]}},{"type":"Feature","properties":{"aeroway":"taxiway","surface":"asphalt"},"geometry":{"type":"LineString","coordinates":[[139.799362,35.542432],[139.799385,35.542363],[139.799395,35.542326],[139.799402,35.542263],[139.799399,35.542212],[139.799395,35.542156],[139.79938,35.542096],[139.799358,35.542043],[139.799323,35.541987],[139.799277,35.541919],[139.79923,35.541867],[139.79915,35.541808]]}},{"type":"Feature","properties":{"aeroway":"taxiway","surface":"asphalt"},"geometry":{"type":"LineString","coordinates":[[139.799268,35.54623],[139.79927,35.546031],[139.799278,35.545294],[139.799272,35.545205],[139.799241,35.545112],[139.799193,35.54504],[139.799181,35.545004],[139.799129,35.544951],[139.799074,35.544905],[139.799022,35.544872],[139.798946,35.544831]]}},{"type":"Feature","properties":{"aeroway":"taxiway","ref":"C4","surface":"asphalt"},"geometry":{"type":"LineString","coordinates":[[139.800077,35.546817],[139.800179,35.546582],[139.800264,35.546347],[139.800373,35.546056],[139.800458,35.545761],[139.800533,35.545405],[139.800562,35.545127],[139.80058,35.544842],[139.800592,35.544564],[139.800592,35.544542],[139.800595,35.544483],[139.800584,35.54278],[139.800583,35.542738],[139.80058,35.542639],[139.800592,35.542553],[139.800601,35.542496]]}},{"type":"Feature","properties":{"aeroway":"taxiway","ref":"C4","surface":"asphalt"},"geometry":{"type":"LineString","coordinates":[[139.800595,35.544483],[139.800573,35.54438],[139.800541,35.544301],[139.8005,35.544236],[139.800447,35.544177],[139.800384,35.544124],[139.800321,35.544078],[139.800253,35.544045],[139.800185,35.544017],[139.8001,35.543995],[139.800015,35.543982],[139.799945,35.543977],[139.799868,35.543979],[139.799805,35.543987],[139.799742,35.544001],[139.799683,35.544017],[139.799624,35.544039],[139.799572,35.544064],[139.799549,35.544077],[139.799519,35.544094],[139.799466,35.544137],[139.799398,35.5442]]}},{"type":"Feature","properties":{"aeroway":"taxiway","surface":"asphalt"},"geometry":{"type":"LineString","coordinates":[[139.800584,35.54278],[139.800583,35.542738],[139.800556,35.542643],[139.800531,35.542594],[139.800496,35.542528],[139.800408,35.54243],[139.800291,35.542349]]}},{"type":"Feature","properties":{"aeroway":"taxiway","surface":"asphalt"},"geometry":{"type":"LineString","coordinates":[[139.799181,35.545004],[139.79914,35.544921],[139.79911,35.544809],[139.799107,35.544732],[139.79912,35.544638],[139.799162,35.544532]]}},{"type":"Feature","properties":{"aeroway":"taxiway","surface":"asphalt"},"geometry":{"type":"LineString","coordinates":[[139.798665,35.545229],[139.798704,35.545165],[139.798726,35.54511],[139.798744,35.545029],[139.798741,35.544948],[139.798728,35.544884],[139.798702,35.544821],[139.798672,35.544774],[139.798625,35.544718],[139.798562,35.544663],[139.798461,35.544603],[139.798382,35.544573],[139.798312,35.544557],[139.798232,35.544548],[139.798163,35.544546],[139.798077,35.544556],[139.798012,35.54457],[139.797947,35.544593],[139.797891,35.544616],[139.797825,35.544658],[139.797744,35.544734]]}},{"type":"Feature","properties":{"aeroway":"taxiway","surface":"asphalt"},"geometry":{"type":"LineString","coordinates":[[139.799191,35.544486],[139.799146,35.544528],[139.799121,35.544549],[139.799078,35.544577],[139.799039,35.5446],[139.798975,35.544627],[139.798909,35.544648],[139.798849,35.544659],[139.798791,35.544666],[139.798721,35.544668],[139.798645,35.54466],[139.798574,35.544647],[139.798461,35.544603],[139.79839,35.54456],[139.798324,35.544511],[139.798285,35.544469],[139.798255,35.544424],[139.798231,35.544377],[139.798212,35.54433],[139.7982,35.544276],[139.798194,35.54422],[139.798198,35.544165],[139.798208,35.544115],[139.798239,35.544035]]}},{"type":"Feature","properties":{"aeroway":"taxiway","ref":"E4","surface":"asphalt"},"geometry":{"type":"LineString","coordinates":[[139.798946,35.544831],[139.798461,35.544603]]}}]}